[{"zip_code":"7600000","prefecture_kana":"カガワケン","city_kana":"タカマツシ","town_kana":"イカニケイサイガナイバアイ","prefecture":"香川県","city":"高松市","town":"以下に掲載がない場合"},{"zip_code":"7600002","prefecture_kana":"カガワケン","city_kana":"タカマツシ","town_kana":"アカネチョウ","prefecture":"香川県","city":"高松市","town":"茜町"},{"zip_code":"7600064","prefecture_kana":"カガワケン","city_kana":"タカマツシ","town_kana":"アサヒシンマチ","prefecture":"香川県","city":"高松市","town":"朝日新町"},{"zip_code":"7600065","prefecture_kana":"カガワケン","city_kana":"タカマツシ","town_kana":"アサヒマチ","prefecture":"香川県","city":"高松市","town":"朝日町"},{"zip_code":"7610130","prefecture_kana":"カガワケン","city_kana":"タカマツシ","town_kana":"アジチョウ","prefecture":"香川県","city":"高松市","town":"庵治町"},{"zip_code":"7618033","prefecture_kana":"カガワケン","city_kana":"タカマツシ","town_kana":"イイダチョウ","prefecture":"香川県","city":"高松市","town":"飯田町"},{"zip_code":"7618002","prefecture_kana":"カガワケン","city_kana":"タカマツシ","town_kana":"イクシマチョウ","prefecture":"香川県","city":"高松市","town":"生島町"},{"zip_code":"7600038","prefecture_kana":"カガワケン","city_kana":"タカマツシ","town_kana":"イグチマチ","prefecture":"香川県","city":"高松市","town":"井口町"},{"zip_code":"7610444","prefecture_kana":"カガワケン","city_kana":"タカマツシ","town_kana":"イケダチョウ","prefecture":"香川県","city":"高松市","town":"池田町"},{"zip_code":"7618084","prefecture_kana":"カガワケン","city_kana":"タカマツシ","town_kana":"イチノミヤチョウ","prefecture":"香川県","city":"高松市","town":"一宮町"},{"zip_code":"7600078","prefecture_kana":"カガワケン","city_kana":"タカマツシ","town_kana":"イマザトチョウ","prefecture":"香川県","city":"高松市","town":"今里町"},{"zip_code":"7600043","prefecture_kana":"カガワケン","city_kana":"タカマツシ","town_kana":"イマジンマチ","prefecture":"香川県","city":"高松市","town":"今新町"},{"zip_code":"7618005","prefecture_kana":"カガワケン","city_kana":"タカマツシ","town_kana":"ウエマツチョウ","prefecture":"香川県","city":"高松市","town":"植松町"},{"zip_code":"7600034","prefecture_kana":"カガワケン","city_kana":"タカマツシ","town_kana":"ウチマチ","prefecture":"香川県","city":"高松市","town":"内町"},{"zip_code":"7618044","prefecture_kana":"カガワケン","city_kana":"タカマツシ","town_kana":"エンザチョウ","prefecture":"香川県","city":"高松市","town":"円座町"},{"zip_code":"7600013","prefecture_kana":"カガワケン","city_kana":"タカマツシ","town_kana":"オウギマチ","prefecture":"香川県","city":"高松市","town":"扇町"},{"zip_code":"7618074","prefecture_kana":"カガワケン","city_kana":"タカマツシ","town_kana":"オオタカミマチ","prefecture":"香川県","city":"高松市","town":"太田上町"},{"zip_code":"7618073","prefecture_kana":"カガワケン","city_kana":"タカマツシ","town_kana":"オオタシモマチ","prefecture":"香川県","city":"高松市","town":"太田下町"},{"zip_code":"7618047","prefecture_kana":"カガワケン","city_kana":"タカマツシ","town_kana":"オカモトチョウ","prefecture":"香川県","city":"高松市","town":"岡本町"},{"zip_code":"7600091","prefecture_kana":"カガワケン","city_kana":"タカマツシ","town_kana":"オギチョウ","prefecture":"香川県","city":"高松市","town":"男木町"},{"zip_code":"7610431","prefecture_kana":"カガワケン","city_kana":"タカマツシ","town_kana":"オモレチョウ","prefecture":"香川県","city":"高松市","town":"小村町"},{"zip_code":"7611703","prefecture_kana":"カガワケン","city_kana":"タカマツシ","town_kana":"カガワチョウアサノ","prefecture":"香川県","city":"高松市","town":"香川町浅野"},{"zip_code":"7611701","prefecture_kana":"カガワケン","city_kana":"タカマツシ","town_kana":"カガワチョウオオノ","prefecture":"香川県","city":"高松市","town":"香川町大野"},{"zip_code":"7611704","prefecture_kana":"カガワケン","city_kana":"タカマツシ","town_kana":"カガワチョウカワナイハラ","prefecture":"香川県","city":"高松市","town":"香川町川内原"},{"zip_code":"7611706","prefecture_kana":"カガワケン","city_kana":"タカマツシ","town_kana":"カガワチョウカワヒガシカミ","prefecture":"香川県","city":"高松市","town":"香川町川東上"},{"zip_code":"7611705","prefecture_kana":"カガワケン","city_kana":"タカマツシ","town_kana":"カガワチョウカワヒガシシモ","prefecture":"香川県","city":"高松市","town":"香川町川東下"},{"zip_code":"7611702","prefecture_kana":"カガワケン","city_kana":"タカマツシ","town_kana":"カガワチョウテライ","prefecture":"香川県","city":"高松市","town":"香川町寺井"},{"zip_code":"7611707","prefecture_kana":"カガワケン","city_kana":"タカマツシ","town_kana":"カガワチョウヒガシタニ","prefecture":"香川県","city":"高松市","town":"香川町東谷"},{"zip_code":"7611708","prefecture_kana":"カガワケン","city_kana":"タカマツシ","town_kana":"カガワチョウヤスハラシモ","prefecture":"香川県","city":"高松市","town":"香川町安原下"},{"zip_code":"7600028","prefecture_kana":"カガワケン","city_kana":"タカマツシ","town_kana":"カジヤマチ","prefecture":"香川県","city":"高松市","town":"鍛冶屋町"},{"zip_code":"7610101","prefecture_kana":"カガワケン","city_kana":"タカマツシ","town_kana":"カスガチョウ","prefecture":"香川県","city":"高松市","town":"春日町"},{"zip_code":"7600040","prefecture_kana":"カガワケン","city_kana":"タカマツシ","town_kana":"カタハラマチ","prefecture":"香川県","city":"高松市","town":"片原町"},{"zip_code":"7618082","prefecture_kana":"カガワケン","city_kana":"タカマツシ","town_kana":"カノツノチョウ","prefecture":"香川県","city":"高松市","town":"鹿角町"},{"zip_code":"7618056","prefecture_kana":"カガワケン","city_kana":"タカマツシ","town_kana":"カミテンジンチョウ","prefecture":"香川県","city":"高松市","town":"上天神町"},{"zip_code":"7618064","prefecture_kana":"カガワケン","city_kana":"タカマツシ","town_kana":"カミノチョウ","prefecture":"香川県","city":"高松市","town":"上之町"},{"zip_code":"7610302","prefecture_kana":"カガワケン","city_kana":"タカマツシ","town_kana":"カミハヤシチョウ","prefecture":"香川県","city":"高松市","town":"上林町"},{"zip_code":"7600077","prefecture_kana":"カガワケン","city_kana":"タカマツシ","town_kana":"カミフクオカチョウ","prefecture":"香川県","city":"高松市","town":"上福岡町"},{"zip_code":"7618055","prefecture_kana":"カガワケン","city_kana":"タカマツシ","town_kana":"カミマチ","prefecture":"香川県","city":"高松市","town":"紙町"},{"zip_code":"7600050","prefecture_kana":"カガワケン","city_kana":"タカマツシ","town_kana":"カメイチョウ","prefecture":"香川県","city":"高松市","town":"亀井町"},{"zip_code":"7600006","prefecture_kana":"カガワケン","city_kana":"タカマツシ","town_kana":"カメオカチョウ","prefecture":"香川県","city":"高松市","town":"亀岡町"},{"zip_code":"7610323","prefecture_kana":"カガワケン","city_kana":"タカマツシ","town_kana":"カメダチョウ","prefecture":"香川県","city":"高松市","town":"亀田町"},{"zip_code":"7610432","prefecture_kana":"カガワケン","city_kana":"タカマツシ","town_kana":"カメダミナミマチ","prefecture":"香川県","city":"高松市","town":"亀田南町"},{"zip_code":"7610443","prefecture_kana":"カガワケン","city_kana":"タカマツシ","town_kana":"カワシマヒガシマチ","prefecture":"香川県","city":"高松市","town":"川島東町"},{"zip_code":"7610442","prefecture_kana":"カガワケン","city_kana":"タカマツシ","town_kana":"カワシマホンマチ","prefecture":"香川県","city":"高松市","town":"川島本町"},{"zip_code":"7618046","prefecture_kana":"カガワケン","city_kana":"タカマツシ","town_kana":"カワナベチョウ","prefecture":"香川県","city":"高松市","town":"川部町"},{"zip_code":"7600052","prefecture_kana":"カガワケン","city_kana":"タカマツシ","town_kana":"カワラマチ","prefecture":"香川県","city":"高松市","town":"瓦町"},{"zip_code":"7600076","prefecture_kana":"カガワケン","city_kana":"タカマツシ","town_kana":"カンコウチョウ","prefecture":"香川県","city":"高松市","town":"観光町"},{"zip_code":"7600055","prefecture_kana":"カガワケン","city_kana":"タカマツシ","town_kana":"カンコウドオリ","prefecture":"香川県","city":"高松市","town":"観光通"},{"zip_code":"7600080","prefecture_kana":"カガワケン","city_kana":"タカマツシ","town_kana":"キタチョウ","prefecture":"香川県","city":"高松市","town":"木太町"},{"zip_code":"7600031","prefecture_kana":"カガワケン","city_kana":"タカマツシ","town_kana":"キタハマチョウ","prefecture":"香川県","city":"高松市","town":"北浜町"},{"zip_code":"7618026","prefecture_kana":"カガワケン","city_kana":"タカマツシ","town_kana":"キナシチョウキナシ","prefecture":"香川県","city":"高松市","town":"鬼無町鬼無"},{"zip_code":"7618021","prefecture_kana":"カガワケン","city_kana":"タカマツシ","town_kana":"キナシチョウコレタケ","prefecture":"香川県","city":"高松市","town":"鬼無町是竹"},{"zip_code":"7618023","prefecture_kana":"カガワケン","city_kana":"タカマツシ","town_kana":"キナシチョウサトウ","prefecture":"香川県","city":"高松市","town":"鬼無町佐藤"},{"zip_code":"7618022","prefecture_kana":"カガワケン","city_kana":"タカマツシ","town_kana":"キナシチョウサリョウ","prefecture":"香川県","city":"高松市","town":"鬼無町佐料"},{"zip_code":"7618024","prefecture_kana":"カガワケン","city_kana":"タカマツシ","town_kana":"キナシチョウフジイ","prefecture":"香川県","city":"高松市","town":"鬼無町藤井"},{"zip_code":"7618025","prefecture_kana":"カガワケン","city_kana":"タカマツシ","town_kana":"キナシチョウヤマグチ","prefecture":"香川県","city":"高松市","town":"鬼無町山口"},{"zip_code":"7600075","prefecture_kana":"カガワケン","city_kana":"タカマツシ","town_kana":"クスガミチョウ","prefecture":"香川県","city":"高松市","town":"楠上町"},{"zip_code":"7618013","prefecture_kana":"カガワケン","city_kana":"タカマツシ","town_kana":"コウザイヒガシマチ","prefecture":"香川県","city":"高松市","town":"香西東町"},{"zip_code":"7618015","prefecture_kana":"カガワケン","city_kana":"タカマツシ","town_kana":"コウザイニシマチ","prefecture":"香川県","city":"高松市","town":"香西西町"},{"zip_code":"7618014","prefecture_kana":"カガワケン","city_kana":"タカマツシ","town_kana":"コウザイミナミマチ","prefecture":"香川県","city":"高松市","town":"香西南町"},{"zip_code":"7618011","prefecture_kana":"カガワケン","city_kana":"タカマツシ","town_kana":"コウザイキタマチ","prefecture":"香川県","city":"高松市","town":"香西北町"},{"zip_code":"7618012","prefecture_kana":"カガワケン","city_kana":"タカマツシ","town_kana":"コウザイホンマチ","prefecture":"香川県","city":"高松市","town":"香西本町"},{"zip_code":"7618031","prefecture_kana":"カガワケン","city_kana":"タカマツシ","town_kana":"ゴウトウチョウ","prefecture":"香川県","city":"高松市","town":"郷東町"},{"zip_code":"7611405","prefecture_kana":"カガワケン","city_kana":"タカマツシ","town_kana":"コウナンチョウイケノウチ","prefecture":"香川県","city":"高松市","town":"香南町池内"},{"zip_code":"7611401","prefecture_kana":"カガワケン","city_kana":"タカマツシ","town_kana":"コウナンチョウオカ","prefecture":"香川県","city":"高松市","town":"香南町岡"},{"zip_code":"7611406","prefecture_kana":"カガワケン","city_kana":"タカマツシ","town_kana":"コウナンチョウニシノショウ","prefecture":"香川県","city":"高松市","town":"香南町西庄"},{"zip_code":"7611402","prefecture_kana":"カガワケン","city_kana":"タカマツシ","town_kana":"コウナンチョウユサ","prefecture":"香川県","city":"高松市","town":"香南町由佐"},{"zip_code":"7611404","prefecture_kana":"カガワケン","city_kana":"タカマツシ","town_kana":"コウナンチョウヨコイ","prefecture":"香川県","city":"高松市","town":"香南町横井"},{"zip_code":"7611403","prefecture_kana":"カガワケン","city_kana":"タカマツシ","town_kana":"コウナンチョウヨシミツ","prefecture":"香川県","city":"高松市","town":"香南町吉光"},{"zip_code":"7690105","prefecture_kana":"カガワケン","city_kana":"タカマツシ","town_kana":"コクブンジチョウカシハラ","prefecture":"香川県","city":"高松市","town":"国分寺町柏原"},{"zip_code":"7690102","prefecture_kana":"カガワケン","city_kana":"タカマツシ","town_kana":"コクブンジチョウコクブ","prefecture":"香川県","city":"高松市","town":"国分寺町国分"},{"zip_code":"7690104","prefecture_kana":"カガワケン","city_kana":"タカマツシ","town_kana":"コクブンジチョウシンミョウ","prefecture":"香川県","city":"高松市","town":"国分寺町新名"},{"zip_code":"7690101","prefecture_kana":"カガワケン","city_kana":"タカマツシ","town_kana":"コクブンジチョウニイ","prefecture":"香川県","city":"高松市","town":"国分寺町新居"},{"zip_code":"7690103","prefecture_kana":"カガワケン","city_kana":"タカマツシ","town_kana":"コクブンジチョウフケ","prefecture":"香川県","city":"高松市","town":"国分寺町福家"},{"zip_code":"7600023","prefecture_kana":"カガワケン","city_kana":"タカマツシ","town_kana":"コトブキチョウ","prefecture":"香川県","city":"高松市","town":"寿町"},{"zip_code":"7600044","prefecture_kana":"カガワケン","city_kana":"タカマツシ","town_kana":"ゴボウマチ","prefecture":"香川県","city":"高松市","town":"御坊町"},{"zip_code":"7600027","prefecture_kana":"カガワケン","city_kana":"タカマツシ","town_kana":"コンヤマチ","prefecture":"香川県","city":"高松市","town":"紺屋町"},{"zip_code":"7600004","prefecture_kana":"カガワケン","city_kana":"タカマツシ","town_kana":"サイホウチョウ","prefecture":"香川県","city":"高松市","town":"西宝町"},{"zip_code":"7600016","prefecture_kana":"カガワケン","city_kana":"タカマツシ","town_kana":"サイワイチョウ","prefecture":"香川県","city":"高松市","town":"幸町"},{"zip_code":"7600074","prefecture_kana":"カガワケン","city_kana":"タカマツシ","town_kana":"サクラマチ","prefecture":"香川県","city":"高松市","town":"桜町"},{"zip_code":"7618072","prefecture_kana":"カガワケン","city_kana":"タカマツシ","town_kana":"サンジョウチョウ","prefecture":"香川県","city":"高松市","town":"三条町"},{"zip_code":"7600019","prefecture_kana":"カガワケン","city_kana":"タカマツシ","town_kana":"サンポート","prefecture":"香川県","city":"高松市","town":"サンポート"},{"zip_code":"7618083","prefecture_kana":"カガワケン","city_kana":"タカマツシ","town_kana":"サンミョウチョウ","prefecture":"香川県","city":"高松市","town":"三名町"},{"zip_code":"7600015","prefecture_kana":"カガワケン","city_kana":"タカマツシ","town_kana":"シウンチョウ","prefecture":"香川県","city":"高松市","town":"紫雲町"},{"zip_code":"7600062","prefecture_kana":"カガワケン","city_kana":"タカマツシ","town_kana":"シオガミチョウ","prefecture":"香川県","city":"高松市","town":"塩上町"},{"zip_code":"7611614","prefecture_kana":"カガワケン","city_kana":"タカマツシ","town_kana":"シオノエチョウカミニシオツ","prefecture":"香川県","city":"高松市","town":"塩江町上西乙"},{"zip_code":"7611613","prefecture_kana":"カガワケン","city_kana":"タカマツシ","town_kana":"シオノエチョウカミニシコウ","prefecture":"香川県","city":"高松市","town":"塩江町上西甲"},{"zip_code":"7611611","prefecture_kana":"カガワケン","city_kana":"タカマツシ","town_kana":"シオノエチョウヤスハラカミ","prefecture":"香川県","city":"高松市","town":"塩江町安原上"},{"zip_code":"7611612","prefecture_kana":"カガワケン","city_kana":"タカマツシ","town_kana":"シオノエチョウヤスハラカミヒガシ","prefecture":"香川県","city":"高松市","town":"塩江町安原上東"},{"zip_code":"7611615","prefecture_kana":"カガワケン","city_kana":"タカマツシ","town_kana":"シオノエチョウヤスハラシモ（カミコタ）","prefecture":"香川県","city":"高松市","town":"塩江町安原下（上小田）"},{"zip_code":"7611615","prefecture_kana":"カガワケン","city_kana":"タカマツシ","town_kana":"シオノエチョウヤスハラシモ（スミヤ）","prefecture":"香川県","city":"高松市","town":"塩江町安原下（炭谷）"},{"zip_code":"7611501","prefecture_kana":"カガワケン","city_kana":"タカマツシ","town_kana":"シオノエチョウヤスハラシモ（ダイ１ゴウ）","prefecture":"香川県","city":"高松市","town":"塩江町安原下（第１号）"},{"zip_code":"7611502","prefecture_kana":"カガワケン","city_kana":"タカマツシ","town_kana":"シオノエチョウヤスハラシモ（ダイ２ゴウ）","prefecture":"香川県","city":"高松市","town":"塩江町安原下（第２号）"},{"zip_code":"7611503","prefecture_kana":"カガワケン","city_kana":"タカマツシ","town_kana":"シオノエチョウヤスハラシモ（ダイ３ゴウ）","prefecture":"香川県","city":"高松市","town":"塩江町安原下（第３号）"},{"zip_code":"7611504","prefecture_kana":"カガワケン","city_kana":"タカマツシ","town_kana":"シオノエチョウヤスハラシモ（ソノタ）","prefecture":"香川県","city":"高松市","town":"塩江町安原下（その他）"},{"zip_code":"7600047","prefecture_kana":"カガワケン","city_kana":"タカマツシ","town_kana":"シオヤマチ","prefecture":"香川県","city":"高松市","town":"塩屋町"},{"zip_code":"7610313","prefecture_kana":"カガワケン","city_kana":"タカマツシ","town_kana":"シモタイチョウ","prefecture":"香川県","city":"高松市","town":"下田井町"},{"zip_code":"7618077","prefecture_kana":"カガワケン","city_kana":"タカマツシ","town_kana":"シュツサクチョウ","prefecture":"香川県","city":"高松市","town":"出作町"},{"zip_code":"7600036","prefecture_kana":"カガワケン","city_kana":"タカマツシ","town_kana":"ジョウトウチョウ","prefecture":"香川県","city":"高松市","town":"城東町"},{"zip_code":"7600014","prefecture_kana":"カガワケン","city_kana":"タカマツシ","town_kana":"ショウワチョウ","prefecture":"香川県","city":"高松市","town":"昭和町"},{"zip_code":"7600001","prefecture_kana":"カガワケン","city_kana":"タカマツシ","town_kana":"シンキタマチ","prefecture":"香川県","city":"高松市","town":"新北町"},{"zip_code":"7618003","prefecture_kana":"カガワケン","city_kana":"タカマツシ","town_kana":"シンザイカワクボチョウ","prefecture":"香川県","city":"高松市","town":"神在川窪町"},{"zip_code":"7610102","prefecture_kana":"カガワケン","city_kana":"タカマツシ","town_kana":"シンデンチョウコウ","prefecture":"香川県","city":"高松市","town":"新田町甲"},{"zip_code":"7610103","prefecture_kana":"カガワケン","city_kana":"タカマツシ","town_kana":"シンデンチョウオツ","prefecture":"香川県","city":"高松市","town":"新田町乙"},{"zip_code":"7600060","prefecture_kana":"カガワケン","city_kana":"タカマツシ","town_kana":"スエヒロチョウ","prefecture":"香川県","city":"高松市","town":"末広町"},{"zip_code":"7611616","prefecture_kana":"カガワケン","city_kana":"タカマツシ","town_kana":"スゲザワチョウ","prefecture":"香川県","city":"高松市","town":"菅沢町"},{"zip_code":"7600012","prefecture_kana":"カガワケン","city_kana":"タカマツシ","town_kana":"セトウチチョウ","prefecture":"香川県","city":"高松市","town":"瀬戸内町"},{"zip_code":"7610434","prefecture_kana":"カガワケン","city_kana":"タカマツシ","town_kana":"ソガワヒガシマチ","prefecture":"香川県","city":"高松市","town":"十川東町"},{"zip_code":"7610433","prefecture_kana":"カガワケン","city_kana":"タカマツシ","town_kana":"ソガワニシマチ","prefecture":"香川県","city":"高松市","town":"十川西町"},{"zip_code":"7610104","prefecture_kana":"カガワケン","city_kana":"タカマツシ","town_kana":"タカマツチョウ","prefecture":"香川県","city":"高松市","town":"高松町"},{"zip_code":"7600063","prefecture_kana":"カガワケン","city_kana":"タカマツシ","town_kana":"タガチョウ","prefecture":"香川県","city":"高松市","town":"多賀町"},{"zip_code":"7618076","prefecture_kana":"カガワケン","city_kana":"タカマツシ","town_kana":"タヒカミマチ","prefecture":"香川県","city":"高松市","town":"多肥上町"},{"zip_code":"7618075","prefecture_kana":"カガワケン","city_kana":"タカマツシ","town_kana":"タヒシモマチ","prefecture":"香川県","city":"高松市","town":"多肥下町"},{"zip_code":"7600053","prefecture_kana":"カガワケン","city_kana":"タカマツシ","town_kana":"タマチ","prefecture":"香川県","city":"高松市","town":"田町"},{"zip_code":"7600030","prefecture_kana":"カガワケン","city_kana":"タカマツシ","town_kana":"タマモチョウ","prefecture":"香川県","city":"高松市","town":"玉藻町"},{"zip_code":"7618057","prefecture_kana":"カガワケン","city_kana":"タカマツシ","town_kana":"タムラチョウ","prefecture":"香川県","city":"高松市","town":"田村町"},{"zip_code":"7618001","prefecture_kana":"カガワケン","city_kana":"タカマツシ","town_kana":"タルミチョウ","prefecture":"香川県","city":"高松市","town":"亀水町"},{"zip_code":"7600042","prefecture_kana":"カガワケン","city_kana":"タカマツシ","town_kana":"ダイクマチ","prefecture":"香川県","city":"高松市","town":"大工町"},{"zip_code":"7618041","prefecture_kana":"カガワケン","city_kana":"タカマツシ","town_kana":"ダンシチョウ","prefecture":"香川県","city":"高松市","town":"檀紙町"},{"zip_code":"7600007","prefecture_kana":"カガワケン","city_kana":"タカマツシ","town_kana":"チュウオウチョウ","prefecture":"香川県","city":"高松市","town":"中央町"},{"zip_code":"7618058","prefecture_kana":"カガワケン","city_kana":"タカマツシ","town_kana":"チョクシチョウ","prefecture":"香川県","city":"高松市","town":"勅使町"},{"zip_code":"7600061","prefecture_kana":"カガワケン","city_kana":"タカマツシ","town_kana":"ツキジチョウ","prefecture":"香川県","city":"高松市","town":"築地町"},{"zip_code":"7600093","prefecture_kana":"カガワケン","city_kana":"タカマツシ","town_kana":"ツルイチチョウ（ダイヤマ）","prefecture":"香川県","city":"高松市","town":"鶴市町（台山）"},{"zip_code":"7618032","prefecture_kana":"カガワケン","city_kana":"タカマツシ","town_kana":"ツルイチチョウ（ソノタ）","prefecture":"香川県","city":"高松市","town":"鶴市町（その他）"},{"zip_code":"7600035","prefecture_kana":"カガワケン","city_kana":"タカマツシ","town_kana":"ツルヤマチ","prefecture":"香川県","city":"高松市","town":"鶴屋町"},{"zip_code":"7618085","prefecture_kana":"カガワケン","city_kana":"タカマツシ","town_kana":"テライチョウ","prefecture":"香川県","city":"高松市","town":"寺井町"},{"zip_code":"7600018","prefecture_kana":"カガワケン","city_kana":"タカマツシ","town_kana":"テンジンマエ","prefecture":"香川県","city":"高松市","town":"天神前"},{"zip_code":"7600046","prefecture_kana":"カガワケン","city_kana":"タカマツシ","town_kana":"トオリマチ","prefecture":"香川県","city":"高松市","town":"通町"},{"zip_code":"7600054","prefecture_kana":"カガワケン","city_kana":"タカマツシ","town_kana":"トキワチョウ","prefecture":"香川県","city":"高松市","town":"常磐町"},{"zip_code":"7600026","prefecture_kana":"カガワケン","city_kana":"タカマツシ","town_kana":"トギヤマチ","prefecture":"香川県","city":"高松市","town":"磨屋町"},{"zip_code":"7600056","prefecture_kana":"カガワケン","city_kana":"タカマツシ","town_kana":"ナカジンチョウ","prefecture":"香川県","city":"高松市","town":"中新町"},{"zip_code":"7618043","prefecture_kana":"カガワケン","city_kana":"タカマツシ","town_kana":"ナカツマチョウ","prefecture":"香川県","city":"高松市","town":"中間町"},{"zip_code":"7600008","prefecture_kana":"カガワケン","city_kana":"タカマツシ","town_kana":"ナカノチョウ","prefecture":"香川県","city":"高松市","town":"中野町"},{"zip_code":"7618004","prefecture_kana":"カガワケン","city_kana":"タカマツシ","town_kana":"ナカヤマチョウ","prefecture":"香川県","city":"高松市","town":"中山町"},{"zip_code":"7618081","prefecture_kana":"カガワケン","city_kana":"タカマツシ","town_kana":"ナリアイチョウ","prefecture":"香川県","city":"高松市","town":"成合町"},{"zip_code":"7610445","prefecture_kana":"カガワケン","city_kana":"タカマツシ","town_kana":"ニシウエタチョウ","prefecture":"香川県","city":"高松市","town":"西植田町"},{"zip_code":"7600022","prefecture_kana":"カガワケン","city_kana":"タカマツシ","town_kana":"ニシウチマチ","prefecture":"香川県","city":"高松市","town":"西内町"},{"zip_code":"7618051","prefecture_kana":"カガワケン","city_kana":"タカマツシ","town_kana":"ニシカスガチョウ","prefecture":"香川県","city":"高松市","town":"西春日町"},{"zip_code":"7600020","prefecture_kana":"カガワケン","city_kana":"タカマツシ","town_kana":"ニシキマチ","prefecture":"香川県","city":"高松市","town":"錦町"},{"zip_code":"7600021","prefecture_kana":"カガワケン","city_kana":"タカマツシ","town_kana":"ニシノマルチョウ","prefecture":"香川県","city":"高松市","town":"西の丸町"},{"zip_code":"7618053","prefecture_kana":"カガワケン","city_kana":"タカマツシ","town_kana":"ニシハゼマチ","prefecture":"香川県","city":"高松市","town":"西ハゼ町"},{"zip_code":"7600003","prefecture_kana":"カガワケン","city_kana":"タカマツシ","town_kana":"ニシマチ","prefecture":"香川県","city":"高松市","town":"西町"},{"zip_code":"7618045","prefecture_kana":"カガワケン","city_kana":"タカマツシ","town_kana":"ニシヤマサキチョウ","prefecture":"香川県","city":"高松市","town":"西山崎町"},{"zip_code":"7600057","prefecture_kana":"カガワケン","city_kana":"タカマツシ","town_kana":"ハタゴマチ","prefecture":"香川県","city":"高松市","town":"旅籠町"},{"zip_code":"7600072","prefecture_kana":"カガワケン","city_kana":"タカマツシ","town_kana":"ハナゾノチョウ","prefecture":"香川県","city":"高松市","town":"花園町"},{"zip_code":"7618063","prefecture_kana":"カガワケン","city_kana":"タカマツシ","town_kana":"ハナノミヤチョウ","prefecture":"香川県","city":"高松市","town":"花ノ宮町"},{"zip_code":"7600011","prefecture_kana":"カガワケン","city_kana":"タカマツシ","town_kana":"ハマノチョウ","prefecture":"香川県","city":"高松市","town":"浜ノ町"},{"zip_code":"7610301","prefecture_kana":"カガワケン","city_kana":"タカマツシ","town_kana":"ハヤシチョウ","prefecture":"香川県","city":"高松市","town":"林町"},{"zip_code":"7600017","prefecture_kana":"カガワケン","city_kana":"タカマツシ","town_kana":"バンチョウ","prefecture":"香川県","city":"高松市","town":"番町"},{"zip_code":"7610446","prefecture_kana":"カガワケン","city_kana":"タカマツシ","town_kana":"ヒガシウエタチョウ","prefecture":"香川県","city":"高松市","town":"東植田町"},{"zip_code":"7600058","prefecture_kana":"カガワケン","city_kana":"タカマツシ","town_kana":"ヒガシタマチ","prefecture":"香川県","city":"高松市","town":"東田町"},{"zip_code":"7618054","prefecture_kana":"カガワケン","city_kana":"タカマツシ","town_kana":"ヒガシハゼマチ","prefecture":"香川県","city":"高松市","town":"東ハゼ町"},{"zip_code":"7600037","prefecture_kana":"カガワケン","city_kana":"タカマツシ","town_kana":"ヒガシハマチョウ","prefecture":"香川県","city":"高松市","town":"東浜町"},{"zip_code":"7610312","prefecture_kana":"カガワケン","city_kana":"タカマツシ","town_kana":"ヒガシヤマサキチョウ","prefecture":"香川県","city":"高松市","town":"東山崎町"},{"zip_code":"7600041","prefecture_kana":"カガワケン","city_kana":"タカマツシ","town_kana":"ヒャッケンマチ","prefecture":"香川県","city":"高松市","town":"百間町"},{"zip_code":"7600024","prefecture_kana":"カガワケン","city_kana":"タカマツシ","town_kana":"ヒョウゴマチ","prefecture":"香川県","city":"高松市","town":"兵庫町"},{"zip_code":"7600066","prefecture_kana":"カガワケン","city_kana":"タカマツシ","town_kana":"フクオカチョウ","prefecture":"香川県","city":"高松市","town":"福岡町"},{"zip_code":"7600048","prefecture_kana":"カガワケン","city_kana":"タカマツシ","town_kana":"フクダマチ","prefecture":"香川県","city":"高松市","town":"福田町"},{"zip_code":"7600071","prefecture_kana":"カガワケン","city_kana":"タカマツシ","town_kana":"フジヅカチョウ","prefecture":"香川県","city":"高松市","town":"藤塚町"},{"zip_code":"7618071","prefecture_kana":"カガワケン","city_kana":"タカマツシ","town_kana":"フセイシチョウ","prefecture":"香川県","city":"高松市","town":"伏石町"},{"zip_code":"7600025","prefecture_kana":"カガワケン","city_kana":"タカマツシ","town_kana":"フルジンマチ","prefecture":"香川県","city":"高松市","town":"古新町"},{"zip_code":"7600045","prefecture_kana":"カガワケン","city_kana":"タカマツシ","town_kana":"フルババチョウ","prefecture":"香川県","city":"高松市","town":"古馬場町"},{"zip_code":"7618078","prefecture_kana":"カガワケン","city_kana":"タカマツシ","town_kana":"ブッショウザンチョウコウ","prefecture":"香川県","city":"高松市","town":"仏生山町甲"},{"zip_code":"7618079","prefecture_kana":"カガワケン","city_kana":"タカマツシ","town_kana":"ブッショウザンチョウオツ","prefecture":"香川県","city":"高松市","town":"仏生山町乙"},{"zip_code":"7600032","prefecture_kana":"カガワケン","city_kana":"タカマツシ","town_kana":"ホンマチ","prefecture":"香川県","city":"高松市","town":"本町"},{"zip_code":"7610322","prefecture_kana":"カガワケン","city_kana":"タカマツシ","town_kana":"マエダヒガシマチ","prefecture":"香川県","city":"高松市","town":"前田東町"},{"zip_code":"7610321","prefecture_kana":"カガワケン","city_kana":"タカマツシ","town_kana":"マエダニシマチ","prefecture":"香川県","city":"高松市","town":"前田西町"},{"zip_code":"7600068","prefecture_kana":"カガワケン","city_kana":"タカマツシ","town_kana":"マツシマチョウ","prefecture":"香川県","city":"高松市","town":"松島町"},{"zip_code":"7618052","prefecture_kana":"カガワケン","city_kana":"タカマツシ","town_kana":"マツナミチョウ","prefecture":"香川県","city":"高松市","town":"松並町"},{"zip_code":"7600079","prefecture_kana":"カガワケン","city_kana":"タカマツシ","town_kana":"マツナワチョウ","prefecture":"香川県","city":"高松市","town":"松縄町"},{"zip_code":"7600067","prefecture_kana":"カガワケン","city_kana":"タカマツシ","town_kana":"マツフクチョウ","prefecture":"香川県","city":"高松市","town":"松福町"},{"zip_code":"7600029","prefecture_kana":"カガワケン","city_kana":"タカマツシ","town_kana":"マルガメマチ","prefecture":"香川県","city":"高松市","town":"丸亀町"},{"zip_code":"7600033","prefecture_kana":"カガワケン","city_kana":"タカマツシ","town_kana":"マルノウチ","prefecture":"香川県","city":"高松市","town":"丸の内"},{"zip_code":"7610450","prefecture_kana":"カガワケン","city_kana":"タカマツシ","town_kana":"ミタニチョウ","prefecture":"香川県","city":"高松市","town":"三谷町"},{"zip_code":"7600051","prefecture_kana":"カガワケン","city_kana":"タカマツシ","town_kana":"ミナミシンマチ","prefecture":"香川県","city":"高松市","town":"南新町"},{"zip_code":"7600009","prefecture_kana":"カガワケン","city_kana":"タカマツシ","town_kana":"ミネヤマチョウ","prefecture":"香川県","city":"高松市","town":"峰山町"},{"zip_code":"7618042","prefecture_kana":"カガワケン","city_kana":"タカマツシ","town_kana":"ミマヤチョウ","prefecture":"香川県","city":"高松市","town":"御厩町"},{"zip_code":"7600005","prefecture_kana":"カガワケン","city_kana":"タカマツシ","town_kana":"ミヤワキチョウ","prefecture":"香川県","city":"高松市","town":"宮脇町"},{"zip_code":"7610122","prefecture_kana":"カガワケン","city_kana":"タカマツシ","town_kana":"ムレチョウオオマチ","prefecture":"香川県","city":"高松市","town":"牟礼町大町"},{"zip_code":"7610123","prefecture_kana":"カガワケン","city_kana":"タカマツシ","town_kana":"ムレチョウハラ","prefecture":"香川県","city":"高松市","town":"牟礼町原"},{"zip_code":"7610121","prefecture_kana":"カガワケン","city_kana":"タカマツシ","town_kana":"ムレチョウムレ","prefecture":"香川県","city":"高松市","town":"牟礼町牟礼"},{"zip_code":"7618062","prefecture_kana":"カガワケン","city_kana":"タカマツシ","town_kana":"ムロシンマチ","prefecture":"香川県","city":"高松市","town":"室新町"},{"zip_code":"7618061","prefecture_kana":"カガワケン","city_kana":"タカマツシ","town_kana":"ムロマチ","prefecture":"香川県","city":"高松市","town":"室町"},{"zip_code":"7600092","prefecture_kana":"カガワケン","city_kana":"タカマツシ","town_kana":"メギチョウ","prefecture":"香川県","city":"高松市","town":"女木町"},{"zip_code":"7610311","prefecture_kana":"カガワケン","city_kana":"タカマツシ","town_kana":"モトヤマチョウ","prefecture":"香川県","city":"高松市","town":"元山町"},{"zip_code":"7600049","prefecture_kana":"カガワケン","city_kana":"タカマツシ","town_kana":"ヤサカマチ","prefecture":"香川県","city":"高松市","town":"八坂町"},{"zip_code":"7610112","prefecture_kana":"カガワケン","city_kana":"タカマツシ","town_kana":"ヤシマナカマチ","prefecture":"香川県","city":"高松市","town":"屋島中町"},{"zip_code":"7610111","prefecture_kana":"カガワケン","city_kana":"タカマツシ","town_kana":"ヤシマヒガシマチ","prefecture":"香川県","city":"高松市","town":"屋島東町"},{"zip_code":"7610113","prefecture_kana":"カガワケン","city_kana":"タカマツシ","town_kana":"ヤシマニシマチ","prefecture":"香川県","city":"高松市","town":"屋島西町"},{"zip_code":"7610441","prefecture_kana":"カガワケン","city_kana":"タカマツシ","town_kana":"ユラチョウ","prefecture":"香川県","city":"高松市","town":"由良町"},{"zip_code":"7600073","prefecture_kana":"カガワケン","city_kana":"タカマツシ","town_kana":"リツリンチョウ","prefecture":"香川県","city":"高松市","town":"栗林町"},{"zip_code":"7610303","prefecture_kana":"カガワケン","city_kana":"タカマツシ","town_kana":"ロクジョウチョウ","prefecture":"香川県","city":"高松市","town":"六条町"},{"zip_code":"7630000","prefecture_kana":"カガワケン","city_kana":"マルガメシ","town_kana":"イカニケイサイガナイバアイ","prefecture":"香川県","city":"丸亀市","town":"以下に掲載がない場合"},{"zip_code":"7612401","prefecture_kana":"カガワケン","city_kana":"マルガメシ","town_kana":"アヤウタチョウオカダカミ","prefecture":"香川県","city":"丸亀市","town":"綾歌町岡田上"},{"zip_code":"7612402","prefecture_kana":"カガワケン","city_kana":"マルガメシ","town_kana":"アヤウタチョウオカダシモ","prefecture":"香川県","city":"丸亀市","town":"綾歌町岡田下"},{"zip_code":"7612404","prefecture_kana":"カガワケン","city_kana":"マルガメシ","town_kana":"アヤウタチョウオカダヒガシ","prefecture":"香川県","city":"丸亀市","town":"綾歌町岡田東"},{"zip_code":"7612403","prefecture_kana":"カガワケン","city_kana":"マルガメシ","town_kana":"アヤウタチョウオカダニシ","prefecture":"香川県","city":"丸亀市","town":"綾歌町岡田西"},{"zip_code":"7612406","prefecture_kana":"カガワケン","city_kana":"マルガメシ","town_kana":"アヤウタチョウクリクマヒガシ","prefecture":"香川県","city":"丸亀市","town":"綾歌町栗熊東"},{"zip_code":"7612405","prefecture_kana":"カガワケン","city_kana":"マルガメシ","town_kana":"アヤウタチョウクリクマニシ","prefecture":"香川県","city":"丸亀市","town":"綾歌町栗熊西"},{"zip_code":"7612408","prefecture_kana":"カガワケン","city_kana":"マルガメシ","town_kana":"アヤウタチョウトミクマ（フジミサカ）","prefecture":"香川県","city":"丸亀市","town":"綾歌町富熊（富士見坂）"},{"zip_code":"7612407","prefecture_kana":"カガワケン","city_kana":"マルガメシ","town_kana":"アヤウタチョウトミクマ（ソノタ）","prefecture":"香川県","city":"丸亀市","town":"綾歌町富熊（その他）"},{"zip_code":"7630084","prefecture_kana":"カガワケン","city_kana":"マルガメシ","town_kana":"イイノチョウヒガシフタ","prefecture":"香川県","city":"丸亀市","town":"飯野町東二"},{"zip_code":"7630085","prefecture_kana":"カガワケン","city_kana":"マルガメシ","town_kana":"イイノチョウヒガシブン","prefecture":"香川県","city":"丸亀市","town":"飯野町東分"},{"zip_code":"7630086","prefecture_kana":"カガワケン","city_kana":"マルガメシ","town_kana":"イイノチョウニシブン","prefecture":"香川県","city":"丸亀市","town":"飯野町西分"},{"zip_code":"7630025","prefecture_kana":"カガワケン","city_kana":"マルガメシ","town_kana":"イチバンチョウ","prefecture":"香川県","city":"丸亀市","town":"一番丁"},{"zip_code":"7630051","prefecture_kana":"カガワケン","city_kana":"マルガメシ","town_kana":"イマヅチョウ","prefecture":"香川県","city":"丸亀市","town":"今津町"},{"zip_code":"7630006","prefecture_kana":"カガワケン","city_kana":"マルガメシ","town_kana":"ウオヤマチ","prefecture":"香川県","city":"丸亀市","town":"魚屋町"},{"zip_code":"7630231","prefecture_kana":"カガワケン","city_kana":"マルガメシ","town_kana":"ウシジマ","prefecture":"香川県","city":"丸亀市","town":"牛島"},{"zip_code":"7630034","prefecture_kana":"カガワケン","city_kana":"マルガメシ","town_kana":"オオテチョウ","prefecture":"香川県","city":"丸亀市","town":"大手町"},{"zip_code":"7630053","prefecture_kana":"カガワケン","city_kana":"マルガメシ","town_kana":"カナクラチョウ","prefecture":"香川県","city":"丸亀市","town":"金倉町"},{"zip_code":"7630003","prefecture_kana":"カガワケン","city_kana":"マルガメシ","town_kana":"カヤマチ","prefecture":"香川県","city":"丸亀市","town":"葭町"},{"zip_code":"7630092","prefecture_kana":"カガワケン","city_kana":"マルガメシ","town_kana":"カワニシチョウミナミ","prefecture":"香川県","city":"丸亀市","town":"川西町南"},{"zip_code":"7630091","prefecture_kana":"カガワケン","city_kana":"マルガメシ","town_kana":"カワニシチョウキタ","prefecture":"香川県","city":"丸亀市","town":"川西町北"},{"zip_code":"7630002","prefecture_kana":"カガワケン","city_kana":"マルガメシ","town_kana":"カワラマチ","prefecture":"香川県","city":"丸亀市","town":"瓦町"},{"zip_code":"7630015","prefecture_kana":"カガワケン","city_kana":"マルガメシ","town_kana":"キタヒラヤマチョウ","prefecture":"香川県","city":"丸亀市","town":"北平山町"},{"zip_code":"7630073","prefecture_kana":"カガワケン","city_kana":"マルガメシ","town_kana":"クバラチョウ","prefecture":"香川県","city":"丸亀市","town":"柞原町"},{"zip_code":"7630029","prefecture_kana":"カガワケン","city_kana":"マルガメシ","town_kana":"クバンチョウ","prefecture":"香川県","city":"丸亀市","town":"九番丁"},{"zip_code":"7630093","prefecture_kana":"カガワケン","city_kana":"マルガメシ","town_kana":"グンゲチョウ","prefecture":"香川県","city":"丸亀市","town":"郡家町"},{"zip_code":"7630014","prefecture_kana":"カガワケン","city_kana":"マルガメシ","town_kana":"ゴブショチョウ","prefecture":"香川県","city":"丸亀市","town":"御供所町"},{"zip_code":"7630004","prefecture_kana":"カガワケン","city_kana":"マルガメシ","town_kana":"コメヤチョウ","prefecture":"香川県","city":"丸亀市","town":"米屋町"},{"zip_code":"7630048","prefecture_kana":"カガワケン","city_kana":"マルガメシ","town_kana":"サイワイチョウ","prefecture":"香川県","city":"丸亀市","town":"幸町"},{"zip_code":"7630094","prefecture_kana":"カガワケン","city_kana":"マルガメシ","town_kana":"サンジョウチョウ","prefecture":"香川県","city":"丸亀市","town":"三条町"},{"zip_code":"7630065","prefecture_kana":"カガワケン","city_kana":"マルガメシ","town_kana":"シオヤチョウ","prefecture":"香川県","city":"丸亀市","town":"塩屋町"},{"zip_code":"7630027","prefecture_kana":"カガワケン","city_kana":"マルガメシ","town_kana":"シチバンチョウ","prefecture":"香川県","city":"丸亀市","town":"七番丁"},{"zip_code":"7630030","prefecture_kana":"カガワケン","city_kana":"マルガメシ","town_kana":"ジュウバンチョウ","prefecture":"香川県","city":"丸亀市","town":"十番丁"},{"zip_code":"7630013","prefecture_kana":"カガワケン","city_kana":"マルガメシ","town_kana":"ジョウトウチョウ","prefecture":"香川県","city":"丸亀市","town":"城東町"},{"zip_code":"7630031","prefecture_kana":"カガワケン","city_kana":"マルガメシ","town_kana":"ジョウナンチョウ","prefecture":"香川県","city":"丸亀市","town":"城南町"},{"zip_code":"7630032","prefecture_kana":"カガワケン","city_kana":"マルガメシ","town_kana":"ジョウセイチョウ","prefecture":"香川県","city":"丸亀市","town":"城西町"},{"zip_code":"7630061","prefecture_kana":"カガワケン","city_kana":"マルガメシ","town_kana":"ショウワチョウ","prefecture":"香川県","city":"丸亀市","town":"昭和町"},{"zip_code":"7630024","prefecture_kana":"カガワケン","city_kana":"マルガメシ","town_kana":"シワクマチ","prefecture":"香川県","city":"丸亀市","town":"塩飽町"},{"zip_code":"7630055","prefecture_kana":"カガワケン","city_kana":"マルガメシ","town_kana":"シンデンチョウ","prefecture":"香川県","city":"丸亀市","town":"新田町"},{"zip_code":"7630063","prefecture_kana":"カガワケン","city_kana":"マルガメシ","town_kana":"シンハマチョウ","prefecture":"香川県","city":"丸亀市","town":"新浜町"},{"zip_code":"7630045","prefecture_kana":"カガワケン","city_kana":"マルガメシ","town_kana":"シンマチ","prefecture":"香川県","city":"丸亀市","town":"新町"},{"zip_code":"7630007","prefecture_kana":"カガワケン","city_kana":"マルガメシ","town_kana":"ソウコマチ","prefecture":"香川県","city":"丸亀市","town":"宗古町"},{"zip_code":"7630071","prefecture_kana":"カガワケン","city_kana":"マルガメシ","town_kana":"タムラチョウ","prefecture":"香川県","city":"丸亀市","town":"田村町"},{"zip_code":"7630095","prefecture_kana":"カガワケン","city_kana":"マルガメシ","town_kana":"タルミチョウ","prefecture":"香川県","city":"丸亀市","town":"垂水町"},{"zip_code":"7630052","prefecture_kana":"カガワケン","city_kana":"マルガメシ","town_kana":"ツノモリチョウ","prefecture":"香川県","city":"丸亀市","town":"津森町"},{"zip_code":"7630111","prefecture_kana":"カガワケン","city_kana":"マルガメシ","town_kana":"テシマチョウ","prefecture":"香川県","city":"丸亀市","town":"手島町"},{"zip_code":"7630066","prefecture_kana":"カガワケン","city_kana":"マルガメシ","town_kana":"テンマチョウ","prefecture":"香川県","city":"丸亀市","town":"天満町"},{"zip_code":"7630043","prefecture_kana":"カガワケン","city_kana":"マルガメシ","town_kana":"トオリチョウ","prefecture":"香川県","city":"丸亀市","town":"通町"},{"zip_code":"7630021","prefecture_kana":"カガワケン","city_kana":"マルガメシ","town_kana":"トミヤマチ","prefecture":"香川県","city":"丸亀市","town":"富屋町"},{"zip_code":"7630012","prefecture_kana":"カガワケン","city_kana":"マルガメシ","town_kana":"ドイチョウ","prefecture":"香川県","city":"丸亀市","town":"土居町"},{"zip_code":"7630082","prefecture_kana":"カガワケン","city_kana":"マルガメシ","town_kana":"ドキチョウヒガシ","prefecture":"香川県","city":"丸亀市","town":"土器町東"},{"zip_code":"7630081","prefecture_kana":"カガワケン","city_kana":"マルガメシ","town_kana":"ドキチョウニシ","prefecture":"香川県","city":"丸亀市","town":"土器町西"},{"zip_code":"7630083","prefecture_kana":"カガワケン","city_kana":"マルガメシ","town_kana":"ドキチョウキタ","prefecture":"香川県","city":"丸亀市","town":"土器町北"},{"zip_code":"7630054","prefecture_kana":"カガワケン","city_kana":"マルガメシ","town_kana":"ナカヅチョウ","prefecture":"香川県","city":"丸亀市","town":"中津町"},{"zip_code":"7630033","prefecture_kana":"カガワケン","city_kana":"マルガメシ","town_kana":"ナカブチョウ","prefecture":"香川県","city":"丸亀市","town":"中府町"},{"zip_code":"7630046","prefecture_kana":"カガワケン","city_kana":"マルガメシ","town_kana":"ナンジョウマチ","prefecture":"香川県","city":"丸亀市","town":"南条町"},{"zip_code":"7630041","prefecture_kana":"カガワケン","city_kana":"マルガメシ","town_kana":"ニシヒラヤマチョウ","prefecture":"香川県","city":"丸亀市","town":"西平山町"},{"zip_code":"7630047","prefecture_kana":"カガワケン","city_kana":"マルガメシ","town_kana":"ニシホンマチ","prefecture":"香川県","city":"丸亀市","town":"西本町"},{"zip_code":"7630028","prefecture_kana":"カガワケン","city_kana":"マルガメシ","town_kana":"ハチバンチョウ","prefecture":"香川県","city":"丸亀市","town":"八番丁"},{"zip_code":"7630022","prefecture_kana":"カガワケン","city_kana":"マルガメシ","town_kana":"ハママチ","prefecture":"香川県","city":"丸亀市","town":"浜町"},{"zip_code":"7630075","prefecture_kana":"カガワケン","city_kana":"マルガメシ","town_kana":"ハラダダンチ","prefecture":"香川県","city":"丸亀市","town":"原田団地"},{"zip_code":"7630074","prefecture_kana":"カガワケン","city_kana":"マルガメシ","town_kana":"ハラダチョウ","prefecture":"香川県","city":"丸亀市","town":"原田町"},{"zip_code":"7620084","prefecture_kana":"カガワケン","city_kana":"マルガメシ","town_kana":"ハンザンチョウカミホウグンジ","prefecture":"香川県","city":"丸亀市","town":"飯山町上法軍寺"},{"zip_code":"7620082","prefecture_kana":"カガワケン","city_kana":"マルガメシ","town_kana":"ハンザンチョウカワハラ","prefecture":"香川県","city":"丸亀市","town":"飯山町川原"},{"zip_code":"7620086","prefecture_kana":"カガワケン","city_kana":"マルガメシ","town_kana":"ハンザンチョウサントキ","prefecture":"香川県","city":"丸亀市","town":"飯山町真時"},{"zip_code":"7620083","prefecture_kana":"カガワケン","city_kana":"マルガメシ","town_kana":"ハンザンチョウシモホウグンジ","prefecture":"香川県","city":"丸亀市","town":"飯山町下法軍寺"},{"zip_code":"7620087","prefecture_kana":"カガワケン","city_kana":"マルガメシ","town_kana":"ハンザンチョウニシサカモト","prefecture":"香川県","city":"丸亀市","town":"飯山町西坂元"},{"zip_code":"7620085","prefecture_kana":"カガワケン","city_kana":"マルガメシ","town_kana":"ハンザンチョウヒガシオガワ","prefecture":"香川県","city":"丸亀市","town":"飯山町東小川"},{"zip_code":"7620081","prefecture_kana":"カガワケン","city_kana":"マルガメシ","town_kana":"ハンザンチョウヒガシサカモト","prefecture":"香川県","city":"丸亀市","town":"飯山町東坂元"},{"zip_code":"7630105","prefecture_kana":"カガワケン","city_kana":"マルガメシ","town_kana":"ヒロシマチョウアオキ","prefecture":"香川県","city":"丸亀市","town":"広島町青木"},{"zip_code":"7630106","prefecture_kana":"カガワケン","city_kana":"マルガメシ","town_kana":"ヒロシマチョウイチイ","prefecture":"香川県","city":"丸亀市","town":"広島町市井"},{"zip_code":"7630102","prefecture_kana":"カガワケン","city_kana":"マルガメシ","town_kana":"ヒロシマチョウエノウラ","prefecture":"香川県","city":"丸亀市","town":"広島町江の浦"},{"zip_code":"7630108","prefecture_kana":"カガワケン","city_kana":"マルガメシ","town_kana":"ヒロシマチョウオテシマ","prefecture":"香川県","city":"丸亀市","town":"広島町小手島"},{"zip_code":"7630103","prefecture_kana":"カガワケン","city_kana":"マルガメシ","town_kana":"ヒロシマチョウカマノコシ","prefecture":"香川県","city":"丸亀市","town":"広島町釜の越"},{"zip_code":"7630104","prefecture_kana":"カガワケン","city_kana":"マルガメシ","town_kana":"ヒロシマチョウコウロ","prefecture":"香川県","city":"丸亀市","town":"広島町甲路"},{"zip_code":"7630101","prefecture_kana":"カガワケン","city_kana":"マルガメシ","town_kana":"ヒロシマチョウタテイシ","prefecture":"香川県","city":"丸亀市","town":"広島町立石"},{"zip_code":"7630107","prefecture_kana":"カガワケン","city_kana":"マルガメシ","town_kana":"ヒロシマチョウモウラ","prefecture":"香川県","city":"丸亀市","town":"広島町茂浦"},{"zip_code":"7630044","prefecture_kana":"カガワケン","city_kana":"マルガメシ","town_kana":"フクシマチョウ","prefecture":"香川県","city":"丸亀市","town":"福島町"},{"zip_code":"7630011","prefecture_kana":"カガワケン","city_kana":"マルガメシ","town_kana":"フジミチョウ","prefecture":"香川県","city":"丸亀市","town":"富士見町"},{"zip_code":"7630001","prefecture_kana":"カガワケン","city_kana":"マルガメシ","town_kana":"フルタイマチ","prefecture":"香川県","city":"丸亀市","town":"風袋町"},{"zip_code":"7630062","prefecture_kana":"カガワケン","city_kana":"マルガメシ","town_kana":"ホウライチョウ","prefecture":"香川県","city":"丸亀市","town":"蓬莱町"},{"zip_code":"7630225","prefecture_kana":"カガワケン","city_kana":"マルガメシ","town_kana":"ホンジマチョウイクノハマ","prefecture":"香川県","city":"丸亀市","town":"本島町生ノ浜"},{"zip_code":"7630228","prefecture_kana":"カガワケン","city_kana":"マルガメシ","town_kana":"ホンジマチョウオオウラ","prefecture":"香川県","city":"丸亀市","town":"本島町大浦"},{"zip_code":"7630221","prefecture_kana":"カガワケン","city_kana":"マルガメシ","town_kana":"ホンジマチョウカサシマ","prefecture":"香川県","city":"丸亀市","town":"本島町笠島"},{"zip_code":"7630222","prefecture_kana":"カガワケン","city_kana":"マルガメシ","town_kana":"ホンジマチョウコウショウ","prefecture":"香川県","city":"丸亀市","town":"本島町甲生"},{"zip_code":"7630224","prefecture_kana":"カガワケン","city_kana":"マルガメシ","town_kana":"ホンジマチョウコサカ","prefecture":"香川県","city":"丸亀市","town":"本島町小阪"},{"zip_code":"7630226","prefecture_kana":"カガワケン","city_kana":"マルガメシ","town_kana":"ホンジマチョウシリハマ","prefecture":"香川県","city":"丸亀市","town":"本島町尻浜"},{"zip_code":"7630223","prefecture_kana":"カガワケン","city_kana":"マルガメシ","town_kana":"ホンジマチョウトマリ","prefecture":"香川県","city":"丸亀市","town":"本島町泊"},{"zip_code":"7630227","prefecture_kana":"カガワケン","city_kana":"マルガメシ","town_kana":"ホンジマチョウフクダ","prefecture":"香川県","city":"丸亀市","town":"本島町福田"},{"zip_code":"7630023","prefecture_kana":"カガワケン","city_kana":"マルガメシ","town_kana":"ホンマチ","prefecture":"香川県","city":"丸亀市","town":"本町"},{"zip_code":"7630064","prefecture_kana":"カガワケン","city_kana":"マルガメシ","town_kana":"マエジオヤチョウ","prefecture":"香川県","city":"丸亀市","town":"前塩屋町"},{"zip_code":"7630005","prefecture_kana":"カガワケン","city_kana":"マルガメシ","town_kana":"マツヤチョウ","prefecture":"香川県","city":"丸亀市","town":"松屋町"},{"zip_code":"7630042","prefecture_kana":"カガワケン","city_kana":"マルガメシ","town_kana":"ミナトマチ","prefecture":"香川県","city":"丸亀市","town":"港町"},{"zip_code":"7630072","prefecture_kana":"カガワケン","city_kana":"マルガメシ","town_kana":"ヤマノキタチョウ","prefecture":"香川県","city":"丸亀市","town":"山北町"},{"zip_code":"7630026","prefecture_kana":"カガワケン","city_kana":"マルガメシ","town_kana":"ロクバンチョウ","prefecture":"香川県","city":"丸亀市","town":"六番丁"},{"zip_code":"7620000","prefecture_kana":"カガワケン","city_kana":"サカイデシ","town_kana":"イカニケイサイガナイバアイ","prefecture":"香川県","city":"坂出市","town":"以下に掲載がない場合"},{"zip_code":"7620037","prefecture_kana":"カガワケン","city_kana":"サカイデシ","town_kana":"アオバチョウ","prefecture":"香川県","city":"坂出市","town":"青葉町"},{"zip_code":"7620006","prefecture_kana":"カガワケン","city_kana":"サカイデシ","town_kana":"アサヒチョウ","prefecture":"香川県","city":"坂出市","town":"旭町"},{"zip_code":"7620035","prefecture_kana":"カガワケン","city_kana":"サカイデシ","town_kana":"イケゾノチョウ","prefecture":"香川県","city":"坂出市","town":"池園町"},{"zip_code":"7620002","prefecture_kana":"カガワケン","city_kana":"サカイデシ","town_kana":"イリフネチョウ","prefecture":"香川県","city":"坂出市","town":"入船町"},{"zip_code":"7620072","prefecture_kana":"カガワケン","city_kana":"サカイデシ","town_kana":"イワクロ","prefecture":"香川県","city":"坂出市","town":"岩黒"},{"zip_code":"7620011","prefecture_kana":"カガワケン","city_kana":"サカイデシ","town_kana":"エジリチョウ","prefecture":"香川県","city":"坂出市","town":"江尻町"},{"zip_code":"7620014","prefecture_kana":"カガワケン","city_kana":"サカイデシ","town_kana":"オウゴシチョウキサワ","prefecture":"香川県","city":"坂出市","town":"王越町木沢"},{"zip_code":"7620013","prefecture_kana":"カガワケン","city_kana":"サカイデシ","town_kana":"オウゴシチョウノウ","prefecture":"香川県","city":"坂出市","town":"王越町乃生"},{"zip_code":"7620016","prefecture_kana":"カガワケン","city_kana":"サカイデシ","town_kana":"オウミチョウ","prefecture":"香川県","city":"坂出市","town":"青海町"},{"zip_code":"7620027","prefecture_kana":"カガワケン","city_kana":"サカイデシ","town_kana":"オオイケチョウ","prefecture":"香川県","city":"坂出市","town":"大池町"},{"zip_code":"7620015","prefecture_kana":"カガワケン","city_kana":"サカイデシ","town_kana":"オオヤブチョウ","prefecture":"香川県","city":"坂出市","town":"大屋冨町"},{"zip_code":"7620052","prefecture_kana":"カガワケン","city_kana":"サカイデシ","town_kana":"オキノハマ","prefecture":"香川県","city":"坂出市","town":"沖の浜"},{"zip_code":"7620038","prefecture_kana":"カガワケン","city_kana":"サカイデシ","town_kana":"カザシチョウ","prefecture":"香川県","city":"坂出市","town":"笠指町"},{"zip_code":"7620022","prefecture_kana":"カガワケン","city_kana":"サカイデシ","town_kana":"カモチョウコウ（ウジベ）","prefecture":"香川県","city":"坂出市","town":"加茂町甲（氏部）"},{"zip_code":"7620023","prefecture_kana":"カガワケン","city_kana":"サカイデシ","town_kana":"カモチョウ（ソノタ）","prefecture":"香川県","city":"坂出市","town":"加茂町（その他）"},{"zip_code":"7620062","prefecture_kana":"カガワケン","city_kana":"サカイデシ","town_kana":"カワサキチョウ","prefecture":"香川県","city":"坂出市","town":"川崎町"},{"zip_code":"7620025","prefecture_kana":"カガワケン","city_kana":"サカイデシ","town_kana":"カワツチョウ","prefecture":"香川県","city":"坂出市","town":"川津町"},{"zip_code":"7620018","prefecture_kana":"カガワケン","city_kana":"サカイデシ","town_kana":"カンダニチョウ","prefecture":"香川県","city":"坂出市","town":"神谷町"},{"zip_code":"7620001","prefecture_kana":"カガワケン","city_kana":"サカイデシ","town_kana":"キョウマチ","prefecture":"香川県","city":"坂出市","town":"京町"},{"zip_code":"7620003","prefecture_kana":"カガワケン","city_kana":"サカイデシ","town_kana":"クメチョウ","prefecture":"香川県","city":"坂出市","town":"久米町"},{"zip_code":"7620043","prefecture_kana":"カガワケン","city_kana":"サカイデシ","town_kana":"コトブキチョウ","prefecture":"香川県","city":"坂出市","town":"寿町"},{"zip_code":"7620051","prefecture_kana":"カガワケン","city_kana":"サカイデシ","town_kana":"ゴブショチョウ","prefecture":"香川県","city":"坂出市","town":"御供所町"},{"zip_code":"7620032","prefecture_kana":"カガワケン","city_kana":"サカイデシ","town_kana":"コマドメチョウ","prefecture":"香川県","city":"坂出市","town":"駒止町"},{"zip_code":"7620026","prefecture_kana":"カガワケン","city_kana":"サカイデシ","town_kana":"コヤマチョウ","prefecture":"香川県","city":"坂出市","town":"小山町"},{"zip_code":"7620061","prefecture_kana":"カガワケン","city_kana":"サカイデシ","town_kana":"サカイデチョウ","prefecture":"香川県","city":"坂出市","town":"坂出町"},{"zip_code":"7620066","prefecture_kana":"カガワケン","city_kana":"サカイデシ","town_kana":"シャミジマ","prefecture":"香川県","city":"坂出市","town":"沙弥島"},{"zip_code":"7620004","prefecture_kana":"カガワケン","city_kana":"サカイデシ","town_kana":"ショウワチョウ","prefecture":"香川県","city":"坂出市","town":"昭和町"},{"zip_code":"7620042","prefecture_kana":"カガワケン","city_kana":"サカイデシ","town_kana":"シロガネチョウ","prefecture":"香川県","city":"坂出市","town":"白金町"},{"zip_code":"7620047","prefecture_kana":"カガワケン","city_kana":"サカイデシ","town_kana":"シンハマチョウ","prefecture":"香川県","city":"坂出市","town":"新浜町"},{"zip_code":"7620067","prefecture_kana":"カガワケン","city_kana":"サカイデシ","town_kana":"セイチョウ","prefecture":"香川県","city":"坂出市","town":"瀬居町"},{"zip_code":"7620017","prefecture_kana":"カガワケン","city_kana":"サカイデシ","town_kana":"タカヤチョウ","prefecture":"香川県","city":"坂出市","town":"高屋町"},{"zip_code":"7620033","prefecture_kana":"カガワケン","city_kana":"サカイデシ","town_kana":"タニマチ","prefecture":"香川県","city":"坂出市","town":"谷町"},{"zip_code":"7620055","prefecture_kana":"カガワケン","city_kana":"サカイデシ","town_kana":"チッコウチョウ","prefecture":"香川県","city":"坂出市","town":"築港町"},{"zip_code":"7620056","prefecture_kana":"カガワケン","city_kana":"サカイデシ","town_kana":"チュウオウチョウ","prefecture":"香川県","city":"坂出市","town":"中央町"},{"zip_code":"7620058","prefecture_kana":"カガワケン","city_kana":"サカイデシ","town_kana":"トキワチョウ","prefecture":"香川県","city":"坂出市","town":"常盤町"},{"zip_code":"7620054","prefecture_kana":"カガワケン","city_kana":"サカイデシ","town_kana":"ニシオオハマミナミ","prefecture":"香川県","city":"坂出市","town":"西大浜南"},{"zip_code":"7620053","prefecture_kana":"カガワケン","city_kana":"サカイデシ","town_kana":"ニシオオハマキタ","prefecture":"香川県","city":"坂出市","town":"西大浜北"},{"zip_code":"7620021","prefecture_kana":"カガワケン","city_kana":"サカイデシ","town_kana":"ニシノショウチョウ","prefecture":"香川県","city":"坂出市","town":"西庄町"},{"zip_code":"7620041","prefecture_kana":"カガワケン","city_kana":"サカイデシ","town_kana":"ハチマンチョウ","prefecture":"香川県","city":"坂出市","town":"八幡町"},{"zip_code":"7620036","prefecture_kana":"カガワケン","city_kana":"サカイデシ","town_kana":"ハナマチ","prefecture":"香川県","city":"坂出市","town":"花町"},{"zip_code":"7620012","prefecture_kana":"カガワケン","city_kana":"サカイデシ","town_kana":"ハヤシダチョウ","prefecture":"香川県","city":"坂出市","town":"林田町"},{"zip_code":"7620063","prefecture_kana":"カガワケン","city_kana":"サカイデシ","town_kana":"バンノスコウエン","prefecture":"香川県","city":"坂出市","town":"番の州公園"},{"zip_code":"7620064","prefecture_kana":"カガワケン","city_kana":"サカイデシ","town_kana":"バンノスチョウ","prefecture":"香川県","city":"坂出市","town":"番の州町"},{"zip_code":"7620065","prefecture_kana":"カガワケン","city_kana":"サカイデシ","town_kana":"バンノスミドリチョウ","prefecture":"香川県","city":"坂出市","town":"番の州緑町"},{"zip_code":"7620073","prefecture_kana":"カガワケン","city_kana":"サカイデシ","town_kana":"ヒツイシ","prefecture":"香川県","city":"坂出市","town":"櫃石"},{"zip_code":"7620034","prefecture_kana":"カガワケン","city_kana":"サカイデシ","town_kana":"フクエチョウ","prefecture":"香川県","city":"坂出市","town":"福江町"},{"zip_code":"7620046","prefecture_kana":"カガワケン","city_kana":"サカイデシ","town_kana":"フジミチョウ","prefecture":"香川県","city":"坂出市","town":"富士見町"},{"zip_code":"7620024","prefecture_kana":"カガワケン","city_kana":"サカイデシ","town_kana":"フチュウチョウ","prefecture":"香川県","city":"坂出市","town":"府中町"},{"zip_code":"7620031","prefecture_kana":"カガワケン","city_kana":"サカイデシ","town_kana":"ブンキョウチョウ","prefecture":"香川県","city":"坂出市","town":"文京町"},{"zip_code":"7620044","prefecture_kana":"カガワケン","city_kana":"サカイデシ","town_kana":"ホンマチ","prefecture":"香川県","city":"坂出市","town":"本町"},{"zip_code":"7620057","prefecture_kana":"カガワケン","city_kana":"サカイデシ","town_kana":"ミヤシタチョウ","prefecture":"香川県","city":"坂出市","town":"宮下町"},{"zip_code":"7620007","prefecture_kana":"カガワケン","city_kana":"サカイデシ","town_kana":"ムロマチ","prefecture":"香川県","city":"坂出市","town":"室町"},{"zip_code":"7620045","prefecture_kana":"カガワケン","city_kana":"サカイデシ","town_kana":"モトマチ","prefecture":"香川県","city":"坂出市","town":"元町"},{"zip_code":"7620005","prefecture_kana":"カガワケン","city_kana":"サカイデシ","town_kana":"ヨコヅチョウ","prefecture":"香川県","city":"坂出市","town":"横津町"},{"zip_code":"7620071","prefecture_kana":"カガワケン","city_kana":"サカイデシ","town_kana":"ヨシマチョウ","prefecture":"香川県","city":"坂出市","town":"与島町"},{"zip_code":"7650000","prefecture_kana":"カガワケン","city_kana":"ゼンツウジシ","town_kana":"イカニケイサイガナイバアイ","prefecture":"香川県","city":"善通寺市","town":"以下に掲載がない場合"},{"zip_code":"7650053","prefecture_kana":"カガワケン","city_kana":"ゼンツウジシ","town_kana":"イカノチョウ","prefecture":"香川県","city":"善通寺市","town":"生野町"},{"zip_code":"7650014","prefecture_kana":"カガワケン","city_kana":"ゼンツウジシ","town_kana":"イカノホンマチ","prefecture":"香川県","city":"善通寺市","town":"生野本町"},{"zip_code":"7650022","prefecture_kana":"カガワケン","city_kana":"ゼンツウジシ","town_kana":"イナギチョウ","prefecture":"香川県","city":"善通寺市","town":"稲木町"},{"zip_code":"7650052","prefecture_kana":"カガワケン","city_kana":"ゼンツウジシ","town_kana":"オオサチョウ","prefecture":"香川県","city":"善通寺市","town":"大麻町"},{"zip_code":"7650011","prefecture_kana":"カガワケン","city_kana":"ゼンツウジシ","town_kana":"カミヨシダチョウ（チョウメ）","prefecture":"香川県","city":"善通寺市","town":"上吉田町（丁目）"},{"zip_code":"7650012","prefecture_kana":"カガワケン","city_kana":"ゼンツウジシ","town_kana":"カミヨシダチョウ（ソノタ）","prefecture":"香川県","city":"善通寺市","town":"上吉田町（その他）"},{"zip_code":"7650033","prefecture_kana":"カガワケン","city_kana":"ゼンツウジシ","town_kana":"キトクチョウ","prefecture":"香川県","city":"善通寺市","town":"木徳町"},{"zip_code":"7650051","prefecture_kana":"カガワケン","city_kana":"ゼンツウジシ","town_kana":"クシナシチョウ","prefecture":"香川県","city":"善通寺市","town":"櫛梨町"},{"zip_code":"7650031","prefecture_kana":"カガワケン","city_kana":"ゼンツウジシ","town_kana":"コンゾウジチョウ","prefecture":"香川県","city":"善通寺市","town":"金蔵寺町"},{"zip_code":"7650021","prefecture_kana":"カガワケン","city_kana":"ゼンツウジシ","town_kana":"シモヨシダチョウ","prefecture":"香川県","city":"善通寺市","town":"下吉田町"},{"zip_code":"7650003","prefecture_kana":"カガワケン","city_kana":"ゼンツウジシ","town_kana":"ゼンツウジチョウ（チョウメ）","prefecture":"香川県","city":"善通寺市","town":"善通寺町（丁目）"},{"zip_code":"7650004","prefecture_kana":"カガワケン","city_kana":"ゼンツウジシ","town_kana":"ゼンツウジチョウ（ソノタ）","prefecture":"香川県","city":"善通寺市","town":"善通寺町（その他）"},{"zip_code":"7650001","prefecture_kana":"カガワケン","city_kana":"ゼンツウジシ","town_kana":"センユウチョウ","prefecture":"香川県","city":"善通寺市","town":"仙遊町"},{"zip_code":"7650072","prefecture_kana":"カガワケン","city_kana":"ゼンツウジシ","town_kana":"ナカムラチョウ（チョウメ）","prefecture":"香川県","city":"善通寺市","town":"中村町（丁目）"},{"zip_code":"7650073","prefecture_kana":"カガワケン","city_kana":"ゼンツウジシ","town_kana":"ナカムラチョウ（ソノタ）","prefecture":"香川県","city":"善通寺市","town":"中村町（その他）"},{"zip_code":"7650032","prefecture_kana":"カガワケン","city_kana":"ゼンツウジシ","town_kana":"ハラダチョウ","prefecture":"香川県","city":"善通寺市","town":"原田町"},{"zip_code":"7650062","prefecture_kana":"カガワケン","city_kana":"ゼンツウジシ","town_kana":"ヒドノチョウ","prefecture":"香川県","city":"善通寺市","town":"碑殿町"},{"zip_code":"7650071","prefecture_kana":"カガワケン","city_kana":"ゼンツウジシ","town_kana":"ヒロタチョウ","prefecture":"香川県","city":"善通寺市","town":"弘田町"},{"zip_code":"7650013","prefecture_kana":"カガワケン","city_kana":"ゼンツウジシ","town_kana":"ブンキョウチョウ","prefecture":"香川県","city":"善通寺市","town":"文京町"},{"zip_code":"7650002","prefecture_kana":"カガワケン","city_kana":"ゼンツウジシ","town_kana":"ミナミマチ","prefecture":"香川県","city":"善通寺市","town":"南町"},{"zip_code":"7650040","prefecture_kana":"カガワケン","city_kana":"ゼンツウジシ","town_kana":"ヨギタチョウ","prefecture":"香川県","city":"善通寺市","town":"与北町"},{"zip_code":"7650061","prefecture_kana":"カガワケン","city_kana":"ゼンツウジシ","town_kana":"ヨシワラチョウ","prefecture":"香川県","city":"善通寺市","town":"吉原町"},{"zip_code":"7680000","prefecture_kana":"カガワケン","city_kana":"カンオンジシ","town_kana":"イカニケイサイガナイバアイ","prefecture":"香川県","city":"観音寺市","town":"以下に掲載がない場合"},{"zip_code":"7680062","prefecture_kana":"カガワケン","city_kana":"カンオンジシ","town_kana":"アリアケチョウ","prefecture":"香川県","city":"観音寺市","town":"有明町"},{"zip_code":"7680052","prefecture_kana":"カガワケン","city_kana":"カンオンジシ","town_kana":"アワイチョウ","prefecture":"香川県","city":"観音寺市","town":"粟井町"},{"zip_code":"7680031","prefecture_kana":"カガワケン","city_kana":"カンオンジシ","town_kana":"イケノシリチョウ","prefecture":"香川県","city":"観音寺市","town":"池之尻町"},{"zip_code":"7680071","prefecture_kana":"カガワケン","city_kana":"カンオンジシ","town_kana":"イブキチョウ","prefecture":"香川県","city":"観音寺市","town":"伊吹町"},{"zip_code":"7680012","prefecture_kana":"カガワケン","city_kana":"カンオンジシ","town_kana":"ウエダチョウ","prefecture":"香川県","city":"観音寺市","town":"植田町"},{"zip_code":"7691617","prefecture_kana":"カガワケン","city_kana":"カンオンジシ","town_kana":"オオノハラチョウアオオカ","prefecture":"香川県","city":"観音寺市","town":"大野原町青岡"},{"zip_code":"7691624","prefecture_kana":"カガワケン","city_kana":"カンオンジシ","town_kana":"オオノハラチョウアリキ","prefecture":"香川県","city":"観音寺市","town":"大野原町有木"},{"zip_code":"7691621","prefecture_kana":"カガワケン","city_kana":"カンオンジシ","town_kana":"オオノハラチョウイセキ","prefecture":"香川県","city":"観音寺市","town":"大野原町井関"},{"zip_code":"7691622","prefecture_kana":"カガワケン","city_kana":"カンオンジシ","town_kana":"オオノハラチョウウチノノ","prefecture":"香川県","city":"観音寺市","town":"大野原町内野々"},{"zip_code":"7691625","prefecture_kana":"カガワケン","city_kana":"カンオンジシ","town_kana":"オオノハラチョウエビスクイ","prefecture":"香川県","city":"観音寺市","town":"大野原町海老済"},{"zip_code":"7691611","prefecture_kana":"カガワケン","city_kana":"カンオンジシ","town_kana":"オオノハラチョウオオノハラ","prefecture":"香川県","city":"観音寺市","town":"大野原町大野原"},{"zip_code":"7691623","prefecture_kana":"カガワケン","city_kana":"カンオンジシ","town_kana":"オオノハラチョウタノノ","prefecture":"香川県","city":"観音寺市","town":"大野原町田野々"},{"zip_code":"7691612","prefecture_kana":"カガワケン","city_kana":"カンオンジシ","town_kana":"オオノハラチョウナカヒメ","prefecture":"香川県","city":"観音寺市","town":"大野原町中姫"},{"zip_code":"7691614","prefecture_kana":"カガワケン","city_kana":"カンオンジシ","town_kana":"オオノハラチョウハギワラ","prefecture":"香川県","city":"観音寺市","town":"大野原町萩原"},{"zip_code":"7691613","prefecture_kana":"カガワケン","city_kana":"カンオンジシ","town_kana":"オオノハラチョウハナイナ","prefecture":"香川県","city":"観音寺市","town":"大野原町花稲"},{"zip_code":"7691616","prefecture_kana":"カガワケン","city_kana":"カンオンジシ","town_kana":"オオノハラチョウフクダハラ","prefecture":"香川県","city":"観音寺市","town":"大野原町福田原"},{"zip_code":"7691615","prefecture_kana":"カガワケン","city_kana":"カンオンジシ","town_kana":"オオノハラチョウマルイ","prefecture":"香川県","city":"観音寺市","town":"大野原町丸井"},{"zip_code":"7680060","prefecture_kana":"カガワケン","city_kana":"カンオンジシ","town_kana":"カンオンジチョウ","prefecture":"香川県","city":"観音寺市","town":"観音寺町"},{"zip_code":"7680051","prefecture_kana":"カガワケン","city_kana":"カンオンジシ","town_kana":"キノゴウチョウ","prefecture":"香川県","city":"観音寺市","town":"木之郷町"},{"zip_code":"7680040","prefecture_kana":"カガワケン","city_kana":"カンオンジシ","town_kana":"クニタチョウ","prefecture":"香川県","city":"観音寺市","town":"柞田町"},{"zip_code":"7680064","prefecture_kana":"カガワケン","city_kana":"カンオンジシ","town_kana":"コトナミチョウ","prefecture":"香川県","city":"観音寺市","town":"琴浪町"},{"zip_code":"7680074","prefecture_kana":"カガワケン","city_kana":"カンオンジシ","town_kana":"サイワイチョウ","prefecture":"香川県","city":"観音寺市","town":"幸町"},{"zip_code":"7680072","prefecture_kana":"カガワケン","city_kana":"カンオンジシ","town_kana":"サカエマチ","prefecture":"香川県","city":"観音寺市","town":"栄町"},{"zip_code":"7680067","prefecture_kana":"カガワケン","city_kana":"カンオンジシ","town_kana":"サカモトチョウ","prefecture":"香川県","city":"観音寺市","town":"坂本町"},{"zip_code":"7680063","prefecture_kana":"カガワケン","city_kana":"カンオンジシ","town_kana":"サンボンマツチョウ","prefecture":"香川県","city":"観音寺市","town":"三本松町"},{"zip_code":"7680069","prefecture_kana":"カガワケン","city_kana":"カンオンジシ","town_kana":"シゲキチョウ","prefecture":"香川県","city":"観音寺市","town":"茂木町"},{"zip_code":"7680073","prefecture_kana":"カガワケン","city_kana":"カンオンジシ","town_kana":"シゲニシチョウ","prefecture":"香川県","city":"観音寺市","town":"茂西町"},{"zip_code":"7680011","prefecture_kana":"カガワケン","city_kana":"カンオンジシ","town_kana":"シュツサクチョウ","prefecture":"香川県","city":"観音寺市","town":"出作町"},{"zip_code":"7680066","prefecture_kana":"カガワケン","city_kana":"カンオンジシ","town_kana":"ショウワチョウ","prefecture":"香川県","city":"観音寺市","town":"昭和町"},{"zip_code":"7680033","prefecture_kana":"カガワケン","city_kana":"カンオンジシ","town_kana":"シンデンチョウ","prefecture":"香川県","city":"観音寺市","town":"新田町"},{"zip_code":"7680065","prefecture_kana":"カガワケン","city_kana":"カンオンジシ","town_kana":"セトチョウ","prefecture":"香川県","city":"観音寺市","town":"瀬戸町"},{"zip_code":"7680002","prefecture_kana":"カガワケン","city_kana":"カンオンジシ","town_kana":"タカヤチョウ","prefecture":"香川県","city":"観音寺市","town":"高屋町"},{"zip_code":"7680068","prefecture_kana":"カガワケン","city_kana":"カンオンジシ","town_kana":"テンジンチョウ","prefecture":"香川県","city":"観音寺市","town":"天神町"},{"zip_code":"7691601","prefecture_kana":"カガワケン","city_kana":"カンオンジシ","town_kana":"トヨハマチョウヒメハマ","prefecture":"香川県","city":"観音寺市","town":"豊浜町姫浜"},{"zip_code":"7691604","prefecture_kana":"カガワケン","city_kana":"カンオンジシ","town_kana":"トヨハマチョウミノウラ","prefecture":"香川県","city":"観音寺市","town":"豊浜町箕浦"},{"zip_code":"7691603","prefecture_kana":"カガワケン","city_kana":"カンオンジシ","town_kana":"トヨハマチョウワダ","prefecture":"香川県","city":"観音寺市","town":"豊浜町和田"},{"zip_code":"7691602","prefecture_kana":"カガワケン","city_kana":"カンオンジシ","town_kana":"トヨハマチョウワダハマ","prefecture":"香川県","city":"観音寺市","town":"豊浜町和田浜"},{"zip_code":"7680024","prefecture_kana":"カガワケン","city_kana":"カンオンジシ","town_kana":"ナカダイチョウ","prefecture":"香川県","city":"観音寺市","town":"中田井町"},{"zip_code":"7680014","prefecture_kana":"カガワケン","city_kana":"カンオンジシ","town_kana":"ナガレオカチョウ","prefecture":"香川県","city":"観音寺市","town":"流岡町"},{"zip_code":"7680077","prefecture_kana":"カガワケン","city_kana":"カンオンジシ","town_kana":"ナギセチョウ","prefecture":"香川県","city":"観音寺市","town":"凪瀬町"},{"zip_code":"7680075","prefecture_kana":"カガワケン","city_kana":"カンオンジシ","town_kana":"ニシホンマチ","prefecture":"香川県","city":"観音寺市","town":"西本町"},{"zip_code":"7680032","prefecture_kana":"カガワケン","city_kana":"カンオンジシ","town_kana":"ハラチョウ","prefecture":"香川県","city":"観音寺市","town":"原町"},{"zip_code":"7680023","prefecture_kana":"カガワケン","city_kana":"カンオンジシ","town_kana":"フルカワチョウ","prefecture":"香川県","city":"観音寺市","town":"古川町"},{"zip_code":"7680076","prefecture_kana":"カガワケン","city_kana":"カンオンジシ","town_kana":"ミナトマチ","prefecture":"香川県","city":"観音寺市","town":"港町"},{"zip_code":"7680070","prefecture_kana":"カガワケン","city_kana":"カンオンジシ","town_kana":"ミナミマチ","prefecture":"香川県","city":"観音寺市","town":"南町"},{"zip_code":"7680013","prefecture_kana":"カガワケン","city_kana":"カンオンジシ","town_kana":"ムラグロチョウ","prefecture":"香川県","city":"観音寺市","town":"村黒町"},{"zip_code":"7680001","prefecture_kana":"カガワケン","city_kana":"カンオンジシ","town_kana":"ムロモトチョウ","prefecture":"香川県","city":"観音寺市","town":"室本町"},{"zip_code":"7680022","prefecture_kana":"カガワケン","city_kana":"カンオンジシ","town_kana":"モトダイチョウ","prefecture":"香川県","city":"観音寺市","town":"本大町"},{"zip_code":"7680061","prefecture_kana":"カガワケン","city_kana":"カンオンジシ","town_kana":"ヤハタチョウ","prefecture":"香川県","city":"観音寺市","town":"八幡町"},{"zip_code":"7680021","prefecture_kana":"カガワケン","city_kana":"カンオンジシ","town_kana":"ヨシオカチョウ","prefecture":"香川県","city":"観音寺市","town":"吉岡町"},{"zip_code":"7692300","prefecture_kana":"カガワケン","city_kana":"サヌキシ","town_kana":"イカニケイサイガナイバアイ","prefecture":"香川県","city":"さぬき市","town":"以下に掲載がない場合"},{"zip_code":"7610904","prefecture_kana":"カガワケン","city_kana":"サヌキシ","town_kana":"オオカワマチタヅラ","prefecture":"香川県","city":"さぬき市","town":"大川町田面"},{"zip_code":"7610902","prefecture_kana":"カガワケン","city_kana":"サヌキシ","town_kana":"オオカワマチトミダナカ","prefecture":"香川県","city":"さぬき市","town":"大川町富田中"},{"zip_code":"7610901","prefecture_kana":"カガワケン","city_kana":"サヌキシ","town_kana":"オオカワマチトミダニシ","prefecture":"香川県","city":"さぬき市","town":"大川町富田西"},{"zip_code":"7610903","prefecture_kana":"カガワケン","city_kana":"サヌキシ","town_kana":"オオカワマチトミダヒガシ","prefecture":"香川県","city":"さぬき市","town":"大川町富田東"},{"zip_code":"7610905","prefecture_kana":"カガワケン","city_kana":"サヌキシ","town_kana":"オオカワマチミナミガワ","prefecture":"香川県","city":"さぬき市","town":"大川町南川"},{"zip_code":"7692103","prefecture_kana":"カガワケン","city_kana":"サヌキシ","town_kana":"オダ","prefecture":"香川県","city":"さぬき市","town":"小田"},{"zip_code":"7692104","prefecture_kana":"カガワケン","city_kana":"サヌキシ","town_kana":"カベ","prefecture":"香川県","city":"さぬき市","town":"鴨部"},{"zip_code":"7692102","prefecture_kana":"カガワケン","city_kana":"サヌキシ","town_kana":"カモショウ","prefecture":"香川県","city":"さぬき市","town":"鴨庄"},{"zip_code":"7692322","prefecture_kana":"カガワケン","city_kana":"サヌキシ","town_kana":"サンガワマチイシダニシ","prefecture":"香川県","city":"さぬき市","town":"寒川町石田西"},{"zip_code":"7692321","prefecture_kana":"カガワケン","city_kana":"サヌキシ","town_kana":"サンガワマチイシダヒガシ","prefecture":"香川県","city":"さぬき市","town":"寒川町石田東"},{"zip_code":"7692323","prefecture_kana":"カガワケン","city_kana":"サヌキシ","town_kana":"サンガワマチカンザキ","prefecture":"香川県","city":"さぬき市","town":"寒川町神前"},{"zip_code":"7692101","prefecture_kana":"カガワケン","city_kana":"サヌキシ","town_kana":"シド","prefecture":"香川県","city":"さぬき市","town":"志度"},{"zip_code":"7692304","prefecture_kana":"カガワケン","city_kana":"サヌキシ","town_kana":"ショウワ","prefecture":"香川県","city":"さぬき市","town":"昭和"},{"zip_code":"7692105","prefecture_kana":"カガワケン","city_kana":"サヌキシ","town_kana":"スエ","prefecture":"香川県","city":"さぬき市","town":"末"},{"zip_code":"7692315","prefecture_kana":"カガワケン","city_kana":"サヌキシ","town_kana":"ゾウタ（オレンジタウン）","prefecture":"香川県","city":"さぬき市","town":"造田（オレンジタウン）"},{"zip_code":"7692314","prefecture_kana":"カガワケン","city_kana":"サヌキシ","town_kana":"ゾウタオトイ","prefecture":"香川県","city":"さぬき市","town":"造田乙井"},{"zip_code":"7692312","prefecture_kana":"カガワケン","city_kana":"サヌキシ","town_kana":"ゾウタコレヒロ","prefecture":"香川県","city":"さぬき市","town":"造田是弘"},{"zip_code":"7692313","prefecture_kana":"カガワケン","city_kana":"サヌキシ","town_kana":"ゾウタノマダ","prefecture":"香川県","city":"さぬき市","town":"造田野間田"},{"zip_code":"7692311","prefecture_kana":"カガワケン","city_kana":"サヌキシ","town_kana":"ゾウタミヤニシ","prefecture":"香川県","city":"さぬき市","town":"造田宮西"},{"zip_code":"7692306","prefecture_kana":"カガワケン","city_kana":"サヌキシ","town_kana":"タワ","prefecture":"香川県","city":"さぬき市","town":"多和"},{"zip_code":"7692401","prefecture_kana":"カガワケン","city_kana":"サヌキシ","town_kana":"ツダマチツダ","prefecture":"香川県","city":"さぬき市","town":"津田町津田"},{"zip_code":"7692402","prefecture_kana":"カガワケン","city_kana":"サヌキシ","town_kana":"ツダマチツルワ","prefecture":"香川県","city":"さぬき市","town":"津田町鶴羽"},{"zip_code":"7692302","prefecture_kana":"カガワケン","city_kana":"サヌキシ","town_kana":"ナガオニシ","prefecture":"香川県","city":"さぬき市","town":"長尾西"},{"zip_code":"7692301","prefecture_kana":"カガワケン","city_kana":"サヌキシ","town_kana":"ナガオヒガシ","prefecture":"香川県","city":"さぬき市","town":"長尾東"},{"zip_code":"7692303","prefecture_kana":"カガワケン","city_kana":"サヌキシ","town_kana":"ナガオミョウ","prefecture":"香川県","city":"さぬき市","town":"長尾名"},{"zip_code":"7692305","prefecture_kana":"カガワケン","city_kana":"サヌキシ","town_kana":"マエヤマ","prefecture":"香川県","city":"さぬき市","town":"前山"},{"zip_code":"7692700","prefecture_kana":"カガワケン","city_kana":"ヒガシカガワシ","town_kana":"イカニケイサイガナイバアイ","prefecture":"香川県","city":"東かがわ市","town":"以下に掲載がない場合"},{"zip_code":"7692703","prefecture_kana":"カガワケン","city_kana":"ヒガシカガワシ","town_kana":"イザ","prefecture":"香川県","city":"東かがわ市","town":"伊座"},{"zip_code":"7692520","prefecture_kana":"カガワケン","city_kana":"ヒガシカガワシ","town_kana":"ウマシノ","prefecture":"香川県","city":"東かがわ市","town":"馬篠"},{"zip_code":"7692902","prefecture_kana":"カガワケン","city_kana":"ヒガシカガワシ","town_kana":"ウマヤド","prefecture":"香川県","city":"東かがわ市","town":"馬宿"},{"zip_code":"7692908","prefecture_kana":"カガワケン","city_kana":"ヒガシカガワシ","town_kana":"オウミ","prefecture":"香川県","city":"東かがわ市","town":"小海"},{"zip_code":"7692513","prefecture_kana":"カガワケン","city_kana":"ヒガシカガワシ","town_kana":"オオタニ","prefecture":"香川県","city":"東かがわ市","town":"大谷"},{"zip_code":"7692521","prefecture_kana":"カガワケン","city_kana":"ヒガシカガワシ","town_kana":"オオチ","prefecture":"香川県","city":"東かがわ市","town":"大内"},{"zip_code":"7692512","prefecture_kana":"カガワケン","city_kana":"ヒガシカガワシ","town_kana":"オチアイ","prefecture":"香川県","city":"東かがわ市","town":"落合"},{"zip_code":"7692602","prefecture_kana":"カガワケン","city_kana":"ヒガシカガワシ","town_kana":"カワヒガシ","prefecture":"香川県","city":"東かがわ市","town":"川東"},{"zip_code":"7692906","prefecture_kana":"カガワケン","city_kana":"ヒガシカガワシ","town_kana":"カワマタ","prefecture":"香川県","city":"東かがわ市","town":"川股"},{"zip_code":"7692704","prefecture_kana":"カガワケン","city_kana":"ヒガシカガワシ","town_kana":"キライ","prefecture":"香川県","city":"東かがわ市","town":"帰来"},{"zip_code":"7692905","prefecture_kana":"カガワケン","city_kana":"ヒガシカガワシ","town_kana":"クレハ","prefecture":"香川県","city":"東かがわ市","town":"黒羽"},{"zip_code":"7692511","prefecture_kana":"カガワケン","city_kana":"ヒガシカガワシ","town_kana":"コイソ","prefecture":"香川県","city":"東かがわ市","town":"小磯"},{"zip_code":"7692519","prefecture_kana":"カガワケン","city_kana":"ヒガシカガワシ","town_kana":"コザレ","prefecture":"香川県","city":"東かがわ市","town":"小砂"},{"zip_code":"7692715","prefecture_kana":"カガワケン","city_kana":"ヒガシカガワシ","town_kana":"ゴミョウ","prefecture":"香川県","city":"東かがわ市","town":"五名"},{"zip_code":"7692904","prefecture_kana":"カガワケン","city_kana":"ヒガシカガワシ","town_kana":"サカモト","prefecture":"香川県","city":"東かがわ市","town":"坂元"},{"zip_code":"7692601","prefecture_kana":"カガワケン","city_kana":"ヒガシカガワシ","town_kana":"サンボンマツ","prefecture":"香川県","city":"東かがわ市","town":"三本松"},{"zip_code":"7692705","prefecture_kana":"カガワケン","city_kana":"ヒガシカガワシ","town_kana":"シロトリ","prefecture":"香川県","city":"東かがわ市","town":"白鳥"},{"zip_code":"7692516","prefecture_kana":"カガワケン","city_kana":"ヒガシカガワシ","town_kana":"ドイ","prefecture":"香川県","city":"東かがわ市","town":"土居"},{"zip_code":"7692605","prefecture_kana":"カガワケン","city_kana":"ヒガシカガワシ","town_kana":"ナカスジ","prefecture":"香川県","city":"東かがわ市","town":"中筋"},{"zip_code":"7692518","prefecture_kana":"カガワケン","city_kana":"ヒガシカガワシ","town_kana":"ナカヤマ","prefecture":"香川県","city":"東かがわ市","town":"中山"},{"zip_code":"7692604","prefecture_kana":"カガワケン","city_kana":"ヒガシカガワシ","town_kana":"ニシムラ","prefecture":"香川県","city":"東かがわ市","town":"西村"},{"zip_code":"7692712","prefecture_kana":"カガワケン","city_kana":"ヒガシカガワシ","town_kana":"ニシヤマ","prefecture":"香川県","city":"東かがわ市","town":"西山"},{"zip_code":"7692714","prefecture_kana":"カガワケン","city_kana":"ヒガシカガワシ","town_kana":"ニュウノヤマ","prefecture":"香川県","city":"東かがわ市","town":"入野山"},{"zip_code":"7692711","prefecture_kana":"カガワケン","city_kana":"ヒガシカガワシ","town_kana":"ヒガシヤマ","prefecture":"香川県","city":"東かがわ市","town":"東山"},{"zip_code":"7692901","prefecture_kana":"カガワケン","city_kana":"ヒガシカガワシ","town_kana":"ヒケタ","prefecture":"香川県","city":"東かがわ市","town":"引田"},{"zip_code":"7692515","prefecture_kana":"カガワケン","city_kana":"ヒガシカガワシ","town_kana":"マチダ","prefecture":"香川県","city":"東かがわ市","town":"町田"},{"zip_code":"7692514","prefecture_kana":"カガワケン","city_kana":"ヒガシカガワシ","town_kana":"マツサキ","prefecture":"香川県","city":"東かがわ市","town":"松崎"},{"zip_code":"7692702","prefecture_kana":"カガワケン","city_kana":"ヒガシカガワシ","town_kana":"マツバラ","prefecture":"香川県","city":"東かがわ市","town":"松原"},{"zip_code":"7692606","prefecture_kana":"カガワケン","city_kana":"ヒガシカガワシ","town_kana":"ミズシ","prefecture":"香川県","city":"東かがわ市","town":"水主"},{"zip_code":"7692517","prefecture_kana":"カガワケン","city_kana":"ヒガシカガワシ","town_kana":"ミドノ","prefecture":"香川県","city":"東かがわ市","town":"三殿"},{"zip_code":"7692701","prefecture_kana":"カガワケン","city_kana":"ヒガシカガワシ","town_kana":"ミナト","prefecture":"香川県","city":"東かがわ市","town":"湊"},{"zip_code":"7692903","prefecture_kana":"カガワケン","city_kana":"ヒガシカガワシ","town_kana":"ミナミノ","prefecture":"香川県","city":"東かがわ市","town":"南野"},{"zip_code":"7692603","prefecture_kana":"カガワケン","city_kana":"ヒガシカガワシ","town_kana":"ヨコウチ","prefecture":"香川県","city":"東かがわ市","town":"横内"},{"zip_code":"7692907","prefecture_kana":"カガワケン","city_kana":"ヒガシカガワシ","town_kana":"ヨシダ","prefecture":"香川県","city":"東かがわ市","town":"吉田"},{"zip_code":"7692713","prefecture_kana":"カガワケン","city_kana":"ヒガシカガワシ","town_kana":"ヨダヤマ","prefecture":"香川県","city":"東かがわ市","town":"与田山"},{"zip_code":"7670000","prefecture_kana":"カガワケン","city_kana":"ミトヨシ","town_kana":"イカニケイサイガナイバアイ","prefecture":"香川県","city":"三豊市","town":"以下に掲載がない場合"},{"zip_code":"7690401","prefecture_kana":"カガワケン","city_kana":"ミトヨシ","town_kana":"サイタチョウサイタカミ","prefecture":"香川県","city":"三豊市","town":"財田町財田上"},{"zip_code":"7690402","prefecture_kana":"カガワケン","city_kana":"ミトヨシ","town_kana":"サイタチョウサイタナカ","prefecture":"香川県","city":"三豊市","town":"財田町財田中"},{"zip_code":"7670014","prefecture_kana":"カガワケン","city_kana":"ミトヨシ","town_kana":"タカセチョウカミアサ","prefecture":"香川県","city":"三豊市","town":"高瀬町上麻"},{"zip_code":"7670012","prefecture_kana":"カガワケン","city_kana":"ミトヨシ","town_kana":"タカセチョウカミカツマ","prefecture":"香川県","city":"三豊市","town":"高瀬町上勝間"},{"zip_code":"7670001","prefecture_kana":"カガワケン","city_kana":"ミトヨシ","town_kana":"タカセチョウカミタカセ","prefecture":"香川県","city":"三豊市","town":"高瀬町上高瀬"},{"zip_code":"7670021","prefecture_kana":"カガワケン","city_kana":"ミトヨシ","town_kana":"タカセチョウサマタ","prefecture":"香川県","city":"三豊市","town":"高瀬町佐股"},{"zip_code":"7670013","prefecture_kana":"カガワケン","city_kana":"ミトヨシ","town_kana":"タカセチョウシモアサ","prefecture":"香川県","city":"三豊市","town":"高瀬町下麻"},{"zip_code":"7670011","prefecture_kana":"カガワケン","city_kana":"ミトヨシ","town_kana":"タカセチョウシモカツマ","prefecture":"香川県","city":"三豊市","town":"高瀬町下勝間"},{"zip_code":"7670002","prefecture_kana":"カガワケン","city_kana":"ミトヨシ","town_kana":"タカセチョウシンミョウ","prefecture":"香川県","city":"三豊市","town":"高瀬町新名"},{"zip_code":"7670022","prefecture_kana":"カガワケン","city_kana":"ミトヨシ","town_kana":"タカセチョウハガタ","prefecture":"香川県","city":"三豊市","town":"高瀬町羽方"},{"zip_code":"7670004","prefecture_kana":"カガワケン","city_kana":"ミトヨシ","town_kana":"タカセチョウヒジ","prefecture":"香川県","city":"三豊市","town":"高瀬町比地"},{"zip_code":"7670003","prefecture_kana":"カガワケン","city_kana":"ミトヨシ","town_kana":"タカセチョウヒジナカ","prefecture":"香川県","city":"三豊市","town":"高瀬町比地中"},{"zip_code":"7691108","prefecture_kana":"カガワケン","city_kana":"ミトヨシ","town_kana":"タクマチョウアワシマ","prefecture":"香川県","city":"三豊市","town":"詫間町粟島"},{"zip_code":"7691104","prefecture_kana":"カガワケン","city_kana":"ミトヨシ","town_kana":"タクマチョウオオハマ","prefecture":"香川県","city":"三豊市","town":"詫間町大浜"},{"zip_code":"7691103","prefecture_kana":"カガワケン","city_kana":"ミトヨシ","town_kana":"タクマチョウコウダ","prefecture":"香川県","city":"三豊市","town":"詫間町香田"},{"zip_code":"7691109","prefecture_kana":"カガワケン","city_kana":"ミトヨシ","town_kana":"タクマチョウシシジマ","prefecture":"香川県","city":"三豊市","town":"詫間町志々島"},{"zip_code":"7691101","prefecture_kana":"カガワケン","city_kana":"ミトヨシ","town_kana":"タクマチョウタクマ","prefecture":"香川県","city":"三豊市","town":"詫間町詫間"},{"zip_code":"7691105","prefecture_kana":"カガワケン","city_kana":"ミトヨシ","town_kana":"タクマチョウツム","prefecture":"香川県","city":"三豊市","town":"詫間町積"},{"zip_code":"7691107","prefecture_kana":"カガワケン","city_kana":"ミトヨシ","town_kana":"タクマチョウナマリ","prefecture":"香川県","city":"三豊市","town":"詫間町生里"},{"zip_code":"7691106","prefecture_kana":"カガワケン","city_kana":"ミトヨシ","town_kana":"タクマチョウハコ","prefecture":"香川県","city":"三豊市","town":"詫間町箱"},{"zip_code":"7691102","prefecture_kana":"カガワケン","city_kana":"ミトヨシ","town_kana":"タクマチョウマツサキ","prefecture":"香川県","city":"三豊市","town":"詫間町松崎"},{"zip_code":"7691507","prefecture_kana":"カガワケン","city_kana":"ミトヨシ","town_kana":"トヨナカチョウオカモト","prefecture":"香川県","city":"三豊市","town":"豊中町岡本"},{"zip_code":"7691502","prefecture_kana":"カガワケン","city_kana":"ミトヨシ","town_kana":"トヨナカチョウカサダカサオカ","prefecture":"香川県","city":"三豊市","town":"豊中町笠田笠岡"},{"zip_code":"7691503","prefecture_kana":"カガワケン","city_kana":"ミトヨシ","town_kana":"トヨナカチョウカサダタケダ","prefecture":"香川県","city":"三豊市","town":"豊中町笠田竹田"},{"zip_code":"7691504","prefecture_kana":"カガワケン","city_kana":"ミトヨシ","town_kana":"トヨナカチョウカミダカノ","prefecture":"香川県","city":"三豊市","town":"豊中町上高野"},{"zip_code":"7691508","prefecture_kana":"カガワケン","city_kana":"ミトヨシ","town_kana":"トヨナカチョウシモダカノ","prefecture":"香川県","city":"三豊市","town":"豊中町下高野"},{"zip_code":"7691501","prefecture_kana":"カガワケン","city_kana":"ミトヨシ","town_kana":"トヨナカチョウヒジダイ","prefecture":"香川県","city":"三豊市","town":"豊中町比地大"},{"zip_code":"7691505","prefecture_kana":"カガワケン","city_kana":"ミトヨシ","town_kana":"トヨナカチョウモトヤマオツ","prefecture":"香川県","city":"三豊市","town":"豊中町本山乙"},{"zip_code":"7691506","prefecture_kana":"カガワケン","city_kana":"ミトヨシ","town_kana":"トヨナカチョウモトヤマコウ","prefecture":"香川県","city":"三豊市","town":"豊中町本山甲"},{"zip_code":"7691410","prefecture_kana":"カガワケン","city_kana":"ミトヨシ","town_kana":"ニオチョウイエノウラ","prefecture":"香川県","city":"三豊市","town":"仁尾町家の浦"},{"zip_code":"7691404","prefecture_kana":"カガワケン","city_kana":"ミトヨシ","town_kana":"ニオチョウニオオツ","prefecture":"香川県","city":"三豊市","town":"仁尾町仁尾乙"},{"zip_code":"7691401","prefecture_kana":"カガワケン","city_kana":"ミトヨシ","town_kana":"ニオチョウニオキ","prefecture":"香川県","city":"三豊市","town":"仁尾町仁尾己"},{"zip_code":"7691408","prefecture_kana":"カガワケン","city_kana":"ミトヨシ","town_kana":"ニオチョウニオコウ","prefecture":"香川県","city":"三豊市","town":"仁尾町仁尾甲"},{"zip_code":"7691405","prefecture_kana":"カガワケン","city_kana":"ミトヨシ","town_kana":"ニオチョウニオコウ","prefecture":"香川県","city":"三豊市","town":"仁尾町仁尾庚"},{"zip_code":"7691406","prefecture_kana":"カガワケン","city_kana":"ミトヨシ","town_kana":"ニオチョウニオシン","prefecture":"香川県","city":"三豊市","town":"仁尾町仁尾辛"},{"zip_code":"7691407","prefecture_kana":"カガワケン","city_kana":"ミトヨシ","town_kana":"ニオチョウニオテイ","prefecture":"香川県","city":"三豊市","town":"仁尾町仁尾丁"},{"zip_code":"7691403","prefecture_kana":"カガワケン","city_kana":"ミトヨシ","town_kana":"ニオチョウニオヘイ","prefecture":"香川県","city":"三豊市","town":"仁尾町仁尾丙"},{"zip_code":"7691402","prefecture_kana":"カガワケン","city_kana":"ミトヨシ","town_kana":"ニオチョウニオボ","prefecture":"香川県","city":"三豊市","town":"仁尾町仁尾戊"},{"zip_code":"7670031","prefecture_kana":"カガワケン","city_kana":"ミトヨシ","town_kana":"ミノチョウオオミ","prefecture":"香川県","city":"三豊市","town":"三野町大見"},{"zip_code":"7670032","prefecture_kana":"カガワケン","city_kana":"ミトヨシ","town_kana":"ミノチョウシモタカセ","prefecture":"香川県","city":"三豊市","town":"三野町下高瀬"},{"zip_code":"7670033","prefecture_kana":"カガワケン","city_kana":"ミトヨシ","town_kana":"ミノチョウヨシヅ","prefecture":"香川県","city":"三豊市","town":"三野町吉津"},{"zip_code":"7680102","prefecture_kana":"カガワケン","city_kana":"ミトヨシ","town_kana":"ヤマモトチョウオオノ","prefecture":"香川県","city":"三豊市","town":"山本町大野"},{"zip_code":"7680104","prefecture_kana":"カガワケン","city_kana":"ミトヨシ","town_kana":"ヤマモトチョウコウダ","prefecture":"香川県","city":"三豊市","town":"山本町神田"},{"zip_code":"7680105","prefecture_kana":"カガワケン","city_kana":"ミトヨシ","town_kana":"ヤマモトチョウコウチ","prefecture":"香川県","city":"三豊市","town":"山本町河内"},{"zip_code":"7680103","prefecture_kana":"カガワケン","city_kana":"ミトヨシ","town_kana":"ヤマモトチョウサイタニシ","prefecture":"香川県","city":"三豊市","town":"山本町財田西"},{"zip_code":"7680101","prefecture_kana":"カガワケン","city_kana":"ミトヨシ","town_kana":"ヤマモトチョウツジ","prefecture":"香川県","city":"三豊市","town":"山本町辻"},{"zip_code":"7614100","prefecture_kana":"カガワケン","city_kana":"ショウズグントノショウチョウ","town_kana":"イカニケイサイガナイバアイ","prefecture":"香川県","city":"小豆郡土庄町","town":"以下に掲載がない場合"},{"zip_code":"7614664","prefecture_kana":"カガワケン","city_kana":"ショウズグントノショウチョウ","town_kana":"イギスエ（オデシマ）","prefecture":"香川県","city":"小豆郡土庄町","town":"伊喜末（小豊島）"},{"zip_code":"7614131","prefecture_kana":"カガワケン","city_kana":"ショウズグントノショウチョウ","town_kana":"イギスエ（ソノタ）","prefecture":"香川県","city":"小豆郡土庄町","town":"伊喜末（その他）"},{"zip_code":"7614141","prefecture_kana":"カガワケン","city_kana":"ショウズグントノショウチョウ","town_kana":"ウマゴエ","prefecture":"香川県","city":"小豆郡土庄町","town":"馬越"},{"zip_code":"7614132","prefecture_kana":"カガワケン","city_kana":"ショウズグントノショウチョウ","town_kana":"オエ","prefecture":"香川県","city":"小豆郡土庄町","town":"小江"},{"zip_code":"7614145","prefecture_kana":"カガワケン","city_kana":"ショウズグントノショウチョウ","town_kana":"オオベ","prefecture":"香川県","city":"小豆郡土庄町","town":"大部"},{"zip_code":"7614144","prefecture_kana":"カガワケン","city_kana":"ショウズグントノショウチョウ","town_kana":"オミ","prefecture":"香川県","city":"小豆郡土庄町","town":"小海"},{"zip_code":"7614154","prefecture_kana":"カガワケン","city_kana":"ショウズグントノショウチョウ","town_kana":"カサガダキ","prefecture":"香川県","city":"小豆郡土庄町","town":"笠滝"},{"zip_code":"7614122","prefecture_kana":"カガワケン","city_kana":"ショウズグントノショウチョウ","town_kana":"カミショウ","prefecture":"香川県","city":"小豆郡土庄町","town":"上庄"},{"zip_code":"7614152","prefecture_kana":"カガワケン","city_kana":"ショウズグントノショウチョウ","town_kana":"クロイワ","prefecture":"香川県","city":"小豆郡土庄町","town":"黒岩"},{"zip_code":"7614153","prefecture_kana":"カガワケン","city_kana":"ショウズグントノショウチョウ","town_kana":"コウマゴエ","prefecture":"香川県","city":"小豆郡土庄町","town":"小馬越"},{"zip_code":"7614146","prefecture_kana":"カガワケン","city_kana":"ショウズグントノショウチョウ","town_kana":"コベ","prefecture":"香川県","city":"小豆郡土庄町","town":"小部"},{"zip_code":"7614134","prefecture_kana":"カガワケン","city_kana":"ショウズグントノショウチョウ","town_kana":"タキノミヤ","prefecture":"香川県","city":"小豆郡土庄町","town":"滝宮"},{"zip_code":"7614661","prefecture_kana":"カガワケン","city_kana":"ショウズグントノショウチョウ","town_kana":"テシマイエウラ","prefecture":"香川県","city":"小豆郡土庄町","town":"豊島家浦"},{"zip_code":"7614662","prefecture_kana":"カガワケン","city_kana":"ショウズグントノショウチョウ","town_kana":"テシマカラト","prefecture":"香川県","city":"小豆郡土庄町","town":"豊島唐櫃"},{"zip_code":"7614663","prefecture_kana":"カガワケン","city_kana":"ショウズグントノショウチョウ","town_kana":"テシマコウ","prefecture":"香川県","city":"小豆郡土庄町","town":"豊島甲生"},{"zip_code":"7614133","prefecture_kana":"カガワケン","city_kana":"ショウズグントノショウチョウ","town_kana":"ナガハマ","prefecture":"香川県","city":"小豆郡土庄町","town":"長浜"},{"zip_code":"7614151","prefecture_kana":"カガワケン","city_kana":"ショウズグントノショウチョウ","town_kana":"ヒトヤマ","prefecture":"香川県","city":"小豆郡土庄町","town":"肥土山"},{"zip_code":"7614121","prefecture_kana":"カガワケン","city_kana":"ショウズグントノショウチョウ","town_kana":"フチザキ","prefecture":"香川県","city":"小豆郡土庄町","town":"渕崎"},{"zip_code":"7614143","prefecture_kana":"カガワケン","city_kana":"ショウズグントノショウチョウ","town_kana":"ミメ","prefecture":"香川県","city":"小豆郡土庄町","town":"見目"},{"zip_code":"7614142","prefecture_kana":"カガワケン","city_kana":"ショウズグントノショウチョウ","town_kana":"ヤカタザキ","prefecture":"香川県","city":"小豆郡土庄町","town":"屋形崎"},{"zip_code":"7614103","prefecture_kana":"カガワケン","city_kana":"ショウズグントノショウチョウ","town_kana":"コウ、オツ（オオキド）","prefecture":"香川県","city":"小豆郡土庄町","town":"甲、乙（大木戸）"},{"zip_code":"7614112","prefecture_kana":"カガワケン","city_kana":"ショウズグントノショウチョウ","town_kana":"コウ、オツ（カシマ）","prefecture":"香川県","city":"小豆郡土庄町","town":"甲、乙（鹿島）"},{"zip_code":"7614115","prefecture_kana":"カガワケン","city_kana":"ショウズグントノショウチョウ","town_kana":"コウ、オツ（コセ）","prefecture":"香川県","city":"小豆郡土庄町","town":"甲、乙（小瀬）"},{"zip_code":"7614114","prefecture_kana":"カガワケン","city_kana":"ショウズグントノショウチョウ","town_kana":"コウ、オツ（センケン）","prefecture":"香川県","city":"小豆郡土庄町","town":"甲、乙（千軒）"},{"zip_code":"7614105","prefecture_kana":"カガワケン","city_kana":"ショウズグントノショウチョウ","town_kana":"コウ、オツ（ニシホンチョウ）","prefecture":"香川県","city":"小豆郡土庄町","town":"甲、乙（西本町）"},{"zip_code":"7614111","prefecture_kana":"カガワケン","city_kana":"ショウズグントノショウチョウ","town_kana":"コウ、オツ（ヒガシミナト）","prefecture":"香川県","city":"小豆郡土庄町","town":"甲、乙（東港）"},{"zip_code":"7614106","prefecture_kana":"カガワケン","city_kana":"ショウズグントノショウチョウ","town_kana":"コウ、オツ（ホンチョウ）","prefecture":"香川県","city":"小豆郡土庄町","town":"甲、乙（本町）"},{"zip_code":"7614102","prefecture_kana":"カガワケン","city_kana":"ショウズグントノショウチョウ","town_kana":"コウ、オツ（ミナトシンマチ）","prefecture":"香川県","city":"小豆郡土庄町","town":"甲、乙（港新町）"},{"zip_code":"7614113","prefecture_kana":"カガワケン","city_kana":"ショウズグントノショウチョウ","town_kana":"コウ、オツ（ヤナギ）","prefecture":"香川県","city":"小豆郡土庄町","town":"甲、乙（柳）"},{"zip_code":"7614104","prefecture_kana":"カガワケン","city_kana":"ショウズグントノショウチョウ","town_kana":"コウ、オツ（ヨシガウラ）","prefecture":"香川県","city":"小豆郡土庄町","town":"甲、乙（吉ケ浦）"},{"zip_code":"7614101","prefecture_kana":"カガワケン","city_kana":"ショウズグントノショウチョウ","town_kana":"コウ、オツ（ソノタ）","prefecture":"香川県","city":"小豆郡土庄町","town":"甲、乙（その他）"},{"zip_code":"7614300","prefecture_kana":"カガワケン","city_kana":"ショウズグンショウドシマチョウ","town_kana":"イカニケイサイガナイバアイ","prefecture":"香川県","city":"小豆郡小豆島町","town":"以下に掲載がない場合"},{"zip_code":"7614403","prefecture_kana":"カガワケン","city_kana":"ショウズグンショウドシマチョウ","town_kana":"アテハマ","prefecture":"香川県","city":"小豆郡小豆島町","town":"当浜"},{"zip_code":"7614301","prefecture_kana":"カガワケン","city_kana":"ショウズグンショウドシマチョウ","town_kana":"イケダ","prefecture":"香川県","city":"小豆郡小豆島町","town":"池田"},{"zip_code":"7614404","prefecture_kana":"カガワケン","city_kana":"ショウズグンショウドシマチョウ","town_kana":"イワガタニ","prefecture":"香川県","city":"小豆郡小豆島町","town":"岩谷"},{"zip_code":"7614426","prefecture_kana":"カガワケン","city_kana":"ショウズグンショウドシマチョウ","town_kana":"ウマキ","prefecture":"香川県","city":"小豆郡小豆島町","town":"馬木"},{"zip_code":"7614431","prefecture_kana":"カガワケン","city_kana":"ショウズグンショウドシマチョウ","town_kana":"カタジョウ","prefecture":"香川県","city":"小豆郡小豆島町","town":"片城"},{"zip_code":"7614307","prefecture_kana":"カガワケン","city_kana":"ショウズグンショウドシマチョウ","town_kana":"カマノ","prefecture":"香川県","city":"小豆郡小豆島町","town":"蒲野"},{"zip_code":"7614302","prefecture_kana":"カガワケン","city_kana":"ショウズグンショウドシマチョウ","town_kana":"カモウ","prefecture":"香川県","city":"小豆郡小豆島町","town":"蒲生"},{"zip_code":"7614433","prefecture_kana":"カガワケン","city_kana":"ショウズグンショウドシマチョウ","town_kana":"カンカケドオリ","prefecture":"香川県","city":"小豆郡小豆島町","town":"神懸通"},{"zip_code":"7614412","prefecture_kana":"カガワケン","city_kana":"ショウズグンショウドシマチョウ","town_kana":"キノショウ","prefecture":"香川県","city":"小豆郡小豆島町","town":"木庄"},{"zip_code":"7614432","prefecture_kana":"カガワケン","city_kana":"ショウズグンショウドシマチョウ","town_kana":"クサカベホンマチ","prefecture":"香川県","city":"小豆郡小豆島町","town":"草壁本町"},{"zip_code":"7614308","prefecture_kana":"カガワケン","city_kana":"ショウズグンショウドシマチョウ","town_kana":"コウノウラ","prefecture":"香川県","city":"小豆郡小豆島町","town":"神浦"},{"zip_code":"7614425","prefecture_kana":"カガワケン","city_kana":"ショウズグンショウドシマチョウ","town_kana":"サカテ","prefecture":"香川県","city":"小豆郡小豆島町","town":"坂手"},{"zip_code":"7614405","prefecture_kana":"カガワケン","city_kana":"ショウズグンショウドシマチョウ","town_kana":"タチバナ","prefecture":"香川県","city":"小豆郡小豆島町","town":"橘"},{"zip_code":"7614424","prefecture_kana":"カガワケン","city_kana":"ショウズグンショウドシマチョウ","town_kana":"タノウラ","prefecture":"香川県","city":"小豆郡小豆島町","town":"田浦"},{"zip_code":"7614155","prefecture_kana":"カガワケン","city_kana":"ショウズグンショウドシマチョウ","town_kana":"ナカヤマ（ウツクシノハラコウゲン）","prefecture":"香川県","city":"小豆郡小豆島町","town":"中山（美しの原高原）"},{"zip_code":"7614155","prefecture_kana":"カガワケン","city_kana":"ショウズグンショウドシマチョウ","town_kana":"ナカヤマ（カエルゴナルタキ）","prefecture":"香川県","city":"小豆郡小豆島町","town":"中山（蛙子鳴滝）"},{"zip_code":"7614303","prefecture_kana":"カガワケン","city_kana":"ショウズグンショウドシマチョウ","town_kana":"ナカヤマ（ソノタ）","prefecture":"香川県","city":"小豆郡小豆島町","town":"中山（その他）"},{"zip_code":"7614434","prefecture_kana":"カガワケン","city_kana":"ショウズグンショウドシマチョウ","town_kana":"ニシムラ","prefecture":"香川県","city":"小豆郡小豆島町","town":"西村"},{"zip_code":"7614421","prefecture_kana":"カガワケン","city_kana":"ショウズグンショウドシマチョウ","town_kana":"ノウマ","prefecture":"香川県","city":"小豆郡小豆島町","town":"苗羽"},{"zip_code":"7614402","prefecture_kana":"カガワケン","city_kana":"ショウズグンショウドシマチョウ","town_kana":"フクダ","prefecture":"香川県","city":"小豆郡小豆島町","town":"福田"},{"zip_code":"7614305","prefecture_kana":"カガワケン","city_kana":"ショウズグンショウドシマチョウ","town_kana":"フタオモテ","prefecture":"香川県","city":"小豆郡小豆島町","town":"二面"},{"zip_code":"7614422","prefecture_kana":"カガワケン","city_kana":"ショウズグンショウドシマチョウ","town_kana":"フルエ","prefecture":"香川県","city":"小豆郡小豆島町","town":"古江"},{"zip_code":"7614423","prefecture_kana":"カガワケン","city_kana":"ショウズグンショウドシマチョウ","town_kana":"ホリコシ","prefecture":"香川県","city":"小豆郡小豆島町","town":"堀越"},{"zip_code":"7614304","prefecture_kana":"カガワケン","city_kana":"ショウズグンショウドシマチョウ","town_kana":"ムロウ","prefecture":"香川県","city":"小豆郡小豆島町","town":"室生"},{"zip_code":"7614411","prefecture_kana":"カガワケン","city_kana":"ショウズグンショウドシマチョウ","town_kana":"ヤスダ","prefecture":"香川県","city":"小豆郡小豆島町","town":"安田"},{"zip_code":"7614401","prefecture_kana":"カガワケン","city_kana":"ショウズグンショウドシマチョウ","town_kana":"ヨシダ","prefecture":"香川県","city":"小豆郡小豆島町","town":"吉田"},{"zip_code":"7614306","prefecture_kana":"カガワケン","city_kana":"ショウズグンショウドシマチョウ","town_kana":"ヨシノ","prefecture":"香川県","city":"小豆郡小豆島町","town":"吉野"},{"zip_code":"7610700","prefecture_kana":"カガワケン","city_kana":"キタグンミキチョウ","town_kana":"イカニケイサイガナイバアイ","prefecture":"香川県","city":"木田郡三木町","town":"以下に掲載がない場合"},{"zip_code":"7610614","prefecture_kana":"カガワケン","city_kana":"キタグンミキチョウ","town_kana":"アサクラ","prefecture":"香川県","city":"木田郡三木町","town":"朝倉"},{"zip_code":"7610701","prefecture_kana":"カガワケン","city_kana":"キタグンミキチョウ","town_kana":"イケノベ","prefecture":"香川県","city":"木田郡三木町","town":"池戸"},{"zip_code":"7610823","prefecture_kana":"カガワケン","city_kana":"キタグンミキチョウ","town_kana":"イド","prefecture":"香川県","city":"木田郡三木町","town":"井戸"},{"zip_code":"7610705","prefecture_kana":"カガワケン","city_kana":"キタグンミキチョウ","town_kana":"イノウエ","prefecture":"香川県","city":"木田郡三木町","town":"井上"},{"zip_code":"7610822","prefecture_kana":"カガワケン","city_kana":"キタグンミキチョウ","town_kana":"オクヤマ","prefecture":"香川県","city":"木田郡三木町","town":"奥山"},{"zip_code":"7610821","prefecture_kana":"カガワケン","city_kana":"キタグンミキチョウ","town_kana":"カニワ","prefecture":"香川県","city":"木田郡三木町","town":"鹿庭"},{"zip_code":"7610613","prefecture_kana":"カガワケン","city_kana":"キタグンミキチョウ","town_kana":"カミタカオカ","prefecture":"香川県","city":"木田郡三木町","town":"上高岡"},{"zip_code":"7610615","prefecture_kana":"カガワケン","city_kana":"キタグンミキチョウ","town_kana":"コミノ","prefecture":"香川県","city":"木田郡三木町","town":"小蓑"},{"zip_code":"7610703","prefecture_kana":"カガワケン","city_kana":"キタグンミキチョウ","town_kana":"シシブセ","prefecture":"香川県","city":"木田郡三木町","town":"鹿伏"},{"zip_code":"7610704","prefecture_kana":"カガワケン","city_kana":"キタグンミキチョウ","town_kana":"シモタカオカ","prefecture":"香川県","city":"木田郡三木町","town":"下高岡"},{"zip_code":"7610611","prefecture_kana":"カガワケン","city_kana":"キタグンミキチョウ","town_kana":"タナカ","prefecture":"香川県","city":"木田郡三木町","town":"田中"},{"zip_code":"7610612","prefecture_kana":"カガワケン","city_kana":"キタグンミキチョウ","town_kana":"ヒカミ","prefecture":"香川県","city":"木田郡三木町","town":"氷上"},{"zip_code":"7610702","prefecture_kana":"カガワケン","city_kana":"キタグンミキチョウ","town_kana":"ヒラギ","prefecture":"香川県","city":"木田郡三木町","town":"平木"},{"zip_code":"7613110","prefecture_kana":"カガワケン","city_kana":"カガワグンナオシマチョウ","town_kana":"ナオシマチョウイチエン","prefecture":"香川県","city":"香川郡直島町","town":"直島町一円"},{"zip_code":"7690200","prefecture_kana":"カガワケン","city_kana":"アヤウタグンウタヅチョウ","town_kana":"イカニケイサイガナイバアイ","prefecture":"香川県","city":"綾歌郡宇多津町","town":"以下に掲載がない場合"},{"zip_code":"7690210","prefecture_kana":"カガワケン","city_kana":"アヤウタグンウタヅチョウ","town_kana":"ウタヅチョウノツギニバンチガクルバアイ","prefecture":"香川県","city":"綾歌郡宇多津町","town":"宇多津町の次に番地がくる場合"},{"zip_code":"7690227","prefecture_kana":"カガワケン","city_kana":"アヤウタグンウタヅチョウ","town_kana":"イワヤ","prefecture":"香川県","city":"綾歌郡宇多津町","town":"岩屋"},{"zip_code":"7690222","prefecture_kana":"カガワケン","city_kana":"アヤウタグンウタヅチョウ","town_kana":"オオハシ","prefecture":"香川県","city":"綾歌郡宇多津町","town":"大橋"},{"zip_code":"7690226","prefecture_kana":"カガワケン","city_kana":"アヤウタグンウタヅチョウ","town_kana":"サカシタ","prefecture":"香川県","city":"綾歌郡宇多津町","town":"坂下"},{"zip_code":"7690223","prefecture_kana":"カガワケン","city_kana":"アヤウタグンウタヅチョウ","town_kana":"シンガイ","prefecture":"香川県","city":"綾歌郡宇多津町","town":"新開"},{"zip_code":"7690225","prefecture_kana":"カガワケン","city_kana":"アヤウタグンウタヅチョウ","town_kana":"シンマチ","prefecture":"香川県","city":"綾歌郡宇多津町","town":"新町"},{"zip_code":"7690211","prefecture_kana":"カガワケン","city_kana":"アヤウタグンウタヅチョウ","town_kana":"ジュウラクジ","prefecture":"香川県","city":"綾歌郡宇多津町","town":"十楽寺"},{"zip_code":"7690212","prefecture_kana":"カガワケン","city_kana":"アヤウタグンウタヅチョウ","town_kana":"ヌマノイケ","prefecture":"香川県","city":"綾歌郡宇多津町","town":"沼ノ池"},{"zip_code":"7690201","prefecture_kana":"カガワケン","city_kana":"アヤウタグンウタヅチョウ","town_kana":"ハマ１バンチョウ","prefecture":"香川県","city":"綾歌郡宇多津町","town":"浜一番丁"},{"zip_code":"7690202","prefecture_kana":"カガワケン","city_kana":"アヤウタグンウタヅチョウ","town_kana":"ハマ２バンチョウ","prefecture":"香川県","city":"綾歌郡宇多津町","town":"浜二番丁"},{"zip_code":"7690203","prefecture_kana":"カガワケン","city_kana":"アヤウタグンウタヅチョウ","town_kana":"ハマ３バンチョウ","prefecture":"香川県","city":"綾歌郡宇多津町","town":"浜三番丁"},{"zip_code":"7690204","prefecture_kana":"カガワケン","city_kana":"アヤウタグンウタヅチョウ","town_kana":"ハマ４バンチョウ","prefecture":"香川県","city":"綾歌郡宇多津町","town":"浜四番丁"},{"zip_code":"7690205","prefecture_kana":"カガワケン","city_kana":"アヤウタグンウタヅチョウ","town_kana":"ハマ５バンチョウ","prefecture":"香川県","city":"綾歌郡宇多津町","town":"浜五番丁"},{"zip_code":"7690206","prefecture_kana":"カガワケン","city_kana":"アヤウタグンウタヅチョウ","town_kana":"ハマ６バンチョウ","prefecture":"香川県","city":"綾歌郡宇多津町","town":"浜六番丁"},{"zip_code":"7690207","prefecture_kana":"カガワケン","city_kana":"アヤウタグンウタヅチョウ","town_kana":"ハマ７バンチョウ","prefecture":"香川県","city":"綾歌郡宇多津町","town":"浜七番丁"},{"zip_code":"7690208","prefecture_kana":"カガワケン","city_kana":"アヤウタグンウタヅチョウ","town_kana":"ハマ８バンチョウ","prefecture":"香川県","city":"綾歌郡宇多津町","town":"浜八番丁"},{"zip_code":"7690209","prefecture_kana":"カガワケン","city_kana":"アヤウタグンウタヅチョウ","town_kana":"ハマ９バンチョウ","prefecture":"香川県","city":"綾歌郡宇多津町","town":"浜九番丁"},{"zip_code":"7690213","prefecture_kana":"カガワケン","city_kana":"アヤウタグンウタヅチョウ","town_kana":"ヒガシブン","prefecture":"香川県","city":"綾歌郡宇多津町","town":"東分"},{"zip_code":"7690224","prefecture_kana":"カガワケン","city_kana":"アヤウタグンウタヅチョウ","town_kana":"ヒラヤマ","prefecture":"香川県","city":"綾歌郡宇多津町","town":"平山"},{"zip_code":"7690228","prefecture_kana":"カガワケン","city_kana":"アヤウタグンウタヅチョウ","town_kana":"ムカウヤマ","prefecture":"香川県","city":"綾歌郡宇多津町","town":"向山"},{"zip_code":"7690221","prefecture_kana":"カガワケン","city_kana":"アヤウタグンウタヅチョウ","town_kana":"ヨシダ","prefecture":"香川県","city":"綾歌郡宇多津町","town":"吉田"},{"zip_code":"7612300","prefecture_kana":"カガワケン","city_kana":"アヤウタグンアヤガワチョウ","town_kana":"イカニケイサイガナイバアイ","prefecture":"香川県","city":"綾歌郡綾川町","town":"以下に掲載がない場合"},{"zip_code":"7612208","prefecture_kana":"カガワケン","city_kana":"アヤウタグンアヤガワチョウ","town_kana":"ウシカワ","prefecture":"香川県","city":"綾歌郡綾川町","town":"牛川"},{"zip_code":"7612307","prefecture_kana":"カガワケン","city_kana":"アヤウタグンアヤガワチョウ","town_kana":"オノ","prefecture":"香川県","city":"綾歌郡綾川町","town":"小野"},{"zip_code":"7612304","prefecture_kana":"カガワケン","city_kana":"アヤウタグンアヤガワチョウ","town_kana":"カヤハラ","prefecture":"香川県","city":"綾歌郡綾川町","town":"萱原"},{"zip_code":"7612306","prefecture_kana":"カガワケン","city_kana":"アヤウタグンアヤガワチョウ","town_kana":"キタ","prefecture":"香川県","city":"綾歌郡綾川町","town":"北"},{"zip_code":"7612103","prefecture_kana":"カガワケン","city_kana":"アヤウタグンアヤガワチョウ","town_kana":"スエ","prefecture":"香川県","city":"綾歌郡綾川町","town":"陶"},{"zip_code":"7612102","prefecture_kana":"カガワケン","city_kana":"アヤウタグンアヤガワチョウ","town_kana":"センビキ","prefecture":"香川県","city":"綾歌郡綾川町","town":"千疋"},{"zip_code":"7612202","prefecture_kana":"カガワケン","city_kana":"アヤウタグンアヤガワチョウ","town_kana":"ソギショニシ","prefecture":"香川県","city":"綾歌郡綾川町","town":"枌所西"},{"zip_code":"7612201","prefecture_kana":"カガワケン","city_kana":"アヤウタグンアヤガワチョウ","town_kana":"ソギショヒガシ","prefecture":"香川県","city":"綾歌郡綾川町","town":"枌所東"},{"zip_code":"7612305","prefecture_kana":"カガワケン","city_kana":"アヤウタグンアヤガワチョウ","town_kana":"タキノミヤ","prefecture":"香川県","city":"綾歌郡綾川町","town":"滝宮"},{"zip_code":"7612206","prefecture_kana":"カガワケン","city_kana":"アヤウタグンアヤガワチョウ","town_kana":"ニシブン","prefecture":"香川県","city":"綾歌郡綾川町","town":"西分"},{"zip_code":"7612101","prefecture_kana":"カガワケン","city_kana":"アヤウタグンアヤガワチョウ","town_kana":"ハタダ","prefecture":"香川県","city":"綾歌郡綾川町","town":"畑田"},{"zip_code":"7612207","prefecture_kana":"カガワケン","city_kana":"アヤウタグンアヤガワチョウ","town_kana":"ハユカカミ","prefecture":"香川県","city":"綾歌郡綾川町","town":"羽床上"},{"zip_code":"7612308","prefecture_kana":"カガワケン","city_kana":"アヤウタグンアヤガワチョウ","town_kana":"ハユカシモ","prefecture":"香川県","city":"綾歌郡綾川町","town":"羽床下"},{"zip_code":"7612205","prefecture_kana":"カガワケン","city_kana":"アヤウタグンアヤガワチョウ","town_kana":"ヒガシブン","prefecture":"香川県","city":"綾歌郡綾川町","town":"東分"},{"zip_code":"7612203","prefecture_kana":"カガワケン","city_kana":"アヤウタグンアヤガワチョウ","town_kana":"ヤマダカミ","prefecture":"香川県","city":"綾歌郡綾川町","town":"山田上"},{"zip_code":"7612204","prefecture_kana":"カガワケン","city_kana":"アヤウタグンアヤガワチョウ","town_kana":"ヤマダシモ","prefecture":"香川県","city":"綾歌郡綾川町","town":"山田下"},{"zip_code":"7660000","prefecture_kana":"カガワケン","city_kana":"ナカタドグンコトヒラチョウ","town_kana":"イカニケイサイガナイバアイ","prefecture":"香川県","city":"仲多度郡琴平町","town":"以下に掲載がない場合"},{"zip_code":"7660004","prefecture_kana":"カガワケン","city_kana":"ナカタドグンコトヒラチョウ","town_kana":"エナイ","prefecture":"香川県","city":"仲多度郡琴平町","town":"榎井"},{"zip_code":"7660006","prefecture_kana":"カガワケン","city_kana":"ナカタドグンコトヒラチョウ","town_kana":"カミクシナシ","prefecture":"香川県","city":"仲多度郡琴平町","town":"上櫛梨"},{"zip_code":"7660002","prefecture_kana":"カガワケン","city_kana":"ナカタドグンコトヒラチョウ","town_kana":"コトヒラチョウノツギニ１−４２６バンチガクルバアイ（カワヒガシ）","prefecture":"香川県","city":"仲多度郡琴平町","town":"琴平町の次に１〜４２６番地がくる場合（川東）"},{"zip_code":"7660001","prefecture_kana":"カガワケン","city_kana":"ナカタドグンコトヒラチョウ","town_kana":"コトヒラチョウノツギニ４２７バンチイコウガクルバアイ（カワニシ）","prefecture":"香川県","city":"仲多度郡琴平町","town":"琴平町の次に４２７番地以降がくる場合（川西）"},{"zip_code":"7660003","prefecture_kana":"カガワケン","city_kana":"ナカタドグンコトヒラチョウ","town_kana":"ゴジョウ","prefecture":"香川県","city":"仲多度郡琴平町","town":"五條"},{"zip_code":"7660007","prefecture_kana":"カガワケン","city_kana":"ナカタドグンコトヒラチョウ","town_kana":"シモクシナシ","prefecture":"香川県","city":"仲多度郡琴平町","town":"下櫛梨"},{"zip_code":"7660005","prefecture_kana":"カガワケン","city_kana":"ナカタドグンコトヒラチョウ","town_kana":"ノウダ","prefecture":"香川県","city":"仲多度郡琴平町","town":"苗田"},{"zip_code":"7640000","prefecture_kana":"カガワケン","city_kana":"ナカタドグンタドツチョウ","town_kana":"イカニケイサイガナイバアイ","prefecture":"香川県","city":"仲多度郡多度津町","town":"以下に掲載がない場合"},{"zip_code":"7640033","prefecture_kana":"カガワケン","city_kana":"ナカタドグンタドツチョウ","town_kana":"オオギ","prefecture":"香川県","city":"仲多度郡多度津町","town":"青木"},{"zip_code":"7640005","prefecture_kana":"カガワケン","city_kana":"ナカタドグンタドツチョウ","town_kana":"オオドオリ","prefecture":"香川県","city":"仲多度郡多度津町","town":"大通り"},{"zip_code":"7640035","prefecture_kana":"カガワケン","city_kana":"ナカタドグンタドツチョウ","town_kana":"オクシラカタ","prefecture":"香川県","city":"仲多度郡多度津町","town":"奥白方"},{"zip_code":"7640028","prefecture_kana":"カガワケン","city_kana":"ナカタドグンタドツチョウ","town_kana":"カズハラ","prefecture":"香川県","city":"仲多度郡多度津町","town":"葛原"},{"zip_code":"7640002","prefecture_kana":"カガワケン","city_kana":"ナカタドグンタドツチョウ","town_kana":"カチュウ","prefecture":"香川県","city":"仲多度郡多度津町","town":"家中"},{"zip_code":"7640022","prefecture_kana":"カガワケン","city_kana":"ナカタドグンタドツチョウ","town_kana":"キタガモ","prefecture":"香川県","city":"仲多度郡多度津町","town":"北鴨"},{"zip_code":"7640013","prefecture_kana":"カガワケン","city_kana":"ナカタドグンタドツチョウ","town_kana":"キョウマチ","prefecture":"香川県","city":"仲多度郡多度津町","town":"京町"},{"zip_code":"7640025","prefecture_kana":"カガワケン","city_kana":"ナカタドグンタドツチョウ","town_kana":"コトブキチョウ","prefecture":"香川県","city":"仲多度郡多度津町","town":"寿町"},{"zip_code":"7640024","prefecture_kana":"カガワケン","city_kana":"ナカタドグンタドツチョウ","town_kana":"サイワイチョウ","prefecture":"香川県","city":"仲多度郡多度津町","town":"幸町"},{"zip_code":"7640011","prefecture_kana":"カガワケン","city_kana":"ナカタドグンタドツチョウ","town_kana":"サカエマチ","prefecture":"香川県","city":"仲多度郡多度津町","town":"栄町"},{"zip_code":"7640012","prefecture_kana":"カガワケン","city_kana":"ナカタドグンタドツチョウ","town_kana":"サクラガワ","prefecture":"香川県","city":"仲多度郡多度津町","town":"桜川"},{"zip_code":"7640040","prefecture_kana":"カガワケン","city_kana":"ナカタドグンタドツチョウ","town_kana":"サナギ","prefecture":"香川県","city":"仲多度郡多度津町","town":"佐柳"},{"zip_code":"7640031","prefecture_kana":"カガワケン","city_kana":"ナカタドグンタドツチョウ","town_kana":"ショウ","prefecture":"香川県","city":"仲多度郡多度津町","town":"庄"},{"zip_code":"7640050","prefecture_kana":"カガワケン","city_kana":"ナカタドグンタドツチョウ","town_kana":"タカミ","prefecture":"香川県","city":"仲多度郡多度津町","town":"高見"},{"zip_code":"7640027","prefecture_kana":"カガワケン","city_kana":"ナカタドグンタドツチョウ","town_kana":"ドウフクジ","prefecture":"香川県","city":"仲多度郡多度津町","town":"道福寺"},{"zip_code":"7640004","prefecture_kana":"カガワケン","city_kana":"ナカタドグンタドツチョウ","town_kana":"ナカノチョウ","prefecture":"香川県","city":"仲多度郡多度津町","town":"仲ノ町"},{"zip_code":"7640037","prefecture_kana":"カガワケン","city_kana":"ナカタドグンタドツチョウ","town_kana":"ニシシラカタ","prefecture":"香川県","city":"仲多度郡多度津町","town":"西白方"},{"zip_code":"7640015","prefecture_kana":"カガワケン","city_kana":"ナカタドグンタドツチョウ","town_kana":"ニシハマ","prefecture":"香川県","city":"仲多度郡多度津町","town":"西浜"},{"zip_code":"7640017","prefecture_kana":"カガワケン","city_kana":"ナカタドグンタドツチョウ","town_kana":"ニシミナトマチ","prefecture":"香川県","city":"仲多度郡多度津町","town":"西港町"},{"zip_code":"7640038","prefecture_kana":"カガワケン","city_kana":"ナカタドグンタドツチョウ","town_kana":"ヒガシシラカタ","prefecture":"香川県","city":"仲多度郡多度津町","town":"東白方"},{"zip_code":"7640001","prefecture_kana":"カガワケン","city_kana":"ナカタドグンタドツチョウ","town_kana":"ヒガシシンマチ","prefecture":"香川県","city":"仲多度郡多度津町","town":"東新町"},{"zip_code":"7640016","prefecture_kana":"カガワケン","city_kana":"ナカタドグンタドツチョウ","town_kana":"ヒガシハマ","prefecture":"香川県","city":"仲多度郡多度津町","town":"東浜"},{"zip_code":"7640018","prefecture_kana":"カガワケン","city_kana":"ナカタドグンタドツチョウ","town_kana":"ヒガシミナトマチ","prefecture":"香川県","city":"仲多度郡多度津町","town":"東港町"},{"zip_code":"7640006","prefecture_kana":"カガワケン","city_kana":"ナカタドグンタドツチョウ","town_kana":"ヒノデチョウ","prefecture":"香川県","city":"仲多度郡多度津町","town":"日の出町"},{"zip_code":"7640021","prefecture_kana":"カガワケン","city_kana":"ナカタドグンタドツチョウ","town_kana":"ホリエ","prefecture":"香川県","city":"仲多度郡多度津町","town":"堀江"},{"zip_code":"7640014","prefecture_kana":"カガワケン","city_kana":"ナカタドグンタドツチョウ","town_kana":"ホンドオリ","prefecture":"香川県","city":"仲多度郡多度津町","town":"本通"},{"zip_code":"7640032","prefecture_kana":"カガワケン","city_kana":"ナカタドグンタドツチョウ","town_kana":"ミイ","prefecture":"香川県","city":"仲多度郡多度津町","town":"三井"},{"zip_code":"7640036","prefecture_kana":"カガワケン","city_kana":"ナカタドグンタドツチョウ","town_kana":"ミタチ","prefecture":"香川県","city":"仲多度郡多度津町","town":"見立"},{"zip_code":"7640026","prefecture_kana":"カガワケン","city_kana":"ナカタドグンタドツチョウ","town_kana":"ミナミガモ","prefecture":"香川県","city":"仲多度郡多度津町","town":"南鴨"},{"zip_code":"7640003","prefecture_kana":"カガワケン","city_kana":"ナカタドグンタドツチョウ","town_kana":"モトマチ","prefecture":"香川県","city":"仲多度郡多度津町","town":"元町"},{"zip_code":"7640034","prefecture_kana":"カガワケン","city_kana":"ナカタドグンタドツチョウ","town_kana":"ヤマシナ","prefecture":"香川県","city":"仲多度郡多度津町","town":"山階"},{"zip_code":"7640023","prefecture_kana":"カガワケン","city_kana":"ナカタドグンタドツチョウ","town_kana":"ワカバチョウ","prefecture":"香川県","city":"仲多度郡多度津町","town":"若葉町"},{"zip_code":"7660000","prefecture_kana":"カガワケン","city_kana":"ナカタドグンマンノウチョウ","town_kana":"イカニケイサイガナイバアイ","prefecture":"香川県","city":"仲多度郡まんのう町","town":"以下に掲載がない場合"},{"zip_code":"7690313","prefecture_kana":"カガワケン","city_kana":"ナカタドグンマンノウチョウ","town_kana":"イカマ","prefecture":"香川県","city":"仲多度郡まんのう町","town":"生間"},{"zip_code":"7690315","prefecture_kana":"カガワケン","city_kana":"ナカタドグンマンノウチョウ","town_kana":"ウシロヤマ","prefecture":"香川県","city":"仲多度郡まんのう町","town":"後山"},{"zip_code":"7690319","prefecture_kana":"カガワケン","city_kana":"ナカタドグンマンノウチョウ","town_kana":"オイアゲ","prefecture":"香川県","city":"仲多度郡まんのう町","town":"追上"},{"zip_code":"7690316","prefecture_kana":"カガワケン","city_kana":"ナカタドグンマンノウチョウ","town_kana":"オオクチ","prefecture":"香川県","city":"仲多度郡まんのう町","town":"大口"},{"zip_code":"7690311","prefecture_kana":"カガワケン","city_kana":"ナカタドグンマンノウチョウ","town_kana":"カイタ","prefecture":"香川県","city":"仲多度郡まんのう町","town":"買田"},{"zip_code":"7660204","prefecture_kana":"カガワケン","city_kana":"ナカタドグンマンノウチョウ","town_kana":"カツウラ","prefecture":"香川県","city":"仲多度郡まんのう町","town":"勝浦"},{"zip_code":"7660203","prefecture_kana":"カガワケン","city_kana":"ナカタドグンマンノウチョウ","town_kana":"カワヒガシ","prefecture":"香川県","city":"仲多度郡まんのう町","town":"川東"},{"zip_code":"7660024","prefecture_kana":"カガワケン","city_kana":"ナカタドグンマンノウチョウ","town_kana":"カンノ","prefecture":"香川県","city":"仲多度郡まんのう町","town":"神野"},{"zip_code":"7660026","prefecture_kana":"カガワケン","city_kana":"ナカタドグンマンノウチョウ","town_kana":"キシノウエ","prefecture":"香川県","city":"仲多度郡まんのう町","town":"岸上"},{"zip_code":"7660011","prefecture_kana":"カガワケン","city_kana":"ナカタドグンマンノウチョウ","town_kana":"クモン","prefecture":"香川県","city":"仲多度郡まんのう町","town":"公文"},{"zip_code":"7660027","prefecture_kana":"カガワケン","city_kana":"ナカタドグンマンノウチョウ","town_kana":"ゴジョウ","prefecture":"香川県","city":"仲多度郡まんのう町","town":"五條"},{"zip_code":"7690301","prefecture_kana":"カガワケン","city_kana":"ナカタドグンマンノウチョウ","town_kana":"サブミ","prefecture":"香川県","city":"仲多度郡まんのう町","town":"佐文"},{"zip_code":"7690302","prefecture_kana":"カガワケン","city_kana":"ナカタドグンマンノウチョウ","town_kana":"シオイリ","prefecture":"香川県","city":"仲多度郡まんのう町","town":"塩入"},{"zip_code":"7660021","prefecture_kana":"カガワケン","city_kana":"ナカタドグンマンノウチョウ","town_kana":"シジョウ","prefecture":"香川県","city":"仲多度郡まんのう町","town":"四條"},{"zip_code":"7690303","prefecture_kana":"カガワケン","city_kana":"ナカタドグンマンノウチョウ","town_kana":"シチカ","prefecture":"香川県","city":"仲多度郡まんのう町","town":"七箇"},{"zip_code":"7690317","prefecture_kana":"カガワケン","city_kana":"ナカタドグンマンノウチョウ","town_kana":"シンメ","prefecture":"香川県","city":"仲多度郡まんのう町","town":"新目"},{"zip_code":"7660017","prefecture_kana":"カガワケン","city_kana":"ナカタドグンマンノウチョウ","town_kana":"スミショニシ","prefecture":"香川県","city":"仲多度郡まんのう町","town":"炭所西"},{"zip_code":"7660016","prefecture_kana":"カガワケン","city_kana":"ナカタドグンマンノウチョウ","town_kana":"スミショヒガシ","prefecture":"香川県","city":"仲多度郡まんのう町","town":"炭所東"},{"zip_code":"7660201","prefecture_kana":"カガワケン","city_kana":"ナカタドグンマンノウチョウ","town_kana":"ソウダ","prefecture":"香川県","city":"仲多度郡まんのう町","town":"造田"},{"zip_code":"7660015","prefecture_kana":"カガワケン","city_kana":"ナカタドグンマンノウチョウ","town_kana":"ナガオ","prefecture":"香川県","city":"仲多度郡まんのう町","town":"長尾"},{"zip_code":"7660202","prefecture_kana":"カガワケン","city_kana":"ナカタドグンマンノウチョウ","town_kana":"ナカト","prefecture":"香川県","city":"仲多度郡まんのう町","town":"中通"},{"zip_code":"7660012","prefecture_kana":"カガワケン","city_kana":"ナカタドグンマンノウチョウ","town_kana":"ニシタカシノ","prefecture":"香川県","city":"仲多度郡まんのう町","town":"西高篠"},{"zip_code":"7660014","prefecture_kana":"カガワケン","city_kana":"ナカタドグンマンノウチョウ","town_kana":"ハザマ","prefecture":"香川県","city":"仲多度郡まんのう町","town":"羽間"},{"zip_code":"7660013","prefecture_kana":"カガワケン","city_kana":"ナカタドグンマンノウチョウ","town_kana":"ヒガシタカシノ","prefecture":"香川県","city":"仲多度郡まんのう町","town":"東高篠"},{"zip_code":"7690314","prefecture_kana":"カガワケン","city_kana":"ナカタドグンマンノウチョウ","town_kana":"ホノヤマ","prefecture":"香川県","city":"仲多度郡まんのう町","town":"帆山"},{"zip_code":"7660025","prefecture_kana":"カガワケン","city_kana":"ナカタドグンマンノウチョウ","town_kana":"マノ","prefecture":"香川県","city":"仲多度郡まんのう町","town":"真野"},{"zip_code":"7690312","prefecture_kana":"カガワケン","city_kana":"ナカタドグンマンノウチョウ","town_kana":"ミヤダ","prefecture":"香川県","city":"仲多度郡まんのう町","town":"宮田"},{"zip_code":"7690318","prefecture_kana":"カガワケン","city_kana":"ナカタドグンマンノウチョウ","town_kana":"ヤマワキ","prefecture":"香川県","city":"仲多度郡まんのう町","town":"山脇"},{"zip_code":"7660023","prefecture_kana":"カガワケン","city_kana":"ナカタドグンマンノウチョウ","town_kana":"ヨシノ","prefecture":"香川県","city":"仲多度郡まんのう町","town":"吉野"},{"zip_code":"7660022","prefecture_kana":"カガワケン","city_kana":"ナカタドグンマンノウチョウ","town_kana":"ヨシノシモ","prefecture":"香川県","city":"仲多度郡まんのう町","town":"吉野下"}]