[{"zip_code":"8800000","prefecture_kana":"ミヤザキケン","city_kana":"ミヤザキシ","town_kana":"イカニケイサイガナイバアイ","prefecture":"宮崎県","city":"宮崎市","town":"以下に掲載がない場合"},{"zip_code":"8892162","prefecture_kana":"ミヤザキケン","city_kana":"ミヤザキシ","town_kana":"アオシマ","prefecture":"宮崎県","city":"宮崎市","town":"青島"},{"zip_code":"8892163","prefecture_kana":"ミヤザキケン","city_kana":"ミヤザキシ","town_kana":"アオシマニシ","prefecture":"宮崎県","city":"宮崎市","town":"青島西"},{"zip_code":"8800842","prefecture_kana":"ミヤザキケン","city_kana":"ミヤザキシ","town_kana":"アオバチョウ","prefecture":"宮崎県","city":"宮崎市","town":"青葉町"},{"zip_code":"8800912","prefecture_kana":"ミヤザキケン","city_kana":"ミヤザキシ","town_kana":"アカエ","prefecture":"宮崎県","city":"宮崎市","town":"赤江"},{"zip_code":"8800803","prefecture_kana":"ミヤザキケン","city_kana":"ミヤザキシ","town_kana":"アサヒ","prefecture":"宮崎県","city":"宮崎市","town":"旭"},{"zip_code":"8800864","prefecture_kana":"ミヤザキケン","city_kana":"ミヤザキシ","town_kana":"アヅマチョウ","prefecture":"宮崎県","city":"宮崎市","town":"吾妻町"},{"zip_code":"8802101","prefecture_kana":"ミヤザキケン","city_kana":"ミヤザキシ","town_kana":"アトエ","prefecture":"宮崎県","city":"宮崎市","town":"跡江"},{"zip_code":"8802102","prefecture_kana":"ミヤザキケン","city_kana":"ミヤザキシ","town_kana":"アリタ","prefecture":"宮崎県","city":"宮崎市","town":"有田"},{"zip_code":"8800835","prefecture_kana":"ミヤザキケン","city_kana":"ミヤザキシ","town_kana":"アワキガハラチョウ","prefecture":"宮崎県","city":"宮崎市","town":"阿波岐原町"},{"zip_code":"8802103","prefecture_kana":"ミヤザキケン","city_kana":"ミヤザキシ","town_kana":"イキメ","prefecture":"宮崎県","city":"宮崎市","town":"生目"},{"zip_code":"8800942","prefecture_kana":"ミヤザキケン","city_kana":"ミヤザキシ","town_kana":"イキメダイヒガシ","prefecture":"宮崎県","city":"宮崎市","town":"生目台東"},{"zip_code":"8800943","prefecture_kana":"ミヤザキケン","city_kana":"ミヤザキシ","town_kana":"イキメダイニシ","prefecture":"宮崎県","city":"宮崎市","town":"生目台西"},{"zip_code":"8800041","prefecture_kana":"ミヤザキケン","city_kana":"ミヤザキシ","town_kana":"イケウチチョウ","prefecture":"宮崎県","city":"宮崎市","town":"池内町"},{"zip_code":"8800854","prefecture_kana":"ミヤザキケン","city_kana":"ミヤザキシ","town_kana":"イチノミヤチョウ","prefecture":"宮崎県","city":"宮崎市","town":"一の宮町"},{"zip_code":"8802231","prefecture_kana":"ミヤザキケン","city_kana":"ミヤザキシ","town_kana":"イトバル","prefecture":"宮崎県","city":"宮崎市","town":"糸原"},{"zip_code":"8802104","prefecture_kana":"ミヤザキケン","city_kana":"ミヤザキシ","town_kana":"ウキタ","prefecture":"宮崎県","city":"宮崎市","town":"浮田"},{"zip_code":"8800821","prefecture_kana":"ミヤザキケン","city_kana":"ミヤザキシ","town_kana":"ウキノジョウチョウ","prefecture":"宮崎県","city":"宮崎市","town":"浮城町"},{"zip_code":"8892301","prefecture_kana":"ミヤザキケン","city_kana":"ミヤザキシ","town_kana":"ウチウミ","prefecture":"宮崎県","city":"宮崎市","town":"内海"},{"zip_code":"8800344","prefecture_kana":"ミヤザキケン","city_kana":"ミヤザキシ","town_kana":"ウリュウノ（シモハタ）","prefecture":"宮崎県","city":"宮崎市","town":"瓜生野（下畑）"},{"zip_code":"8800044","prefecture_kana":"ミヤザキケン","city_kana":"ミヤザキシ","town_kana":"ウリュウノ（ソノタ）","prefecture":"宮崎県","city":"宮崎市","town":"瓜生野（その他）"},{"zip_code":"8800872","prefecture_kana":"ミヤザキケン","city_kana":"ミヤザキシ","town_kana":"エイラクチョウ","prefecture":"宮崎県","city":"宮崎市","town":"永楽町"},{"zip_code":"8800814","prefecture_kana":"ミヤザキケン","city_kana":"ミヤザキシ","town_kana":"エヒラナカマチ","prefecture":"宮崎県","city":"宮崎市","town":"江平中町"},{"zip_code":"8800817","prefecture_kana":"ミヤザキケン","city_kana":"ミヤザキシ","town_kana":"エヒラヒガシマチ","prefecture":"宮崎県","city":"宮崎市","town":"江平東町"},{"zip_code":"8800816","prefecture_kana":"ミヤザキケン","city_kana":"ミヤザキシ","town_kana":"エヒラヒガシ","prefecture":"宮崎県","city":"宮崎市","town":"江平東"},{"zip_code":"8800051","prefecture_kana":"ミヤザキケン","city_kana":"ミヤザキシ","town_kana":"エヒラニシ","prefecture":"宮崎県","city":"宮崎市","town":"江平西"},{"zip_code":"8800815","prefecture_kana":"ミヤザキケン","city_kana":"ミヤザキシ","town_kana":"エヒラチョウ","prefecture":"宮崎県","city":"宮崎市","town":"江平町"},{"zip_code":"8800801","prefecture_kana":"ミヤザキケン","city_kana":"ミヤザキシ","town_kana":"オイマツ","prefecture":"宮崎県","city":"宮崎市","town":"老松"},{"zip_code":"8800824","prefecture_kana":"ミヤザキケン","city_kana":"ミヤザキシ","town_kana":"オオシマチョウ","prefecture":"宮崎県","city":"宮崎市","town":"大島町"},{"zip_code":"8800345","prefecture_kana":"ミヤザキケン","city_kana":"ミヤザキシ","town_kana":"オオセマチ（カミハタ）","prefecture":"宮崎県","city":"宮崎市","town":"大瀬町（上畑）"},{"zip_code":"8800045","prefecture_kana":"ミヤザキケン","city_kana":"ミヤザキシ","town_kana":"オオセマチ（ソノタ）","prefecture":"宮崎県","city":"宮崎市","town":"大瀬町（その他）"},{"zip_code":"8800903","prefecture_kana":"ミヤザキケン","city_kana":"ミヤザキシ","town_kana":"オオタ","prefecture":"宮崎県","city":"宮崎市","town":"太田"},{"zip_code":"8800952","prefecture_kana":"ミヤザキケン","city_kana":"ミヤザキシ","town_kana":"オオツカダイヒガシ","prefecture":"宮崎県","city":"宮崎市","town":"大塚台東"},{"zip_code":"8802105","prefecture_kana":"ミヤザキケン","city_kana":"ミヤザキシ","town_kana":"オオツカダイニシ","prefecture":"宮崎県","city":"宮崎市","town":"大塚台西"},{"zip_code":"8800951","prefecture_kana":"ミヤザキケン","city_kana":"ミヤザキシ","town_kana":"オオツカチョウ","prefecture":"宮崎県","city":"宮崎市","town":"大塚町"},{"zip_code":"8800933","prefecture_kana":"ミヤザキケン","city_kana":"ミヤザキシ","town_kana":"オオツボチョウ","prefecture":"宮崎県","city":"宮崎市","town":"大坪町"},{"zip_code":"8800934","prefecture_kana":"ミヤザキケン","city_kana":"ミヤザキシ","town_kana":"オオツボヒガシ","prefecture":"宮崎県","city":"宮崎市","town":"大坪東"},{"zip_code":"8800932","prefecture_kana":"ミヤザキケン","city_kana":"ミヤザキシ","town_kana":"オオツボニシ","prefecture":"宮崎県","city":"宮崎市","town":"大坪西"},{"zip_code":"8800022","prefecture_kana":"ミヤザキケン","city_kana":"ミヤザキシ","town_kana":"オオハシ","prefecture":"宮崎県","city":"宮崎市","town":"大橋"},{"zip_code":"8800902","prefecture_kana":"ミヤザキケン","city_kana":"ミヤザキシ","town_kana":"オオヨド","prefecture":"宮崎県","city":"宮崎市","town":"大淀"},{"zip_code":"8800857","prefecture_kana":"ミヤザキケン","city_kana":"ミヤザキシ","town_kana":"オドチョウ","prefecture":"宮崎県","city":"宮崎市","town":"小戸町"},{"zip_code":"8892164","prefecture_kana":"ミヤザキケン","city_kana":"ミヤザキシ","town_kana":"オリウザコ","prefecture":"宮崎県","city":"宮崎市","town":"折生迫"},{"zip_code":"8892161","prefecture_kana":"ミヤザキケン","city_kana":"ミヤザキシ","town_kana":"カエダ","prefecture":"宮崎県","city":"宮崎市","town":"加江田"},{"zip_code":"8800947","prefecture_kana":"ミヤザキケン","city_kana":"ミヤザキシ","town_kana":"カオルザカ","prefecture":"宮崎県","city":"宮崎市","town":"薫る坂"},{"zip_code":"8892156","prefecture_kana":"ミヤザキケン","city_kana":"ミヤザキシ","town_kana":"カガミズ","prefecture":"宮崎県","city":"宮崎市","town":"鏡洲"},{"zip_code":"8892154","prefecture_kana":"ミヤザキケン","city_kana":"ミヤザキシ","town_kana":"ガクエンキハナダイサクラ","prefecture":"宮崎県","city":"宮崎市","town":"学園木花台桜"},{"zip_code":"8892155","prefecture_kana":"ミヤザキケン","city_kana":"ミヤザキシ","town_kana":"ガクエンキバナダイニシ","prefecture":"宮崎県","city":"宮崎市","town":"学園木花台西"},{"zip_code":"8892153","prefecture_kana":"ミヤザキケン","city_kana":"ミヤザキシ","town_kana":"ガクエンキバナダイミナミ","prefecture":"宮崎県","city":"宮崎市","town":"学園木花台南"},{"zip_code":"8892152","prefecture_kana":"ミヤザキケン","city_kana":"ミヤザキシ","town_kana":"ガクエンキバナダイキタ","prefecture":"宮崎県","city":"宮崎市","town":"学園木花台北"},{"zip_code":"8802111","prefecture_kana":"ミヤザキケン","city_kana":"ミヤザキシ","town_kana":"カシワバル","prefecture":"宮崎県","city":"宮崎市","town":"柏原"},{"zip_code":"8802234","prefecture_kana":"ミヤザキケン","city_kana":"ミヤザキシ","town_kana":"カネザキ","prefecture":"宮崎県","city":"宮崎市","town":"金崎"},{"zip_code":"8800043","prefecture_kana":"ミヤザキケン","city_kana":"ミヤザキシ","town_kana":"カミキタカタ","prefecture":"宮崎県","city":"宮崎市","town":"上北方"},{"zip_code":"8800011","prefecture_kana":"ミヤザキケン","city_kana":"ミヤザキシ","town_kana":"カミノマチ","prefecture":"宮崎県","city":"宮崎市","town":"上野町"},{"zip_code":"8800866","prefecture_kana":"ミヤザキケン","city_kana":"ミヤザキシ","town_kana":"カワラマチ","prefecture":"宮崎県","city":"宮崎市","town":"川原町"},{"zip_code":"8800024","prefecture_kana":"ミヤザキケン","city_kana":"ミヤザキシ","town_kana":"ギオン","prefecture":"宮崎県","city":"宮崎市","town":"祇園"},{"zip_code":"8800941","prefecture_kana":"ミヤザキケン","city_kana":"ミヤザキシ","town_kana":"キタカワウチチョウ","prefecture":"宮崎県","city":"宮崎市","town":"北川内町"},{"zip_code":"8800823","prefecture_kana":"ミヤザキケン","city_kana":"ミヤザキシ","town_kana":"キタゴンゲンチョウ","prefecture":"宮崎県","city":"宮崎市","town":"北権現町"},{"zip_code":"8800017","prefecture_kana":"ミヤザキケン","city_kana":"ミヤザキシ","town_kana":"キタタカマツチョウ","prefecture":"宮崎県","city":"宮崎市","town":"北高松町"},{"zip_code":"8800923","prefecture_kana":"ミヤザキケン","city_kana":"ミヤザキシ","town_kana":"キボウガオカ","prefecture":"宮崎県","city":"宮崎市","town":"希望ケ丘"},{"zip_code":"8800937","prefecture_kana":"ミヤザキケン","city_kana":"ミヤザキシ","town_kana":"キョウツカ","prefecture":"宮崎県","city":"宮崎市","town":"京塚"},{"zip_code":"8800938","prefecture_kana":"ミヤザキケン","city_kana":"ミヤザキシ","town_kana":"キョウヅカチョウ","prefecture":"宮崎県","city":"宮崎市","town":"京塚町"},{"zip_code":"8891609","prefecture_kana":"ミヤザキケン","city_kana":"ミヤザキシ","town_kana":"キヨタケチョウアサヒ","prefecture":"宮崎県","city":"宮崎市","town":"清武町あさひ"},{"zip_code":"8891606","prefecture_kana":"ミヤザキケン","city_kana":"ミヤザキシ","town_kana":"キヨタケチョウイケダダイ","prefecture":"宮崎県","city":"宮崎市","town":"清武町池田台"},{"zip_code":"8891608","prefecture_kana":"ミヤザキケン","city_kana":"ミヤザキシ","town_kana":"キヨタケチョウイケダダイキタ","prefecture":"宮崎県","city":"宮崎市","town":"清武町池田台北"},{"zip_code":"8891602","prefecture_kana":"ミヤザキケン","city_kana":"ミヤザキシ","town_kana":"キヨタケチョウイマイズミ","prefecture":"宮崎県","city":"宮崎市","town":"清武町今泉"},{"zip_code":"8891612","prefecture_kana":"ミヤザキケン","city_kana":"ミヤザキシ","town_kana":"キヨタケチョウオカ","prefecture":"宮崎県","city":"宮崎市","town":"清武町岡"},{"zip_code":"8891607","prefecture_kana":"ミヤザキケン","city_kana":"ミヤザキシ","town_kana":"キヨタケチョウカノウ（チョウメ）","prefecture":"宮崎県","city":"宮崎市","town":"清武町加納（丁目）"},{"zip_code":"8891605","prefecture_kana":"ミヤザキケン","city_kana":"ミヤザキシ","town_kana":"キヨタケチョウカノウ（バンチ）","prefecture":"宮崎県","city":"宮崎市","town":"清武町加納（番地）"},{"zip_code":"8891601","prefecture_kana":"ミヤザキケン","city_kana":"ミヤザキシ","town_kana":"キヨタケチョウキハラ","prefecture":"宮崎県","city":"宮崎市","town":"清武町木原"},{"zip_code":"8891603","prefecture_kana":"ミヤザキケン","city_kana":"ミヤザキシ","town_kana":"キヨタケチョウショウデ","prefecture":"宮崎県","city":"宮崎市","town":"清武町正手"},{"zip_code":"8891611","prefecture_kana":"ミヤザキケン","city_kana":"ミヤザキシ","town_kana":"キヨタケチョウシンマチ","prefecture":"宮崎県","city":"宮崎市","town":"清武町新町"},{"zip_code":"8891613","prefecture_kana":"ミヤザキケン","city_kana":"ミヤザキシ","town_kana":"キヨタケチョウニシシンマチ","prefecture":"宮崎県","city":"宮崎市","town":"清武町西新町"},{"zip_code":"8891604","prefecture_kana":"ミヤザキケン","city_kana":"ミヤザキシ","town_kana":"キヨタケチョウフナヒキ","prefecture":"宮崎県","city":"宮崎市","town":"清武町船引"},{"zip_code":"8800032","prefecture_kana":"ミヤザキケン","city_kana":"ミヤザキシ","town_kana":"キリシマ","prefecture":"宮崎県","city":"宮崎市","town":"霧島"},{"zip_code":"8800924","prefecture_kana":"ミヤザキケン","city_kana":"ミヤザキシ","town_kana":"グジブン","prefecture":"宮崎県","city":"宮崎市","town":"郡司分"},{"zip_code":"8892151","prefecture_kana":"ミヤザキケン","city_kana":"ミヤザキシ","town_kana":"クマノ","prefecture":"宮崎県","city":"宮崎市","town":"熊野"},{"zip_code":"8800927","prefecture_kana":"ミヤザキケン","city_kana":"ミヤザキシ","town_kana":"ゲンドウチョウ","prefecture":"宮崎県","city":"宮崎市","town":"源藤町"},{"zip_code":"8800944","prefecture_kana":"ミヤザキケン","city_kana":"ミヤザキシ","town_kana":"コウナン","prefecture":"宮崎県","city":"宮崎市","town":"江南"},{"zip_code":"8802112","prefecture_kana":"ミヤザキケン","city_kana":"ミヤザキシ","town_kana":"コマツ","prefecture":"宮崎県","city":"宮崎市","town":"小松"},{"zip_code":"8802113","prefecture_kana":"ミヤザキケン","city_kana":"ミヤザキシ","town_kana":"コマツダイキタマチ","prefecture":"宮崎県","city":"宮崎市","town":"小松台北町"},{"zip_code":"8800954","prefecture_kana":"ミヤザキケン","city_kana":"ミヤザキシ","town_kana":"コマツダイニシ","prefecture":"宮崎県","city":"宮崎市","town":"小松台西"},{"zip_code":"8800953","prefecture_kana":"ミヤザキケン","city_kana":"ミヤザキシ","town_kana":"コマツダイヒガシ","prefecture":"宮崎県","city":"宮崎市","town":"小松台東"},{"zip_code":"8800956","prefecture_kana":"ミヤザキケン","city_kana":"ミヤザキシ","town_kana":"コマツダイミナミマチ","prefecture":"宮崎県","city":"宮崎市","town":"小松台南町"},{"zip_code":"8800822","prefecture_kana":"ミヤザキケン","city_kana":"ミヤザキシ","town_kana":"ゴンゲンチョウ","prefecture":"宮崎県","city":"宮崎市","town":"権現町"},{"zip_code":"8800955","prefecture_kana":"ミヤザキケン","city_kana":"ミヤザキシ","town_kana":"サクラガオカチョウ","prefecture":"宮崎県","city":"宮崎市","town":"桜ケ丘町"},{"zip_code":"8800057","prefecture_kana":"ミヤザキケン","city_kana":"ミヤザキシ","town_kana":"サクラマチ","prefecture":"宮崎県","city":"宮崎市","town":"桜町"},{"zip_code":"8800213","prefecture_kana":"ミヤザキケン","city_kana":"ミヤザキシ","town_kana":"サドワラチョウイシザキ","prefecture":"宮崎県","city":"宮崎市","town":"佐土原町石崎"},{"zip_code":"8800301","prefecture_kana":"ミヤザキケン","city_kana":"ミヤザキシ","town_kana":"サドワラチョウカミタジマ","prefecture":"宮崎県","city":"宮崎市","town":"佐土原町上田島"},{"zip_code":"8800211","prefecture_kana":"ミヤザキケン","city_kana":"ミヤザキシ","town_kana":"サドワラチョウシモタジマ","prefecture":"宮崎県","city":"宮崎市","town":"佐土原町下田島"},{"zip_code":"8800204","prefecture_kana":"ミヤザキケン","city_kana":"ミヤザキシ","town_kana":"サドワラチョウシモトンダ","prefecture":"宮崎県","city":"宮崎市","town":"佐土原町下富田"},{"zip_code":"8800212","prefecture_kana":"ミヤザキケン","city_kana":"ミヤザキシ","town_kana":"サドワラチョウシモナカ","prefecture":"宮崎県","city":"宮崎市","town":"佐土原町下那珂"},{"zip_code":"8800302","prefecture_kana":"ミヤザキケン","city_kana":"ミヤザキシ","town_kana":"サドワラチョウニシカミナカ","prefecture":"宮崎県","city":"宮崎市","town":"佐土原町西上那珂"},{"zip_code":"8800303","prefecture_kana":"ミヤザキケン","city_kana":"ミヤザキシ","town_kana":"サドワラチョウヒガシカミナカ","prefecture":"宮崎県","city":"宮崎市","town":"佐土原町東上那珂"},{"zip_code":"8800214","prefecture_kana":"ミヤザキケン","city_kana":"ミヤザキシ","town_kana":"サドワラチョウマツコウジ","prefecture":"宮崎県","city":"宮崎市","town":"佐土原町松小路"},{"zip_code":"8800122","prefecture_kana":"ミヤザキケン","city_kana":"ミヤザキシ","town_kana":"シオジ","prefecture":"宮崎県","city":"宮崎市","town":"塩路"},{"zip_code":"8800862","prefecture_kana":"ミヤザキケン","city_kana":"ミヤザキシ","town_kana":"シオミチョウ","prefecture":"宮崎県","city":"宮崎市","town":"潮見町"},{"zip_code":"8800121","prefecture_kana":"ミヤザキケン","city_kana":"ミヤザキシ","town_kana":"シマノウチ","prefecture":"宮崎県","city":"宮崎市","town":"島之内"},{"zip_code":"8800021","prefecture_kana":"ミヤザキケン","city_kana":"ミヤザキシ","town_kana":"シミズ","prefecture":"宮崎県","city":"宮崎市","town":"清水"},{"zip_code":"8800035","prefecture_kana":"ミヤザキケン","city_kana":"ミヤザキシ","town_kana":"シモキタカタマチ","prefecture":"宮崎県","city":"宮崎市","town":"下北方町"},{"zip_code":"8800843","prefecture_kana":"ミヤザキケン","city_kana":"ミヤザキシ","town_kana":"シモハラチョウ","prefecture":"宮崎県","city":"宮崎市","town":"下原町"},{"zip_code":"8800833","prefecture_kana":"ミヤザキケン","city_kana":"ミヤザキシ","town_kana":"ショウエイチョウ","prefecture":"宮崎県","city":"宮崎市","town":"昭栄町"},{"zip_code":"8800917","prefecture_kana":"ミヤザキケン","city_kana":"ミヤザキシ","town_kana":"ジョウガサキ","prefecture":"宮崎県","city":"宮崎市","town":"城ケ崎"},{"zip_code":"8800876","prefecture_kana":"ミヤザキケン","city_kana":"ミヤザキシ","town_kana":"ジョウドエチョウ","prefecture":"宮崎県","city":"宮崎市","town":"浄土江町"},{"zip_code":"8800874","prefecture_kana":"ミヤザキケン","city_kana":"ミヤザキシ","town_kana":"ショウワチョウ","prefecture":"宮崎県","city":"宮崎市","town":"昭和町"},{"zip_code":"8800831","prefecture_kana":"ミヤザキケン","city_kana":"ミヤザキシ","town_kana":"シンエイチョウ","prefecture":"宮崎県","city":"宮崎市","town":"新栄町"},{"zip_code":"8800053","prefecture_kana":"ミヤザキケン","city_kana":"ミヤザキシ","town_kana":"ジングウ","prefecture":"宮崎県","city":"宮崎市","town":"神宮"},{"zip_code":"8800033","prefecture_kana":"ミヤザキケン","city_kana":"ミヤザキシ","town_kana":"ジングウニシ","prefecture":"宮崎県","city":"宮崎市","town":"神宮西"},{"zip_code":"8800056","prefecture_kana":"ミヤザキケン","city_kana":"ミヤザキシ","town_kana":"ジングウヒガシ","prefecture":"宮崎県","city":"宮崎市","town":"神宮東"},{"zip_code":"8800054","prefecture_kana":"ミヤザキケン","city_kana":"ミヤザキシ","town_kana":"ジングウチョウ","prefecture":"宮崎県","city":"宮崎市","town":"神宮町"},{"zip_code":"8800845","prefecture_kana":"ミヤザキケン","city_kana":"ミヤザキシ","town_kana":"シンジョウチョウ","prefecture":"宮崎県","city":"宮崎市","town":"新城町"},{"zip_code":"8800834","prefecture_kana":"ミヤザキケン","city_kana":"ミヤザキシ","town_kana":"シンベップチョウ","prefecture":"宮崎県","city":"宮崎市","town":"新別府町"},{"zip_code":"8800012","prefecture_kana":"ミヤザキケン","city_kana":"ミヤザキシ","town_kana":"スエヒロ","prefecture":"宮崎県","city":"宮崎市","town":"末広"},{"zip_code":"8800867","prefecture_kana":"ミヤザキケン","city_kana":"ミヤザキシ","town_kana":"セガシラ","prefecture":"宮崎県","city":"宮崎市","town":"瀬頭"},{"zip_code":"8800868","prefecture_kana":"ミヤザキケン","city_kana":"ミヤザキシ","town_kana":"セガシラチョウ","prefecture":"宮崎県","city":"宮崎市","town":"瀬頭町"},{"zip_code":"8800875","prefecture_kana":"ミヤザキケン","city_kana":"ミヤザキシ","town_kana":"ソシチョウ","prefecture":"宮崎県","city":"宮崎市","town":"曽師町"},{"zip_code":"8800871","prefecture_kana":"ミヤザキケン","city_kana":"ミヤザキシ","town_kana":"ダイオウチョウ","prefecture":"宮崎県","city":"宮崎市","town":"大王町"},{"zip_code":"8800015","prefecture_kana":"ミヤザキケン","city_kana":"ミヤザキシ","town_kana":"ダイク","prefecture":"宮崎県","city":"宮崎市","town":"大工"},{"zip_code":"8802224","prefecture_kana":"ミヤザキケン","city_kana":"ミヤザキシ","town_kana":"タカオカチョウイイダ","prefecture":"宮崎県","city":"宮崎市","town":"高岡町飯田"},{"zip_code":"8802221","prefecture_kana":"ミヤザキケン","city_kana":"ミヤザキシ","town_kana":"タカオカチョウウチヤマ（１−３２１４バンチ）","prefecture":"宮崎県","city":"宮崎市","town":"高岡町内山（１〜３２１４番地）"},{"zip_code":"8802321","prefecture_kana":"ミヤザキケン","city_kana":"ミヤザキシ","town_kana":"タカオカチョウウチヤマ（ソノタ）","prefecture":"宮崎県","city":"宮崎市","town":"高岡町内山（その他）"},{"zip_code":"8802223","prefecture_kana":"ミヤザキケン","city_kana":"ミヤザキシ","town_kana":"タカオカチョウウラノミョウ（２７９３−４３８９バンチ）","prefecture":"宮崎県","city":"宮崎市","town":"高岡町浦之名（２７９３〜４３８９番地）"},{"zip_code":"8802323","prefecture_kana":"ミヤザキケン","city_kana":"ミヤザキシ","town_kana":"タカオカチョウウラノミョウ（ソノタ）","prefecture":"宮崎県","city":"宮崎市","town":"高岡町浦之名（その他）"},{"zip_code":"8802214","prefecture_kana":"ミヤザキケン","city_kana":"ミヤザキシ","town_kana":"タカオカチョウオヤマダ","prefecture":"宮崎県","city":"宮崎市","town":"高岡町小山田"},{"zip_code":"8891713","prefecture_kana":"ミヤザキケン","city_kana":"ミヤザキシ","town_kana":"タカオカチョウカミクラナガ（１２０６−１２６８バンチ、ウチノヤエ）","prefecture":"宮崎県","city":"宮崎市","town":"高岡町上倉永（１２０６〜１２６８番地、内の八重）"},{"zip_code":"8802213","prefecture_kana":"ミヤザキケン","city_kana":"ミヤザキシ","town_kana":"タカオカチョウカミクラナガ（ソノタ）","prefecture":"宮崎県","city":"宮崎市","town":"高岡町上倉永（その他）"},{"zip_code":"8802325","prefecture_kana":"ミヤザキケン","city_kana":"ミヤザキシ","town_kana":"タカオカチョウカミヤ","prefecture":"宮崎県","city":"宮崎市","town":"高岡町紙屋"},{"zip_code":"8802222","prefecture_kana":"ミヤザキケン","city_kana":"ミヤザキシ","town_kana":"タカオカチョウゴチョウ（１−３１３７バンチ）","prefecture":"宮崎県","city":"宮崎市","town":"高岡町五町（１〜３１３７番地）"},{"zip_code":"8802322","prefecture_kana":"ミヤザキケン","city_kana":"ミヤザキシ","town_kana":"タカオカチョウゴチョウ（ソノタ）","prefecture":"宮崎県","city":"宮崎市","town":"高岡町五町（その他）"},{"zip_code":"8802212","prefecture_kana":"ミヤザキケン","city_kana":"ミヤザキシ","town_kana":"タカオカチョウシモクラナガ","prefecture":"宮崎県","city":"宮崎市","town":"高岡町下倉永"},{"zip_code":"8802215","prefecture_kana":"ミヤザキケン","city_kana":"ミヤザキシ","town_kana":"タカオカチョウタカハマ","prefecture":"宮崎県","city":"宮崎市","town":"高岡町高浜"},{"zip_code":"8802211","prefecture_kana":"ミヤザキケン","city_kana":"ミヤザキシ","town_kana":"タカオカチョウハナミ","prefecture":"宮崎県","city":"宮崎市","town":"高岡町花見"},{"zip_code":"8800852","prefecture_kana":"ミヤザキケン","city_kana":"ミヤザキシ","town_kana":"タカスチョウ","prefecture":"宮崎県","city":"宮崎市","town":"高洲町"},{"zip_code":"8800812","prefecture_kana":"ミヤザキケン","city_kana":"ミヤザキシ","town_kana":"タカチホドオリ","prefecture":"宮崎県","city":"宮崎市","town":"高千穂通"},{"zip_code":"8800003","prefecture_kana":"ミヤザキケン","city_kana":"ミヤザキシ","town_kana":"タカマツチョウ","prefecture":"宮崎県","city":"宮崎市","town":"高松町"},{"zip_code":"8800855","prefecture_kana":"ミヤザキケン","city_kana":"ミヤザキシ","town_kana":"タシロチョウ","prefecture":"宮崎県","city":"宮崎市","town":"田代町"},{"zip_code":"8800001","prefecture_kana":"ミヤザキケン","city_kana":"ミヤザキシ","town_kana":"タチバナドオリニシ","prefecture":"宮崎県","city":"宮崎市","town":"橘通西"},{"zip_code":"8800805","prefecture_kana":"ミヤザキケン","city_kana":"ミヤザキシ","town_kana":"タチバナドオリヒガシ","prefecture":"宮崎県","city":"宮崎市","town":"橘通東"},{"zip_code":"8800908","prefecture_kana":"ミヤザキケン","city_kana":"ミヤザキシ","town_kana":"タニガワ","prefecture":"宮崎県","city":"宮崎市","town":"谷川"},{"zip_code":"8800909","prefecture_kana":"ミヤザキケン","city_kana":"ミヤザキシ","town_kana":"タニガワチョウ","prefecture":"宮崎県","city":"宮崎市","town":"谷川町"},{"zip_code":"8891703","prefecture_kana":"ミヤザキケン","city_kana":"ミヤザキシ","town_kana":"タノチョウアケボノ","prefecture":"宮崎県","city":"宮崎市","town":"田野町あけぼの"},{"zip_code":"8891702","prefecture_kana":"ミヤザキケン","city_kana":"ミヤザキシ","town_kana":"タノチョウオツ","prefecture":"宮崎県","city":"宮崎市","town":"田野町乙"},{"zip_code":"8891701","prefecture_kana":"ミヤザキケン","city_kana":"ミヤザキシ","town_kana":"タノチョウコウ","prefecture":"宮崎県","city":"宮崎市","town":"田野町甲"},{"zip_code":"8891704","prefecture_kana":"ミヤザキケン","city_kana":"ミヤザキシ","town_kana":"タノチョウミナミバル","prefecture":"宮崎県","city":"宮崎市","town":"田野町南原"},{"zip_code":"8800911","prefecture_kana":"ミヤザキケン","city_kana":"ミヤザキシ","town_kana":"タヨシ","prefecture":"宮崎県","city":"宮崎市","town":"田吉"},{"zip_code":"8800006","prefecture_kana":"ミヤザキケン","city_kana":"ミヤザキシ","town_kana":"チグサチョウ","prefecture":"宮崎県","city":"宮崎市","town":"千草町"},{"zip_code":"8800002","prefecture_kana":"ミヤザキケン","city_kana":"ミヤザキシ","town_kana":"チュウオウドオリ","prefecture":"宮崎県","city":"宮崎市","town":"中央通"},{"zip_code":"8800926","prefecture_kana":"ミヤザキケン","city_kana":"ミヤザキシ","town_kana":"ツキミガオカ","prefecture":"宮崎県","city":"宮崎市","town":"月見ケ丘"},{"zip_code":"8802232","prefecture_kana":"ミヤザキケン","city_kana":"ミヤザキシ","town_kana":"ツツミウチ","prefecture":"宮崎県","city":"宮崎市","town":"堤内"},{"zip_code":"8800913","prefecture_kana":"ミヤザキケン","city_kana":"ミヤザキシ","town_kana":"ツネヒサ（チョウメ）","prefecture":"宮崎県","city":"宮崎市","town":"恒久（丁目）"},{"zip_code":"8800916","prefecture_kana":"ミヤザキケン","city_kana":"ミヤザキシ","town_kana":"ツネヒサ（バンチ）","prefecture":"宮崎県","city":"宮崎市","town":"恒久（番地）"},{"zip_code":"8800915","prefecture_kana":"ミヤザキケン","city_kana":"ミヤザキシ","town_kana":"ツネヒサミナミ","prefecture":"宮崎県","city":"宮崎市","town":"恒久南"},{"zip_code":"8800014","prefecture_kana":"ミヤザキケン","city_kana":"ミヤザキシ","town_kana":"ツルノシマ","prefecture":"宮崎県","city":"宮崎市","town":"鶴島"},{"zip_code":"8800861","prefecture_kana":"ミヤザキケン","city_kana":"ミヤザキシ","town_kana":"デキジマチョウ","prefecture":"宮崎県","city":"宮崎市","town":"出来島町"},{"zip_code":"8800936","prefecture_kana":"ミヤザキケン","city_kana":"ミヤザキシ","town_kana":"テンマン","prefecture":"宮崎県","city":"宮崎市","town":"天満"},{"zip_code":"8800935","prefecture_kana":"ミヤザキケン","city_kana":"ミヤザキシ","town_kana":"テンマンチョウ","prefecture":"宮崎県","city":"宮崎市","town":"天満町"},{"zip_code":"8800928","prefecture_kana":"ミヤザキケン","city_kana":"ミヤザキシ","town_kana":"トウグウ","prefecture":"宮崎県","city":"宮崎市","town":"東宮"},{"zip_code":"8802114","prefecture_kana":"ミヤザキケン","city_kana":"ミヤザキシ","town_kana":"トミヨシ","prefecture":"宮崎県","city":"宮崎市","town":"富吉"},{"zip_code":"8800025","prefecture_kana":"ミヤザキケン","city_kana":"ミヤザキシ","town_kana":"ナカツセチョウ","prefecture":"宮崎県","city":"宮崎市","town":"中津瀬町"},{"zip_code":"8800853","prefecture_kana":"ミヤザキケン","city_kana":"ミヤザキシ","town_kana":"ナカニシチョウ","prefecture":"宮崎県","city":"宮崎市","town":"中西町"},{"zip_code":"8800904","prefecture_kana":"ミヤザキケン","city_kana":"ミヤザキシ","town_kana":"ナカムラヒガシ","prefecture":"宮崎県","city":"宮崎市","town":"中村東"},{"zip_code":"8800905","prefecture_kana":"ミヤザキケン","city_kana":"ミヤザキシ","town_kana":"ナカムラニシ","prefecture":"宮崎県","city":"宮崎市","town":"中村西"},{"zip_code":"8802115","prefecture_kana":"ミヤザキケン","city_kana":"ミヤザキシ","town_kana":"ナガミネ","prefecture":"宮崎県","city":"宮崎市","town":"長嶺"},{"zip_code":"8800826","prefecture_kana":"ミヤザキケン","city_kana":"ミヤザキシ","town_kana":"ナミシマ","prefecture":"宮崎県","city":"宮崎市","town":"波島"},{"zip_code":"8800124","prefecture_kana":"ミヤザキケン","city_kana":"ミヤザキシ","town_kana":"ニイナヅメ","prefecture":"宮崎県","city":"宮崎市","town":"新名爪"},{"zip_code":"8800027","prefecture_kana":"ミヤザキケン","city_kana":"ミヤザキシ","town_kana":"ニシイケチョウ","prefecture":"宮崎県","city":"宮崎市","town":"西池町"},{"zip_code":"8800818","prefecture_kana":"ミヤザキケン","city_kana":"ミヤザキシ","town_kana":"ニシキホンマチ","prefecture":"宮崎県","city":"宮崎市","town":"錦本町"},{"zip_code":"8800811","prefecture_kana":"ミヤザキケン","city_kana":"ミヤザキシ","town_kana":"ニシキマチ","prefecture":"宮崎県","city":"宮崎市","town":"錦町"},{"zip_code":"8800016","prefecture_kana":"ミヤザキケン","city_kana":"ミヤザキシ","town_kana":"ニシタカマツチョウ","prefecture":"宮崎県","city":"宮崎市","town":"西高松町"},{"zip_code":"8800036","prefecture_kana":"ミヤザキケン","city_kana":"ミヤザキシ","town_kana":"ハナガシマチョウ","prefecture":"宮崎県","city":"宮崎市","town":"花ケ島町"},{"zip_code":"8800026","prefecture_kana":"ミヤザキケン","city_kana":"ミヤザキシ","town_kana":"ハナドノチョウ","prefecture":"宮崎県","city":"宮崎市","town":"花殿町"},{"zip_code":"8800939","prefecture_kana":"ミヤザキケン","city_kana":"ミヤザキシ","town_kana":"ハナヤマテニシ","prefecture":"宮崎県","city":"宮崎市","town":"花山手西"},{"zip_code":"8800930","prefecture_kana":"ミヤザキケン","city_kana":"ミヤザキシ","town_kana":"ハナヤマテヒガシ","prefecture":"宮崎県","city":"宮崎市","town":"花山手東"},{"zip_code":"8800007","prefecture_kana":"ミヤザキケン","city_kana":"ミヤザキシ","town_kana":"ハラマチ","prefecture":"宮崎県","city":"宮崎市","town":"原町"},{"zip_code":"8800832","prefecture_kana":"ミヤザキケン","city_kana":"ミヤザキシ","town_kana":"ヒエバルチョウ","prefecture":"宮崎県","city":"宮崎市","town":"稗原町"},{"zip_code":"8800825","prefecture_kana":"ミヤザキケン","city_kana":"ミヤザキシ","town_kana":"ヒガシオオミヤ","prefecture":"宮崎県","city":"宮崎市","town":"東大宮"},{"zip_code":"8800901","prefecture_kana":"ミヤザキケン","city_kana":"ミヤザキシ","town_kana":"ヒガシオオヨド","prefecture":"宮崎県","city":"宮崎市","town":"東大淀"},{"zip_code":"8800856","prefecture_kana":"ミヤザキケン","city_kana":"ミヤザキシ","town_kana":"ヒノデチョウ","prefecture":"宮崎県","city":"宮崎市","town":"日ノ出町"},{"zip_code":"8800806","prefecture_kana":"ミヤザキケン","city_kana":"ミヤザキシ","town_kana":"ヒロシマ","prefecture":"宮崎県","city":"宮崎市","town":"広島"},{"zip_code":"8800125","prefecture_kana":"ミヤザキケン","city_kana":"ミヤザキシ","town_kana":"ヒロハラ","prefecture":"宮崎県","city":"宮崎市","town":"広原"},{"zip_code":"8800946","prefecture_kana":"ミヤザキケン","city_kana":"ミヤザキシ","town_kana":"フクシマチョウ（チョウメ）","prefecture":"宮崎県","city":"宮崎市","town":"福島町（丁目）"},{"zip_code":"8800945","prefecture_kana":"ミヤザキケン","city_kana":"ミヤザキシ","town_kana":"フクシマチョウ（バンチ）","prefecture":"宮崎県","city":"宮崎市","town":"福島町（番地）"},{"zip_code":"8800031","prefecture_kana":"ミヤザキケン","city_kana":"ミヤザキシ","town_kana":"フナツカ","prefecture":"宮崎県","city":"宮崎市","town":"船塚"},{"zip_code":"8800931","prefecture_kana":"ミヤザキケン","city_kana":"ミヤザキシ","town_kana":"フルジョウチョウ","prefecture":"宮崎県","city":"宮崎市","town":"古城町"},{"zip_code":"8800046","prefecture_kana":"ミヤザキケン","city_kana":"ミヤザキシ","town_kana":"ヘイワガオカキタマチ","prefecture":"宮崎県","city":"宮崎市","town":"平和が丘北町"},{"zip_code":"8800047","prefecture_kana":"ミヤザキケン","city_kana":"ミヤザキシ","town_kana":"ヘイワガオカニシマチ","prefecture":"宮崎県","city":"宮崎市","town":"平和が丘西町"},{"zip_code":"8800042","prefecture_kana":"ミヤザキケン","city_kana":"ミヤザキシ","town_kana":"ヘイワガオカヒガシマチ","prefecture":"宮崎県","city":"宮崎市","town":"平和が丘東町"},{"zip_code":"8800802","prefecture_kana":"ミヤザキケン","city_kana":"ミヤザキシ","town_kana":"ベップチョウ","prefecture":"宮崎県","city":"宮崎市","town":"別府町"},{"zip_code":"8800123","prefecture_kana":"ミヤザキケン","city_kana":"ミヤザキシ","town_kana":"ホウジ","prefecture":"宮崎県","city":"宮崎市","town":"芳士"},{"zip_code":"8891716","prefecture_kana":"ミヤザキケン","city_kana":"ミヤザキシ","town_kana":"ホソエ（ヘイワ）","prefecture":"宮崎県","city":"宮崎市","town":"細江（平和）"},{"zip_code":"8802116","prefecture_kana":"ミヤザキケン","city_kana":"ミヤザキシ","town_kana":"ホソエ（ソノタ）","prefecture":"宮崎県","city":"宮崎市","town":"細江（その他）"},{"zip_code":"8800873","prefecture_kana":"ミヤザキケン","city_kana":"ミヤザキシ","town_kana":"ホリカワチョウ","prefecture":"宮崎県","city":"宮崎市","town":"堀川町"},{"zip_code":"8800922","prefecture_kana":"ミヤザキケン","city_kana":"ミヤザキシ","town_kana":"ホンゴウ","prefecture":"宮崎県","city":"宮崎市","town":"本郷"},{"zip_code":"8800925","prefecture_kana":"ミヤザキケン","city_kana":"ミヤザキシ","town_kana":"ホンゴウキタカタ","prefecture":"宮崎県","city":"宮崎市","town":"本郷北方"},{"zip_code":"8800921","prefecture_kana":"ミヤザキケン","city_kana":"ミヤザキシ","town_kana":"ホンゴウミナミカタ","prefecture":"宮崎県","city":"宮崎市","town":"本郷南方"},{"zip_code":"8800863","prefecture_kana":"ミヤザキケン","city_kana":"ミヤザキシ","town_kana":"マエバルチョウ","prefecture":"宮崎県","city":"宮崎市","town":"前原町"},{"zip_code":"8800013","prefecture_kana":"ミヤザキケン","city_kana":"ミヤザキシ","town_kana":"マツバシ","prefecture":"宮崎県","city":"宮崎市","town":"松橋"},{"zip_code":"8800865","prefecture_kana":"ミヤザキケン","city_kana":"ミヤザキシ","town_kana":"マツヤマ","prefecture":"宮崎県","city":"宮崎市","town":"松山"},{"zip_code":"8800929","prefecture_kana":"ミヤザキケン","city_kana":"ミヤザキシ","town_kana":"マナビノ","prefecture":"宮崎県","city":"宮崎市","town":"まなび野"},{"zip_code":"8800813","prefecture_kana":"ミヤザキケン","city_kana":"ミヤザキシ","town_kana":"マルシマチョウ","prefecture":"宮崎県","city":"宮崎市","town":"丸島町"},{"zip_code":"8800052","prefecture_kana":"ミヤザキケン","city_kana":"ミヤザキシ","town_kana":"マルヤマ","prefecture":"宮崎県","city":"宮崎市","town":"丸山"},{"zip_code":"8800858","prefecture_kana":"ミヤザキケン","city_kana":"ミヤザキシ","town_kana":"ミナト","prefecture":"宮崎県","city":"宮崎市","town":"港"},{"zip_code":"8800851","prefecture_kana":"ミヤザキケン","city_kana":"ミヤザキシ","town_kana":"ミナトヒガシ","prefecture":"宮崎県","city":"宮崎市","town":"港東"},{"zip_code":"8800037","prefecture_kana":"ミヤザキケン","city_kana":"ミヤザキシ","town_kana":"ミナミカタチョウ","prefecture":"宮崎県","city":"宮崎市","town":"南方町"},{"zip_code":"8800005","prefecture_kana":"ミヤザキケン","city_kana":"ミヤザキシ","town_kana":"ミナミタカマツチョウ","prefecture":"宮崎県","city":"宮崎市","town":"南高松町"},{"zip_code":"8800055","prefecture_kana":"ミヤザキケン","city_kana":"ミヤザキシ","town_kana":"ミナミハナガシマチョウ","prefecture":"宮崎県","city":"宮崎市","town":"南花ケ島町"},{"zip_code":"8800906","prefecture_kana":"ミヤザキケン","city_kana":"ミヤザキシ","town_kana":"ミナミマチ","prefecture":"宮崎県","city":"宮崎市","town":"南町"},{"zip_code":"8800879","prefecture_kana":"ミヤザキケン","city_kana":"ミヤザキシ","town_kana":"ミヤザキエキヒガシ","prefecture":"宮崎県","city":"宮崎市","town":"宮崎駅東"},{"zip_code":"8800804","prefecture_kana":"ミヤザキケン","city_kana":"ミヤザキシ","town_kana":"ミヤタチョウ","prefecture":"宮崎県","city":"宮崎市","town":"宮田町"},{"zip_code":"8800914","prefecture_kana":"ミヤザキケン","city_kana":"ミヤザキシ","town_kana":"ミヤノモトマチ","prefecture":"宮崎県","city":"宮崎市","town":"宮の元町"},{"zip_code":"8800877","prefecture_kana":"ミヤザキケン","city_kana":"ミヤザキシ","town_kana":"ミヤワキチョウ","prefecture":"宮崎県","city":"宮崎市","town":"宮脇町"},{"zip_code":"8800837","prefecture_kana":"ミヤザキケン","city_kana":"ミヤザキシ","town_kana":"ムラスミチョウ","prefecture":"宮崎県","city":"宮崎市","town":"村角町"},{"zip_code":"8800004","prefecture_kana":"ミヤザキケン","city_kana":"ミヤザキシ","town_kana":"モトミヤチョウ","prefecture":"宮崎県","city":"宮崎市","town":"元宮町"},{"zip_code":"8800844","prefecture_kana":"ミヤザキケン","city_kana":"ミヤザキシ","town_kana":"ヤナギマルチョウ","prefecture":"宮崎県","city":"宮崎市","town":"柳丸町"},{"zip_code":"8800034","prefecture_kana":"ミヤザキケン","city_kana":"ミヤザキシ","town_kana":"ヤノサキチョウ","prefecture":"宮崎県","city":"宮崎市","town":"矢の先町"},{"zip_code":"8800836","prefecture_kana":"ミヤザキケン","city_kana":"ミヤザキシ","town_kana":"ヤマサキチョウ","prefecture":"宮崎県","city":"宮崎市","town":"山崎町"},{"zip_code":"8800878","prefecture_kana":"ミヤザキケン","city_kana":"ミヤザキシ","town_kana":"ヤマトチョウ","prefecture":"宮崎県","city":"宮崎市","town":"大和町"},{"zip_code":"8802233","prefecture_kana":"ミヤザキケン","city_kana":"ミヤザキシ","town_kana":"ヨシノ","prefecture":"宮崎県","city":"宮崎市","town":"吉野"},{"zip_code":"8800841","prefecture_kana":"ミヤザキケン","city_kana":"ミヤザキシ","town_kana":"ヨシムラチョウ","prefecture":"宮崎県","city":"宮崎市","town":"吉村町"},{"zip_code":"8800907","prefecture_kana":"ミヤザキケン","city_kana":"ミヤザキシ","town_kana":"ヨドガワ","prefecture":"宮崎県","city":"宮崎市","town":"淀川"},{"zip_code":"8800023","prefecture_kana":"ミヤザキケン","city_kana":"ミヤザキシ","town_kana":"ワチガワラ","prefecture":"宮崎県","city":"宮崎市","town":"和知川原"},{"zip_code":"8850000","prefecture_kana":"ミヤザキケン","city_kana":"ミヤコノジョウシ","town_kana":"イカニケイサイガナイバアイ","prefecture":"宮崎県","city":"都城市","town":"以下に掲載がない場合"},{"zip_code":"8850034","prefecture_kana":"ミヤザキケン","city_kana":"ミヤコノジョウシ","town_kana":"アヤメバルチョウ","prefecture":"宮崎県","city":"都城市","town":"菖蒲原町"},{"zip_code":"8850041","prefecture_kana":"ミヤザキケン","city_kana":"ミヤコノジョウシ","town_kana":"イチマンジョウチョウ","prefecture":"宮崎県","city":"都城市","town":"一万城町"},{"zip_code":"8850064","prefecture_kana":"ミヤザキケン","city_kana":"ミヤコノジョウシ","town_kana":"イママチ","prefecture":"宮崎県","city":"都城市","town":"今町"},{"zip_code":"8851101","prefecture_kana":"ミヤザキケン","city_kana":"ミヤコノジョウシ","town_kana":"イワミツチョウ","prefecture":"宮崎県","city":"都城市","town":"岩満町"},{"zip_code":"8850019","prefecture_kana":"ミヤザキケン","city_kana":"ミヤコノジョウシ","town_kana":"イワヨシ","prefecture":"宮崎県","city":"都城市","town":"祝吉"},{"zip_code":"8850014","prefecture_kana":"ミヤザキケン","city_kana":"ミヤコノジョウシ","town_kana":"イワヨシチョウ","prefecture":"宮崎県","city":"都城市","town":"祝吉町"},{"zip_code":"8850063","prefecture_kana":"ミヤザキケン","city_kana":"ミヤコノジョウシ","town_kana":"ウメキタチョウ","prefecture":"宮崎県","city":"都城市","town":"梅北町"},{"zip_code":"8850062","prefecture_kana":"ミヤザキケン","city_kana":"ミヤコノジョウシ","town_kana":"オオイワダチョウ","prefecture":"宮崎県","city":"都城市","town":"大岩田町"},{"zip_code":"8850112","prefecture_kana":"ミヤザキケン","city_kana":"ミヤコノジョウシ","town_kana":"オトボウチョウ","prefecture":"宮崎県","city":"都城市","town":"乙房町"},{"zip_code":"8850074","prefecture_kana":"ミヤザキケン","city_kana":"ミヤコノジョウシ","town_kana":"カイモトチョウ","prefecture":"宮崎県","city":"都城市","town":"甲斐元町"},{"zip_code":"8850111","prefecture_kana":"ミヤザキケン","city_kana":"ミヤコノジョウシ","town_kana":"カシノチョウ","prefecture":"宮崎県","city":"都城市","town":"菓子野町"},{"zip_code":"8850001","prefecture_kana":"ミヤザキケン","city_kana":"ミヤコノジョウシ","town_kana":"カナダチョウ","prefecture":"宮崎県","city":"都城市","town":"金田町"},{"zip_code":"8850012","prefecture_kana":"ミヤザキケン","city_kana":"ミヤコノジョウシ","town_kana":"カミカワヒガシ","prefecture":"宮崎県","city":"都城市","town":"上川東"},{"zip_code":"8851103","prefecture_kana":"ミヤザキケン","city_kana":"ミヤコノジョウシ","town_kana":"カミズルチョウ","prefecture":"宮崎県","city":"都城市","town":"上水流町"},{"zip_code":"8850042","prefecture_kana":"ミヤザキケン","city_kana":"ミヤコノジョウシ","town_kana":"カミナガエチョウ","prefecture":"宮崎県","city":"都城市","town":"上長飯町"},{"zip_code":"8850053","prefecture_kana":"ミヤザキケン","city_kana":"ミヤコノジョウシ","town_kana":"カミヒガシチョウ","prefecture":"宮崎県","city":"都城市","town":"上東町"},{"zip_code":"8850072","prefecture_kana":"ミヤザキケン","city_kana":"ミヤコノジョウシ","town_kana":"カンマチ","prefecture":"宮崎県","city":"都城市","town":"上町"},{"zip_code":"8850024","prefecture_kana":"ミヤザキケン","city_kana":"ミヤコノジョウシ","town_kana":"キタハラチョウ","prefecture":"宮崎県","city":"都城市","town":"北原町"},{"zip_code":"8850086","prefecture_kana":"ミヤザキケン","city_kana":"ミヤコノジョウシ","town_kana":"クボバルチョウ","prefecture":"宮崎県","city":"都城市","town":"久保原町"},{"zip_code":"8850051","prefecture_kana":"ミヤザキケン","city_kana":"ミヤコノジョウシ","town_kana":"クラハラチョウ","prefecture":"宮崎県","city":"都城市","town":"蔵原町"},{"zip_code":"8850018","prefecture_kana":"ミヤザキケン","city_kana":"ミヤコノジョウシ","town_kana":"コオリモト","prefecture":"宮崎県","city":"都城市","town":"郡元"},{"zip_code":"8850013","prefecture_kana":"ミヤザキケン","city_kana":"ミヤコノジョウシ","town_kana":"コオリモトチョウ","prefecture":"宮崎県","city":"都城市","town":"郡元町"},{"zip_code":"8850084","prefecture_kana":"ミヤザキケン","city_kana":"ミヤコノジョウシ","town_kana":"ゴジッチョウ","prefecture":"宮崎県","city":"都城市","town":"五十町"},{"zip_code":"8850022","prefecture_kana":"ミヤザキケン","city_kana":"ミヤコノジョウシ","town_kana":"コマツバラチョウ","prefecture":"宮崎県","city":"都城市","town":"小松原町"},{"zip_code":"8850023","prefecture_kana":"ミヤザキケン","city_kana":"ミヤコノジョウシ","town_kana":"サカエマチ","prefecture":"宮崎県","city":"都城市","town":"栄町"},{"zip_code":"8850093","prefecture_kana":"ミヤザキケン","city_kana":"ミヤコノジョウシ","town_kana":"シビタチョウ","prefecture":"宮崎県","city":"都城市","town":"志比田町"},{"zip_code":"8850011","prefecture_kana":"ミヤザキケン","city_kana":"ミヤコノジョウシ","town_kana":"シモカワヒガシ","prefecture":"宮崎県","city":"都城市","town":"下川東"},{"zip_code":"8851102","prefecture_kana":"ミヤザキケン","city_kana":"ミヤコノジョウシ","town_kana":"シモズルチョウ","prefecture":"宮崎県","city":"都城市","town":"下水流町"},{"zip_code":"8850061","prefecture_kana":"ミヤザキケン","city_kana":"ミヤコノジョウシ","town_kana":"シモナガエチョウ","prefecture":"宮崎県","city":"都城市","town":"下長飯町"},{"zip_code":"8850114","prefecture_kana":"ミヤザキケン","city_kana":"ミヤコノジョウシ","town_kana":"ショウナイチョウ","prefecture":"宮崎県","city":"都城市","town":"庄内町"},{"zip_code":"8850005","prefecture_kana":"ミヤザキケン","city_kana":"ミヤコノジョウシ","town_kana":"ジンノヤマチョウ","prefecture":"宮崎県","city":"都城市","town":"神之山町"},{"zip_code":"8850113","prefecture_kana":"ミヤザキケン","city_kana":"ミヤコノジョウシ","town_kana":"セキノオチョウ","prefecture":"宮崎県","city":"都城市","town":"関之尾町"},{"zip_code":"8850015","prefecture_kana":"ミヤザキケン","city_kana":"ミヤコノジョウシ","town_kana":"センチョウ","prefecture":"宮崎県","city":"都城市","town":"千町"},{"zip_code":"8850026","prefecture_kana":"ミヤザキケン","city_kana":"ミヤコノジョウシ","town_kana":"ダイオウチョウ","prefecture":"宮崎県","city":"都城市","town":"大王町"},{"zip_code":"8850081","prefecture_kana":"ミヤザキケン","city_kana":"ミヤコノジョウシ","town_kana":"タカオ","prefecture":"宮崎県","city":"都城市","town":"鷹尾"},{"zip_code":"8850003","prefecture_kana":"ミヤザキケン","city_kana":"ミヤコノジョウシ","town_kana":"タカギチョウ","prefecture":"宮崎県","city":"都城市","town":"高木町"},{"zip_code":"8894502","prefecture_kana":"ミヤザキケン","city_kana":"ミヤコノジョウシ","town_kana":"タカザキチョウエヒラ","prefecture":"宮崎県","city":"都城市","town":"高崎町江平"},{"zip_code":"8894505","prefecture_kana":"ミヤザキケン","city_kana":"ミヤコノジョウシ","town_kana":"タカザキチョウオオムタ","prefecture":"宮崎県","city":"都城市","town":"高崎町大牟田"},{"zip_code":"8894504","prefecture_kana":"ミヤザキケン","city_kana":"ミヤコノジョウシ","town_kana":"タカザキチョウツマギリシマ","prefecture":"宮崎県","city":"都城市","town":"高崎町東霧島"},{"zip_code":"8894503","prefecture_kana":"ミヤザキケン","city_kana":"ミヤコノジョウシ","town_kana":"タカザキチョウナワゼ","prefecture":"宮崎県","city":"都城市","town":"高崎町縄瀬"},{"zip_code":"8894501","prefecture_kana":"ミヤザキケン","city_kana":"ミヤコノジョウシ","town_kana":"タカザキチョウフエミズ","prefecture":"宮崎県","city":"都城市","town":"高崎町笛水"},{"zip_code":"8894506","prefecture_kana":"ミヤザキケン","city_kana":"ミヤコノジョウシ","town_kana":"タカザキチョウマエダ","prefecture":"宮崎県","city":"都城市","town":"高崎町前田"},{"zip_code":"8851311","prefecture_kana":"ミヤザキケン","city_kana":"ミヤコノジョウシ","town_kana":"タカジョウチョウアリミズ","prefecture":"宮崎県","city":"都城市","town":"高城町有水"},{"zip_code":"8851205","prefecture_kana":"ミヤザキケン","city_kana":"ミヤコノジョウシ","town_kana":"タカジョウチョウイシヤマ","prefecture":"宮崎県","city":"都城市","town":"高城町石山"},{"zip_code":"8851203","prefecture_kana":"ミヤザキケン","city_kana":"ミヤコノジョウシ","town_kana":"タカジョウチョウオオイデ","prefecture":"宮崎県","city":"都城市","town":"高城町大井手"},{"zip_code":"8851204","prefecture_kana":"ミヤザキケン","city_kana":"ミヤコノジョウシ","town_kana":"タカジョウチョウサクラギ","prefecture":"宮崎県","city":"都城市","town":"高城町桜木"},{"zip_code":"8851312","prefecture_kana":"ミヤザキケン","city_kana":"ミヤコノジョウシ","town_kana":"タカジョウチョウシカ","prefecture":"宮崎県","city":"都城市","town":"高城町四家"},{"zip_code":"8851201","prefecture_kana":"ミヤザキケン","city_kana":"ミヤコノジョウシ","town_kana":"タカジョウチョウタカジョウ","prefecture":"宮崎県","city":"都城市","town":"高城町高城"},{"zip_code":"8851202","prefecture_kana":"ミヤザキケン","city_kana":"ミヤコノジョウシ","town_kana":"タカジョウチョウホマンボウ","prefecture":"宮崎県","city":"都城市","town":"高城町穂満坊"},{"zip_code":"8850221","prefecture_kana":"ミヤザキケン","city_kana":"ミヤコノジョウシ","town_kana":"タカノチョウ","prefecture":"宮崎県","city":"都城市","town":"高野町"},{"zip_code":"8850035","prefecture_kana":"ミヤザキケン","city_kana":"ミヤコノジョウシ","town_kana":"タテノチョウ","prefecture":"宮崎県","city":"都城市","town":"立野町"},{"zip_code":"8850002","prefecture_kana":"ミヤザキケン","city_kana":"ミヤコノジョウシ","town_kana":"タロボウチョウ","prefecture":"宮崎県","city":"都城市","town":"太郎坊町"},{"zip_code":"8850033","prefecture_kana":"ミヤザキケン","city_kana":"ミヤコノジョウシ","town_kana":"ツマガオカチョウ","prefecture":"宮崎県","city":"都城市","town":"妻ケ丘町"},{"zip_code":"8850031","prefecture_kana":"ミヤザキケン","city_kana":"ミヤコノジョウシ","town_kana":"テンジンチョウ","prefecture":"宮崎県","city":"都城市","town":"天神町"},{"zip_code":"8850017","prefecture_kana":"ミヤザキケン","city_kana":"ミヤコノジョウシ","town_kana":"トシミチョウ","prefecture":"宮崎県","city":"都城市","town":"年見町"},{"zip_code":"8850004","prefecture_kana":"ミヤザキケン","city_kana":"ミヤコノジョウシ","town_kana":"トホクチョウ","prefecture":"宮崎県","city":"都城市","town":"都北町"},{"zip_code":"8850043","prefecture_kana":"ミヤザキケン","city_kana":"ミヤコノジョウシ","town_kana":"トヨミツチョウ","prefecture":"宮崎県","city":"都城市","town":"豊満町"},{"zip_code":"8850032","prefecture_kana":"ミヤザキケン","city_kana":"ミヤコノジョウシ","town_kana":"ナカハラチョウ","prefecture":"宮崎県","city":"都城市","town":"中原町"},{"zip_code":"8850071","prefecture_kana":"ミヤザキケン","city_kana":"ミヤコノジョウシ","town_kana":"ナカマチ","prefecture":"宮崎県","city":"都城市","town":"中町"},{"zip_code":"8850225","prefecture_kana":"ミヤザキケン","city_kana":"ミヤコノジョウシ","town_kana":"ナツオチョウ","prefecture":"宮崎県","city":"都城市","town":"夏尾町"},{"zip_code":"8850076","prefecture_kana":"ミヤザキケン","city_kana":"ミヤコノジョウシ","town_kana":"ニシマチ","prefecture":"宮崎県","city":"都城市","town":"西町"},{"zip_code":"8851104","prefecture_kana":"ミヤザキケン","city_kana":"ミヤコノジョウシ","town_kana":"ノノミタニチョウ","prefecture":"宮崎県","city":"都城市","town":"野々美谷町"},{"zip_code":"8850075","prefecture_kana":"ミヤザキケン","city_kana":"ミヤコノジョウシ","town_kana":"ハチマンチョウ","prefecture":"宮崎県","city":"都城市","town":"八幡町"},{"zip_code":"8850037","prefecture_kana":"ミヤザキケン","city_kana":"ミヤコノジョウシ","town_kana":"ハナグリチョウ","prefecture":"宮崎県","city":"都城市","town":"花繰町"},{"zip_code":"8850055","prefecture_kana":"ミヤザキケン","city_kana":"ミヤコノジョウシ","town_kana":"ハヤスズチョウ","prefecture":"宮崎県","city":"都城市","town":"早鈴町"},{"zip_code":"8850016","prefecture_kana":"ミヤザキケン","city_kana":"ミヤコノジョウシ","town_kana":"ハヤミズチョウ","prefecture":"宮崎県","city":"都城市","town":"早水町"},{"zip_code":"8850052","prefecture_kana":"ミヤザキケン","city_kana":"ミヤコノジョウシ","town_kana":"ヒガシマチ","prefecture":"宮崎県","city":"都城市","town":"東町"},{"zip_code":"8850073","prefecture_kana":"ミヤザキケン","city_kana":"ミヤコノジョウシ","town_kana":"ヒメギチョウ","prefecture":"宮崎県","city":"都城市","town":"姫城町"},{"zip_code":"8850021","prefecture_kana":"ミヤザキケン","city_kana":"ミヤコノジョウシ","town_kana":"ヒラエチョウ","prefecture":"宮崎県","city":"都城市","town":"平江町"},{"zip_code":"8850085","prefecture_kana":"ミヤザキケン","city_kana":"ミヤコノジョウシ","town_kana":"ヒラツカチョウ","prefecture":"宮崎県","city":"都城市","town":"平塚町"},{"zip_code":"8850036","prefecture_kana":"ミヤザキケン","city_kana":"ミヤコノジョウシ","town_kana":"ヒロハラチョウ","prefecture":"宮崎県","city":"都城市","town":"広原町"},{"zip_code":"8850025","prefecture_kana":"ミヤザキケン","city_kana":"ミヤコノジョウシ","town_kana":"マエダチョウ","prefecture":"宮崎県","city":"都城市","town":"前田町"},{"zip_code":"8850077","prefecture_kana":"ミヤザキケン","city_kana":"ミヤコノジョウシ","town_kana":"マツモトチョウ","prefecture":"宮崎県","city":"都城市","town":"松元町"},{"zip_code":"8851105","prefecture_kana":"ミヤザキケン","city_kana":"ミヤコノジョウシ","town_kana":"マルタニチョウ","prefecture":"宮崎県","city":"都城市","town":"丸谷町"},{"zip_code":"8850224","prefecture_kana":"ミヤザキケン","city_kana":"ミヤコノジョウシ","town_kana":"ミイケチョウ","prefecture":"宮崎県","city":"都城市","town":"御池町"},{"zip_code":"8850222","prefecture_kana":"ミヤザキケン","city_kana":"ミヤコノジョウシ","town_kana":"ミカワチョウ","prefecture":"宮崎県","city":"都城市","town":"美川町"},{"zip_code":"8850082","prefecture_kana":"ミヤザキケン","city_kana":"ミヤコノジョウシ","town_kana":"ミナミタカオチョウ","prefecture":"宮崎県","city":"都城市","town":"南鷹尾町"},{"zip_code":"8850092","prefecture_kana":"ミヤザキケン","city_kana":"ミヤコノジョウシ","town_kana":"ミナミヨコイチチョウ","prefecture":"宮崎県","city":"都城市","town":"南横市町"},{"zip_code":"8850095","prefecture_kana":"ミヤザキケン","city_kana":"ミヤコノジョウシ","town_kana":"ミノバルチョウ","prefecture":"宮崎県","city":"都城市","town":"蓑原町"},{"zip_code":"8850083","prefecture_kana":"ミヤザキケン","city_kana":"ミヤコノジョウシ","town_kana":"ミヤコジマチョウ","prefecture":"宮崎県","city":"都城市","town":"都島町"},{"zip_code":"8850094","prefecture_kana":"ミヤザキケン","city_kana":"ミヤコノジョウシ","town_kana":"ミヤコバルチョウ","prefecture":"宮崎県","city":"都城市","town":"都原町"},{"zip_code":"8850078","prefecture_kana":"ミヤザキケン","city_kana":"ミヤコノジョウシ","town_kana":"ミヤマルチョウ","prefecture":"宮崎県","city":"都城市","town":"宮丸町"},{"zip_code":"8850079","prefecture_kana":"ミヤザキケン","city_kana":"ミヤコノジョウシ","town_kana":"ムタチョウ","prefecture":"宮崎県","city":"都城市","town":"牟田町"},{"zip_code":"8850044","prefecture_kana":"ミヤザキケン","city_kana":"ミヤコノジョウシ","town_kana":"ヤスヒサチョウ","prefecture":"宮崎県","city":"都城市","town":"安久町"},{"zip_code":"8894602","prefecture_kana":"ミヤザキケン","city_kana":"ミヤコノジョウシ","town_kana":"ヤマダチョウナカギリシマ","prefecture":"宮崎県","city":"都城市","town":"山田町中霧島"},{"zip_code":"8894601","prefecture_kana":"ミヤザキケン","city_kana":"ミヤコノジョウシ","town_kana":"ヤマダチョウヤマダ","prefecture":"宮崎県","city":"都城市","town":"山田町山田"},{"zip_code":"8891801","prefecture_kana":"ミヤザキケン","city_kana":"ミヤコノジョウシ","town_kana":"ヤマノクチチョウトミヨシ","prefecture":"宮崎県","city":"都城市","town":"山之口町富吉"},{"zip_code":"8891802","prefecture_kana":"ミヤザキケン","city_kana":"ミヤコノジョウシ","town_kana":"ヤマノクチチョウハナノキ","prefecture":"宮崎県","city":"都城市","town":"山之口町花木"},{"zip_code":"8802303","prefecture_kana":"ミヤザキケン","city_kana":"ミヤコノジョウシ","town_kana":"ヤマノクチチョウヤマノクチ（カミヒラノ、ナカタ）","prefecture":"宮崎県","city":"都城市","town":"山之口町山之口（上平野、仲田）"},{"zip_code":"8891803","prefecture_kana":"ミヤザキケン","city_kana":"ミヤコノジョウシ","town_kana":"ヤマノクチチョウヤマノクチ（ソノタ）","prefecture":"宮崎県","city":"都城市","town":"山之口町山之口（その他）"},{"zip_code":"8850091","prefecture_kana":"ミヤザキケン","city_kana":"ミヤコノジョウシ","town_kana":"ヨコイチチョウ","prefecture":"宮崎県","city":"都城市","town":"横市町"},{"zip_code":"8850006","prefecture_kana":"ミヤザキケン","city_kana":"ミヤコノジョウシ","town_kana":"ヨシオチョウ","prefecture":"宮崎県","city":"都城市","town":"吉尾町"},{"zip_code":"8850223","prefecture_kana":"ミヤザキケン","city_kana":"ミヤコノジョウシ","town_kana":"ヨシノモトチョウ","prefecture":"宮崎県","city":"都城市","town":"吉之元町"},{"zip_code":"8850054","prefecture_kana":"ミヤザキケン","city_kana":"ミヤコノジョウシ","town_kana":"ワカバチョウ","prefecture":"宮崎県","city":"都城市","town":"若葉町"},{"zip_code":"8820000","prefecture_kana":"ミヤザキケン","city_kana":"ノベオカシ","town_kana":"イカニケイサイガナイバアイ","prefecture":"宮崎県","city":"延岡市","town":"以下に掲載がない場合"},{"zip_code":"8890517","prefecture_kana":"ミヤザキケン","city_kana":"ノベオカシ","town_kana":"アカミズマチ","prefecture":"宮崎県","city":"延岡市","town":"赤水町"},{"zip_code":"8820845","prefecture_kana":"ミヤザキケン","city_kana":"ノベオカシ","town_kana":"アガタマチ","prefecture":"宮崎県","city":"延岡市","town":"安賀多町"},{"zip_code":"8890507","prefecture_kana":"ミヤザキケン","city_kana":"ノベオカシ","town_kana":"アサヒガオカ","prefecture":"宮崎県","city":"延岡市","town":"旭ケ丘"},{"zip_code":"8820847","prefecture_kana":"ミヤザキケン","city_kana":"ノベオカシ","town_kana":"アサヒマチ","prefecture":"宮崎県","city":"延岡市","town":"旭町"},{"zip_code":"8820872","prefecture_kana":"ミヤザキケン","city_kana":"ノベオカシ","town_kana":"アタゴマチ","prefecture":"宮崎県","city":"延岡市","town":"愛宕町"},{"zip_code":"8820871","prefecture_kana":"ミヤザキケン","city_kana":"ノベオカシ","town_kana":"アタゴヤマ","prefecture":"宮崎県","city":"延岡市","town":"愛宕山"},{"zip_code":"8820071","prefecture_kana":"ミヤザキケン","city_kana":"ノベオカシ","town_kana":"アモリマチ","prefecture":"宮崎県","city":"延岡市","town":"天下町"},{"zip_code":"8820025","prefecture_kana":"ミヤザキケン","city_kana":"ノベオカシ","town_kana":"アワノミョウマチ","prefecture":"宮崎県","city":"延岡市","town":"粟野名町"},{"zip_code":"8890503","prefecture_kana":"ミヤザキケン","city_kana":"ノベオカシ","town_kana":"イガダマチ","prefecture":"宮崎県","city":"延岡市","town":"伊形町"},{"zip_code":"8890501","prefecture_kana":"ミヤザキケン","city_kana":"ノベオカシ","town_kana":"イシダマチ","prefecture":"宮崎県","city":"延岡市","town":"石田町"},{"zip_code":"8820831","prefecture_kana":"ミヤザキケン","city_kana":"ノベオカシ","town_kana":"イデグチマチ","prefecture":"宮崎県","city":"延岡市","town":"出口町"},{"zip_code":"8820856","prefecture_kana":"ミヤザキケン","city_kana":"ノベオカシ","town_kana":"イデキタ","prefecture":"宮崎県","city":"延岡市","town":"出北"},{"zip_code":"8820003","prefecture_kana":"ミヤザキケン","city_kana":"ノベオカシ","town_kana":"イナバザキマチ","prefecture":"宮崎県","city":"延岡市","town":"稲葉崎町"},{"zip_code":"8820095","prefecture_kana":"ミヤザキケン","city_kana":"ノベオカシ","town_kana":"ウラシロマチ","prefecture":"宮崎県","city":"延岡市","town":"浦城町"},{"zip_code":"8820084","prefecture_kana":"ミヤザキケン","city_kana":"ノベオカシ","town_kana":"ウワダマチ","prefecture":"宮崎県","city":"延岡市","town":"宇和田町"},{"zip_code":"8820046","prefecture_kana":"ミヤザキケン","city_kana":"ノベオカシ","town_kana":"エビスマチ","prefecture":"宮崎県","city":"延岡市","town":"恵比須町"},{"zip_code":"8820013","prefecture_kana":"ミヤザキケン","city_kana":"ノベオカシ","town_kana":"オイウチマチ","prefecture":"宮崎県","city":"延岡市","town":"追内町"},{"zip_code":"8820001","prefecture_kana":"ミヤザキケン","city_kana":"ノベオカシ","town_kana":"オオカイマチ","prefecture":"宮崎県","city":"延岡市","town":"大峡町"},{"zip_code":"8820027","prefecture_kana":"ミヤザキケン","city_kana":"ノベオカシ","town_kana":"オオカドマチ","prefecture":"宮崎県","city":"延岡市","town":"大門町"},{"zip_code":"8820841","prefecture_kana":"ミヤザキケン","city_kana":"ノベオカシ","town_kana":"オオセマチ","prefecture":"宮崎県","city":"延岡市","town":"大瀬町"},{"zip_code":"8820024","prefecture_kana":"ミヤザキケン","city_kana":"ノベオカシ","town_kana":"オオダケマチ","prefecture":"宮崎県","city":"延岡市","town":"大武町"},{"zip_code":"8820803","prefecture_kana":"ミヤザキケン","city_kana":"ノベオカシ","town_kana":"オオヌキマチ","prefecture":"宮崎県","city":"延岡市","town":"大貫町"},{"zip_code":"8820086","prefecture_kana":"ミヤザキケン","city_kana":"ノベオカシ","town_kana":"オオノマチ","prefecture":"宮崎県","city":"延岡市","town":"大野町"},{"zip_code":"8820056","prefecture_kana":"ミヤザキケン","city_kana":"ノベオカシ","town_kana":"オカトミマチ","prefecture":"宮崎県","city":"延岡市","town":"岡富町"},{"zip_code":"8820057","prefecture_kana":"ミヤザキケン","city_kana":"ノベオカシ","town_kana":"オカトミヤマ","prefecture":"宮崎県","city":"延岡市","town":"岡富山"},{"zip_code":"8820075","prefecture_kana":"ミヤザキケン","city_kana":"ノベオカシ","town_kana":"オカモトマチ","prefecture":"宮崎県","city":"延岡市","town":"岡元町"},{"zip_code":"8820876","prefecture_kana":"ミヤザキケン","city_kana":"ノベオカシ","town_kana":"オキタマチ","prefecture":"宮崎県","city":"延岡市","town":"沖田町"},{"zip_code":"8820006","prefecture_kana":"ミヤザキケン","city_kana":"ノベオカシ","town_kana":"オザキマチ","prefecture":"宮崎県","city":"延岡市","town":"尾崎町"},{"zip_code":"8820855","prefecture_kana":"ミヤザキケン","city_kana":"ノベオカシ","town_kana":"オロシホンマチ","prefecture":"宮崎県","city":"延岡市","town":"卸本町"},{"zip_code":"8820073","prefecture_kana":"ミヤザキケン","city_kana":"ノベオカシ","town_kana":"カイノハタマチ","prefecture":"宮崎県","city":"延岡市","town":"貝の畑町"},{"zip_code":"8820085","prefecture_kana":"ミヤザキケン","city_kana":"ノベオカシ","town_kana":"カガセマチ","prefecture":"宮崎県","city":"延岡市","town":"鹿狩瀬町"},{"zip_code":"8820004","prefecture_kana":"ミヤザキケン","city_kana":"ノベオカシ","town_kana":"カシヤママチ","prefecture":"宮崎県","city":"延岡市","town":"樫山町"},{"zip_code":"8820012","prefecture_kana":"ミヤザキケン","city_kana":"ノベオカシ","town_kana":"カショウジ","prefecture":"宮崎県","city":"延岡市","town":"鹿小路"},{"zip_code":"8820844","prefecture_kana":"ミヤザキケン","city_kana":"ノベオカシ","town_kana":"カスガマチ","prefecture":"宮崎県","city":"延岡市","town":"春日町"},{"zip_code":"8820877","prefecture_kana":"ミヤザキケン","city_kana":"ノベオカシ","town_kana":"カタタマチ","prefecture":"宮崎県","city":"延岡市","town":"片田町"},{"zip_code":"8820867","prefecture_kana":"ミヤザキケン","city_kana":"ノベオカシ","town_kana":"カマエグチマチ","prefecture":"宮崎県","city":"延岡市","town":"構口町"},{"zip_code":"8890502","prefecture_kana":"ミヤザキケン","city_kana":"ノベオカシ","town_kana":"カミイガダマチ","prefecture":"宮崎県","city":"延岡市","town":"上伊形町"},{"zip_code":"8820833","prefecture_kana":"ミヤザキケン","city_kana":"ノベオカシ","town_kana":"カミオオセマチ","prefecture":"宮崎県","city":"延岡市","town":"上大瀬町"},{"zip_code":"8820885","prefecture_kana":"ミヤザキケン","city_kana":"ノベオカシ","town_kana":"カミミワマチ","prefecture":"宮崎県","city":"延岡市","town":"上三輪町"},{"zip_code":"8820017","prefecture_kana":"ミヤザキケン","city_kana":"ノベオカシ","town_kana":"カワシママチ","prefecture":"宮崎県","city":"延岡市","town":"川島町"},{"zip_code":"8820033","prefecture_kana":"ミヤザキケン","city_kana":"ノベオカシ","town_kana":"カワラサキマチ","prefecture":"宮崎県","city":"延岡市","town":"川原崎町"},{"zip_code":"8820043","prefecture_kana":"ミヤザキケン","city_kana":"ノベオカシ","town_kana":"ギオンマチ","prefecture":"宮崎県","city":"延岡市","town":"祗園町"},{"zip_code":"8890302","prefecture_kana":"ミヤザキケン","city_kana":"ノベオカシ","town_kana":"キタウラマチイチブリ","prefecture":"宮崎県","city":"延岡市","town":"北浦町市振"},{"zip_code":"8890301","prefecture_kana":"ミヤザキケン","city_kana":"ノベオカシ","town_kana":"キタウラマチフルエ","prefecture":"宮崎県","city":"延岡市","town":"北浦町古江"},{"zip_code":"8890304","prefecture_kana":"ミヤザキケン","city_kana":"ノベオカシ","town_kana":"キタウラマチミカワウチ","prefecture":"宮崎県","city":"延岡市","town":"北浦町三川内"},{"zip_code":"8890303","prefecture_kana":"ミヤザキケン","city_kana":"ノベオカシ","town_kana":"キタウラマチミヤノウラ","prefecture":"宮崎県","city":"延岡市","town":"北浦町宮野浦"},{"zip_code":"8820121","prefecture_kana":"ミヤザキケン","city_kana":"ノベオカシ","town_kana":"キタカタマチイタカミ","prefecture":"宮崎県","city":"延岡市","town":"北方町板上"},{"zip_code":"8820122","prefecture_kana":"ミヤザキケン","city_kana":"ノベオカシ","town_kana":"キタカタマチイタシモ","prefecture":"宮崎県","city":"延岡市","town":"北方町板下"},{"zip_code":"8820123","prefecture_kana":"ミヤザキケン","city_kana":"ノベオカシ","town_kana":"キタカタマチウソゴエ","prefecture":"宮崎県","city":"延岡市","town":"北方町うそ越"},{"zip_code":"8820106","prefecture_kana":"ミヤザキケン","city_kana":"ノベオカシ","town_kana":"キタカタマチカサシタ","prefecture":"宮崎県","city":"延岡市","town":"北方町笠下"},{"zip_code":"8820126","prefecture_kana":"ミヤザキケン","city_kana":"ノベオカシ","town_kana":"キタカタマチカミザキ","prefecture":"宮崎県","city":"延岡市","town":"北方町上崎"},{"zip_code":"8820231","prefecture_kana":"ミヤザキケン","city_kana":"ノベオカシ","town_kana":"キタカタマチカミシシガワ","prefecture":"宮崎県","city":"延岡市","town":"北方町上鹿川"},{"zip_code":"8820125","prefecture_kana":"ミヤザキケン","city_kana":"ノベオカシ","town_kana":"キタカタマチカワズル","prefecture":"宮崎県","city":"延岡市","town":"北方町川水流"},{"zip_code":"8820129","prefecture_kana":"ミヤザキケン","city_kana":"ノベオカシ","town_kana":"キタカタマチキタクボヤマ","prefecture":"宮崎県","city":"延岡市","town":"北方町北久保山"},{"zip_code":"8820127","prefecture_kana":"ミヤザキケン","city_kana":"ノベオカシ","town_kana":"キタカタマチクラタ","prefecture":"宮崎県","city":"延岡市","town":"北方町蔵田"},{"zip_code":"8820241","prefecture_kana":"ミヤザキケン","city_kana":"ノベオカシ","town_kana":"キタカタマチサンガムラ","prefecture":"宮崎県","city":"延岡市","town":"北方町三ケ村"},{"zip_code":"8820237","prefecture_kana":"ミヤザキケン","city_kana":"ノベオカシ","town_kana":"キタカタマチシイバタ","prefecture":"宮崎県","city":"延岡市","town":"北方町椎畑"},{"zip_code":"8820232","prefecture_kana":"ミヤザキケン","city_kana":"ノベオカシ","town_kana":"キタカタマチシモシシガワ","prefecture":"宮崎県","city":"延岡市","town":"北方町下鹿川"},{"zip_code":"8820233","prefecture_kana":"ミヤザキケン","city_kana":"ノベオカシ","town_kana":"キタカタマチスゲバル","prefecture":"宮崎県","city":"延岡市","town":"北方町菅原"},{"zip_code":"8820124","prefecture_kana":"ミヤザキケン","city_kana":"ノベオカシ","town_kana":"キタカタマチソキ","prefecture":"宮崎県","city":"延岡市","town":"北方町曽木"},{"zip_code":"8820238","prefecture_kana":"ミヤザキケン","city_kana":"ノベオカシ","town_kana":"キタカタマチタキシタ","prefecture":"宮崎県","city":"延岡市","town":"北方町滝下"},{"zip_code":"8820104","prefecture_kana":"ミヤザキケン","city_kana":"ノベオカシ","town_kana":"キタカタマチツノダ","prefecture":"宮崎県","city":"延岡市","town":"北方町角田"},{"zip_code":"8820245","prefecture_kana":"ミヤザキケン","city_kana":"ノベオカシ","town_kana":"キタカタマチハヤカミ","prefecture":"宮崎県","city":"延岡市","town":"北方町早上"},{"zip_code":"8820244","prefecture_kana":"ミヤザキケン","city_kana":"ノベオカシ","town_kana":"キタカタマチハヤナカ","prefecture":"宮崎県","city":"延岡市","town":"北方町早中"},{"zip_code":"8820243","prefecture_kana":"ミヤザキケン","city_kana":"ノベオカシ","town_kana":"キタカタマチハヤヒト","prefecture":"宮崎県","city":"延岡市","town":"北方町早日渡"},{"zip_code":"8820236","prefecture_kana":"ミヤザキケン","city_kana":"ノベオカシ","town_kana":"キタカタマチヒビラ","prefecture":"宮崎県","city":"延岡市","town":"北方町日平"},{"zip_code":"8820107","prefecture_kana":"ミヤザキケン","city_kana":"ノベオカシ","town_kana":"キタカタマチフジノキ","prefecture":"宮崎県","city":"延岡市","town":"北方町藤の木"},{"zip_code":"8820101","prefecture_kana":"ミヤザキケン","city_kana":"ノベオカシ","town_kana":"キタカタマチフタマタ","prefecture":"宮崎県","city":"延岡市","town":"北方町二股"},{"zip_code":"8820235","prefecture_kana":"ミヤザキケン","city_kana":"ノベオカシ","town_kana":"キタカタマチマキミネ","prefecture":"宮崎県","city":"延岡市","town":"北方町槇峰"},{"zip_code":"8820128","prefecture_kana":"ミヤザキケン","city_kana":"ノベオカシ","town_kana":"キタカタマチミナミクボヤマ","prefecture":"宮崎県","city":"延岡市","town":"北方町南久保山"},{"zip_code":"8820234","prefecture_kana":"ミヤザキケン","city_kana":"ノベオカシ","town_kana":"キタカタマチミミチ","prefecture":"宮崎県","city":"延岡市","town":"北方町美々地"},{"zip_code":"8820242","prefecture_kana":"ミヤザキケン","city_kana":"ノベオカシ","town_kana":"キタカタマチヤカイ","prefecture":"宮崎県","city":"延岡市","town":"北方町八峡"},{"zip_code":"8820097","prefecture_kana":"ミヤザキケン","city_kana":"ノベオカシ","town_kana":"キタガワマチカワチミョウ（ホウリガワ）","prefecture":"宮崎県","city":"延岡市","town":"北川町川内名（祝子川）"},{"zip_code":"8890101","prefecture_kana":"ミヤザキケン","city_kana":"ノベオカシ","town_kana":"キタガワマチカワチミョウ（ソノタ）","prefecture":"宮崎県","city":"延岡市","town":"北川町川内名（その他）"},{"zip_code":"8890102","prefecture_kana":"ミヤザキケン","city_kana":"ノベオカシ","town_kana":"キタガワマチナガイ","prefecture":"宮崎県","city":"延岡市","town":"北川町長井"},{"zip_code":"8820041","prefecture_kana":"ミヤザキケン","city_kana":"ノベオカシ","town_kana":"キタコウジ","prefecture":"宮崎県","city":"延岡市","town":"北小路"},{"zip_code":"8820834","prefecture_kana":"ミヤザキケン","city_kana":"ノベオカシ","town_kana":"キタシンコウジ","prefecture":"宮崎県","city":"延岡市","town":"北新小路"},{"zip_code":"8890505","prefecture_kana":"ミヤザキケン","city_kana":"ノベオカシ","town_kana":"キタヒトツガオカ","prefecture":"宮崎県","city":"延岡市","town":"北一ケ岡"},{"zip_code":"8820814","prefecture_kana":"ミヤザキケン","city_kana":"ノベオカシ","town_kana":"キタマチ","prefecture":"宮崎県","city":"延岡市","town":"北町"},{"zip_code":"8820873","prefecture_kana":"ミヤザキケン","city_kana":"ノベオカシ","town_kana":"キョウエイマチ","prefecture":"宮崎県","city":"延岡市","town":"共栄町"},{"zip_code":"8890514","prefecture_kana":"ミヤザキケン","city_kana":"ノベオカシ","town_kana":"クシツマチ","prefecture":"宮崎県","city":"延岡市","town":"櫛津町"},{"zip_code":"8890322","prefecture_kana":"ミヤザキケン","city_kana":"ノベオカシ","town_kana":"クマノエマチ","prefecture":"宮崎県","city":"延岡市","town":"熊野江町"},{"zip_code":"8820091","prefecture_kana":"ミヤザキケン","city_kana":"ノベオカシ","town_kana":"クワヒラマチ","prefecture":"宮崎県","city":"延岡市","town":"桑平町"},{"zip_code":"8820093","prefecture_kana":"ミヤザキケン","city_kana":"ノベオカシ","town_kana":"コウベマチ","prefecture":"宮崎県","city":"延岡市","town":"神戸町"},{"zip_code":"8820076","prefecture_kana":"ミヤザキケン","city_kana":"ノベオカシ","town_kana":"コガワマチ","prefecture":"宮崎県","city":"延岡市","town":"小川町"},{"zip_code":"8820882","prefecture_kana":"ミヤザキケン","city_kana":"ノベオカシ","town_kana":"コノマチ","prefecture":"宮崎県","city":"延岡市","town":"小野町"},{"zip_code":"8820061","prefecture_kana":"ミヤザキケン","city_kana":"ノベオカシ","town_kana":"コミネマチ","prefecture":"宮崎県","city":"延岡市","town":"小峰町"},{"zip_code":"8820047","prefecture_kana":"ミヤザキケン","city_kana":"ノベオカシ","town_kana":"コンヤマチ","prefecture":"宮崎県","city":"延岡市","town":"紺屋町"},{"zip_code":"8820832","prefecture_kana":"ミヤザキケン","city_kana":"ノベオカシ","town_kana":"サイコウジ","prefecture":"宮崎県","city":"延岡市","town":"西小路"},{"zip_code":"8820053","prefecture_kana":"ミヤザキケン","city_kana":"ノベオカシ","town_kana":"サイワイマチ","prefecture":"宮崎県","city":"延岡市","town":"幸町"},{"zip_code":"8820054","prefecture_kana":"ミヤザキケン","city_kana":"ノベオカシ","town_kana":"サカエマチ","prefecture":"宮崎県","city":"延岡市","town":"栄町"},{"zip_code":"8820007","prefecture_kana":"ミヤザキケン","city_kana":"ノベオカシ","town_kana":"サクラガオカ","prefecture":"宮崎県","city":"延岡市","town":"桜ケ丘"},{"zip_code":"8820816","prefecture_kana":"ミヤザキケン","city_kana":"ノベオカシ","town_kana":"サクラコウジ","prefecture":"宮崎県","city":"延岡市","town":"桜小路"},{"zip_code":"8820036","prefecture_kana":"ミヤザキケン","city_kana":"ノベオカシ","town_kana":"サクラゾノマチ","prefecture":"宮崎県","city":"延岡市","town":"桜園町"},{"zip_code":"8820002","prefecture_kana":"ミヤザキケン","city_kana":"ノベオカシ","town_kana":"サシキノマチ","prefecture":"宮崎県","city":"延岡市","town":"差木野町"},{"zip_code":"8820081","prefecture_kana":"ミヤザキケン","city_kana":"ノベオカシ","town_kana":"サノマチ","prefecture":"宮崎県","city":"延岡市","town":"佐野町"},{"zip_code":"8820864","prefecture_kana":"ミヤザキケン","city_kana":"ノベオカシ","town_kana":"シオハママチ","prefecture":"宮崎県","city":"延岡市","town":"塩浜町"},{"zip_code":"8820096","prefecture_kana":"ミヤザキケン","city_kana":"ノベオカシ","town_kana":"シマウラマチ","prefecture":"宮崎県","city":"延岡市","town":"島浦町"},{"zip_code":"8890504","prefecture_kana":"ミヤザキケン","city_kana":"ノベオカシ","town_kana":"シモイガダマチ","prefecture":"宮崎県","city":"延岡市","town":"下伊形町"},{"zip_code":"8820883","prefecture_kana":"ミヤザキケン","city_kana":"ノベオカシ","town_kana":"シモミワマチ","prefecture":"宮崎県","city":"延岡市","town":"下三輪町"},{"zip_code":"8820034","prefecture_kana":"ミヤザキケン","city_kana":"ノベオカシ","town_kana":"ショウワマチ","prefecture":"宮崎県","city":"延岡市","town":"昭和町"},{"zip_code":"8820014","prefecture_kana":"ミヤザキケン","city_kana":"ノベオカシ","town_kana":"シロイシマチ","prefecture":"宮崎県","city":"延岡市","town":"白石町"},{"zip_code":"8820835","prefecture_kana":"ミヤザキケン","city_kana":"ノベオカシ","town_kana":"シンコウジ","prefecture":"宮崎県","city":"延岡市","town":"新小路"},{"zip_code":"8890512","prefecture_kana":"ミヤザキケン","city_kana":"ノベオカシ","town_kana":"シンハママチ","prefecture":"宮崎県","city":"延岡市","town":"新浜町"},{"zip_code":"8820827","prefecture_kana":"ミヤザキケン","city_kana":"ノベオカシ","town_kana":"シンマチ","prefecture":"宮崎県","city":"延岡市","town":"新町"},{"zip_code":"8820011","prefecture_kana":"ミヤザキケン","city_kana":"ノベオカシ","town_kana":"スサマチ","prefecture":"宮崎県","city":"延岡市","town":"須佐町"},{"zip_code":"8820825","prefecture_kana":"ミヤザキケン","city_kana":"ノベオカシ","town_kana":"スザキマチ","prefecture":"宮崎県","city":"延岡市","town":"須崎町"},{"zip_code":"8890321","prefecture_kana":"ミヤザキケン","city_kana":"ノベオカシ","town_kana":"スミエマチ","prefecture":"宮崎県","city":"延岡市","town":"須美江町"},{"zip_code":"8820045","prefecture_kana":"ミヤザキケン","city_kana":"ノベオカシ","town_kana":"セノクチマチ","prefecture":"宮崎県","city":"延岡市","town":"瀬之口町"},{"zip_code":"8820857","prefecture_kana":"ミヤザキケン","city_kana":"ノベオカシ","town_kana":"ソウリョウマチ","prefecture":"宮崎県","city":"延岡市","town":"惣領町"},{"zip_code":"8890516","prefecture_kana":"ミヤザキケン","city_kana":"ノベオカシ","town_kana":"タイナマチ","prefecture":"宮崎県","city":"延岡市","town":"鯛名町"},{"zip_code":"8820042","prefecture_kana":"ミヤザキケン","city_kana":"ノベオカシ","town_kana":"タカチホドオリ","prefecture":"宮崎県","city":"延岡市","town":"高千穂通"},{"zip_code":"8820064","prefecture_kana":"ミヤザキケン","city_kana":"ノベオカシ","town_kana":"タカノマチ","prefecture":"宮崎県","city":"延岡市","town":"高野町"},{"zip_code":"8820874","prefecture_kana":"ミヤザキケン","city_kana":"ノベオカシ","town_kana":"ダテマチ","prefecture":"宮崎県","city":"延岡市","town":"伊達町"},{"zip_code":"8820824","prefecture_kana":"ミヤザキケン","city_kana":"ノベオカシ","town_kana":"チュウオウドオリ","prefecture":"宮崎県","city":"延岡市","town":"中央通"},{"zip_code":"8820836","prefecture_kana":"ミヤザキケン","city_kana":"ノベオカシ","town_kana":"ツネトミマチ","prefecture":"宮崎県","city":"延岡市","town":"恒富町"},{"zip_code":"8820865","prefecture_kana":"ミヤザキケン","city_kana":"ノベオカシ","town_kana":"ツルガオカ","prefecture":"宮崎県","city":"延岡市","town":"鶴ケ丘"},{"zip_code":"8820811","prefecture_kana":"ミヤザキケン","city_kana":"ノベオカシ","town_kana":"テンジンコウジ","prefecture":"宮崎県","city":"延岡市","town":"天神小路"},{"zip_code":"8820016","prefecture_kana":"ミヤザキケン","city_kana":"ノベオカシ","town_kana":"トウミマチ","prefecture":"宮崎県","city":"延岡市","town":"東海町"},{"zip_code":"8890513","prefecture_kana":"ミヤザキケン","city_kana":"ノベオカシ","town_kana":"トトロマチ","prefecture":"宮崎県","city":"延岡市","town":"土々呂町"},{"zip_code":"8820051","prefecture_kana":"ミヤザキケン","city_kana":"ノベオカシ","town_kana":"トミヤママチ","prefecture":"宮崎県","city":"延岡市","town":"富美山町"},{"zip_code":"8820031","prefecture_kana":"ミヤザキケン","city_kana":"ノベオカシ","town_kana":"ナカガワラマチ","prefecture":"宮崎県","city":"延岡市","town":"中川原町"},{"zip_code":"8820846","prefecture_kana":"ミヤザキケン","city_kana":"ノベオカシ","town_kana":"ナカシママチ","prefecture":"宮崎県","city":"延岡市","town":"中島町"},{"zip_code":"8820032","prefecture_kana":"ミヤザキケン","city_kana":"ノベオカシ","town_kana":"ナカノセマチ","prefecture":"宮崎県","city":"延岡市","town":"中の瀬町"},{"zip_code":"8820823","prefecture_kana":"ミヤザキケン","city_kana":"ノベオカシ","town_kana":"ナカマチ","prefecture":"宮崎県","city":"延岡市","town":"中町"},{"zip_code":"8820884","prefecture_kana":"ミヤザキケン","city_kana":"ノベオカシ","town_kana":"ナカミワマチ","prefecture":"宮崎県","city":"延岡市","town":"中三輪町"},{"zip_code":"8820843","prefecture_kana":"ミヤザキケン","city_kana":"ノベオカシ","town_kana":"ナガイケマチ","prefecture":"宮崎県","city":"延岡市","town":"永池町"},{"zip_code":"8820854","prefecture_kana":"ミヤザキケン","city_kana":"ノベオカシ","town_kana":"ナガハママチ","prefecture":"宮崎県","city":"延岡市","town":"長浜町"},{"zip_code":"8820005","prefecture_kana":"ミヤザキケン","city_kana":"ノベオカシ","town_kana":"ナツタマチ","prefecture":"宮崎県","city":"延岡市","town":"夏田町"},{"zip_code":"8820804","prefecture_kana":"ミヤザキケン","city_kana":"ノベオカシ","town_kana":"ニシシナマチ","prefecture":"宮崎県","city":"延岡市","town":"西階町"},{"zip_code":"8820802","prefecture_kana":"ミヤザキケン","city_kana":"ノベオカシ","town_kana":"ノジマチ","prefecture":"宮崎県","city":"延岡市","town":"野地町"},{"zip_code":"8820805","prefecture_kana":"ミヤザキケン","city_kana":"ノベオカシ","town_kana":"ノタ","prefecture":"宮崎県","city":"延岡市","town":"野田"},{"zip_code":"8820801","prefecture_kana":"ミヤザキケン","city_kana":"ノベオカシ","town_kana":"ノタマチ","prefecture":"宮崎県","city":"延岡市","town":"野田町"},{"zip_code":"8820052","prefecture_kana":"ミヤザキケン","city_kana":"ノベオカシ","town_kana":"ハギマチ","prefecture":"宮崎県","city":"延岡市","town":"萩町"},{"zip_code":"8820044","prefecture_kana":"ミヤザキケン","city_kana":"ノベオカシ","town_kana":"バクロウマチ","prefecture":"宮崎県","city":"延岡市","town":"博労町"},{"zip_code":"8820851","prefecture_kana":"ミヤザキケン","city_kana":"ノベオカシ","town_kana":"ハマゴ","prefecture":"宮崎県","city":"延岡市","town":"浜砂"},{"zip_code":"8820862","prefecture_kana":"ミヤザキケン","city_kana":"ノベオカシ","town_kana":"ハママチ","prefecture":"宮崎県","city":"延岡市","town":"浜町"},{"zip_code":"8820852","prefecture_kana":"ミヤザキケン","city_kana":"ノベオカシ","town_kana":"ヒガシハマゴマチ","prefecture":"宮崎県","city":"延岡市","town":"東浜砂町"},{"zip_code":"8820813","prefecture_kana":"ミヤザキケン","city_kana":"ノベオカシ","town_kana":"ヒガシホンコウジ","prefecture":"宮崎県","city":"延岡市","town":"東本小路"},{"zip_code":"8820035","prefecture_kana":"ミヤザキケン","city_kana":"ノベオカシ","town_kana":"ヒノデマチ","prefecture":"宮崎県","city":"延岡市","town":"日の出町"},{"zip_code":"8820861","prefecture_kana":"ミヤザキケン","city_kana":"ノベオカシ","town_kana":"ビュウマチ","prefecture":"宮崎県","city":"延岡市","town":"別府町"},{"zip_code":"8820065","prefecture_kana":"ミヤザキケン","city_kana":"ノベオカシ","town_kana":"ヒラタマチ","prefecture":"宮崎県","city":"延岡市","town":"平田町"},{"zip_code":"8820866","prefecture_kana":"ミヤザキケン","city_kana":"ノベオカシ","town_kana":"ヒラバルマチ","prefecture":"宮崎県","city":"延岡市","town":"平原町"},{"zip_code":"8820022","prefecture_kana":"ミヤザキケン","city_kana":"ノベオカシ","town_kana":"フタツシママチ","prefecture":"宮崎県","city":"延岡市","town":"二ツ島町"},{"zip_code":"8820826","prefecture_kana":"ミヤザキケン","city_kana":"ノベオカシ","town_kana":"フナグラマチ","prefecture":"宮崎県","city":"延岡市","town":"船倉町"},{"zip_code":"8820063","prefecture_kana":"ミヤザキケン","city_kana":"ノベオカシ","town_kana":"フルカワマチ","prefecture":"宮崎県","city":"延岡市","town":"古川町"},{"zip_code":"8820837","prefecture_kana":"ミヤザキケン","city_kana":"ノベオカシ","town_kana":"フルシロマチ","prefecture":"宮崎県","city":"延岡市","town":"古城町"},{"zip_code":"8820853","prefecture_kana":"ミヤザキケン","city_kana":"ノベオカシ","town_kana":"ホウザイマチ","prefecture":"宮崎県","city":"延岡市","town":"方財町"},{"zip_code":"8820082","prefecture_kana":"ミヤザキケン","city_kana":"ノベオカシ","town_kana":"ホウリマチ","prefecture":"宮崎県","city":"延岡市","town":"祝子町"},{"zip_code":"8820074","prefecture_kana":"ミヤザキケン","city_kana":"ノベオカシ","town_kana":"ホソミマチ","prefecture":"宮崎県","city":"延岡市","town":"細見町"},{"zip_code":"8820812","prefecture_kana":"ミヤザキケン","city_kana":"ノベオカシ","town_kana":"ホンコウジ","prefecture":"宮崎県","city":"延岡市","town":"本小路"},{"zip_code":"8820821","prefecture_kana":"ミヤザキケン","city_kana":"ノベオカシ","town_kana":"ホンマチ","prefecture":"宮崎県","city":"延岡市","town":"本町"},{"zip_code":"8820066","prefecture_kana":"ミヤザキケン","city_kana":"ノベオカシ","town_kana":"マイノマチ","prefecture":"宮崎県","city":"延岡市","town":"舞野町"},{"zip_code":"8820023","prefecture_kana":"ミヤザキケン","city_kana":"ノベオカシ","town_kana":"マキマチ","prefecture":"宮崎県","city":"延岡市","town":"牧町"},{"zip_code":"8890511","prefecture_kana":"ミヤザキケン","city_kana":"ノベオカシ","town_kana":"マツバラマチ","prefecture":"宮崎県","city":"延岡市","town":"松原町"},{"zip_code":"8820062","prefecture_kana":"ミヤザキケン","city_kana":"ノベオカシ","town_kana":"マツヤママチ","prefecture":"宮崎県","city":"延岡市","town":"松山町"},{"zip_code":"8820881","prefecture_kana":"ミヤザキケン","city_kana":"ノベオカシ","town_kana":"ミスマチ","prefecture":"宮崎県","city":"延岡市","town":"三須町"},{"zip_code":"8820015","prefecture_kana":"ミヤザキケン","city_kana":"ノベオカシ","town_kana":"ミズシリマチ","prefecture":"宮崎県","city":"延岡市","town":"水尻町"},{"zip_code":"8820842","prefecture_kana":"ミヤザキケン","city_kana":"ノベオカシ","town_kana":"ミツゼマチ","prefecture":"宮崎県","city":"延岡市","town":"三ツ瀬町"},{"zip_code":"8820863","prefecture_kana":"ミヤザキケン","city_kana":"ノベオカシ","town_kana":"ミドリガオカ","prefecture":"宮崎県","city":"延岡市","town":"緑ケ丘"},{"zip_code":"8890506","prefecture_kana":"ミヤザキケン","city_kana":"ノベオカシ","town_kana":"ミナミヒトツガオカ","prefecture":"宮崎県","city":"延岡市","town":"南一ケ岡"},{"zip_code":"8820822","prefecture_kana":"ミヤザキケン","city_kana":"ノベオカシ","town_kana":"ミナミマチ","prefecture":"宮崎県","city":"延岡市","town":"南町"},{"zip_code":"8820092","prefecture_kana":"ミヤザキケン","city_kana":"ノベオカシ","town_kana":"ミヤナガマチ","prefecture":"宮崎県","city":"延岡市","town":"宮長町"},{"zip_code":"8890515","prefecture_kana":"ミヤザキケン","city_kana":"ノベオカシ","town_kana":"ミョウケンマチ","prefecture":"宮崎県","city":"延岡市","town":"妙見町"},{"zip_code":"8820087","prefecture_kana":"ミヤザキケン","city_kana":"ノベオカシ","town_kana":"ミョウマチ","prefecture":"宮崎県","city":"延岡市","town":"妙町"},{"zip_code":"8820077","prefecture_kana":"ミヤザキケン","city_kana":"ノベオカシ","town_kana":"ムカバキマチ","prefecture":"宮崎県","city":"延岡市","town":"行縢町"},{"zip_code":"8820021","prefecture_kana":"ミヤザキケン","city_kana":"ノベオカシ","town_kana":"ムシカマチ","prefecture":"宮崎県","city":"延岡市","town":"無鹿町"},{"zip_code":"8820094","prefecture_kana":"ミヤザキケン","city_kana":"ノベオカシ","town_kana":"ヤスイマチ","prefecture":"宮崎県","city":"延岡市","town":"安井町"},{"zip_code":"8820815","prefecture_kana":"ミヤザキケン","city_kana":"ノベオカシ","town_kana":"ヤナザワマチ","prefecture":"宮崎県","city":"延岡市","town":"柳沢町"},{"zip_code":"8820055","prefecture_kana":"ミヤザキケン","city_kana":"ノベオカシ","town_kana":"ヤマシタマチ","prefecture":"宮崎県","city":"延岡市","town":"山下町"},{"zip_code":"8820037","prefecture_kana":"ミヤザキケン","city_kana":"ノベオカシ","town_kana":"ヤマツキマチ","prefecture":"宮崎県","city":"延岡市","town":"山月町"},{"zip_code":"8820083","prefecture_kana":"ミヤザキケン","city_kana":"ノベオカシ","town_kana":"ユウギマチ","prefecture":"宮崎県","city":"延岡市","town":"柚木町"},{"zip_code":"8820026","prefecture_kana":"ミヤザキケン","city_kana":"ノベオカシ","town_kana":"ユノキダマチ","prefecture":"宮崎県","city":"延岡市","town":"柚の木田町"},{"zip_code":"8820072","prefecture_kana":"ミヤザキケン","city_kana":"ノベオカシ","town_kana":"ヨシノマチ","prefecture":"宮崎県","city":"延岡市","town":"吉野町"},{"zip_code":"8820875","prefecture_kana":"ミヤザキケン","city_kana":"ノベオカシ","town_kana":"ワカバマチ","prefecture":"宮崎県","city":"延岡市","town":"若葉町"},{"zip_code":"8870000","prefecture_kana":"ミヤザキケン","city_kana":"ニチナンシ","town_kana":"イカニケイサイガナイバアイ","prefecture":"宮崎県","city":"日南市","town":"以下に掲載がない場合"},{"zip_code":"8870041","prefecture_kana":"ミヤザキケン","city_kana":"ニチナンシ","town_kana":"アガタヒガシ（１−４チョウメ）","prefecture":"宮崎県","city":"日南市","town":"吾田東（１〜４丁目）"},{"zip_code":"8892541","prefecture_kana":"ミヤザキケン","city_kana":"ニチナンシ","town_kana":"アガタヒガシ（５−１１チョウメ）","prefecture":"宮崎県","city":"日南市","town":"吾田東（５〜１１丁目）"},{"zip_code":"8892536","prefecture_kana":"ミヤザキケン","city_kana":"ニチナンシ","town_kana":"アガタニシ","prefecture":"宮崎県","city":"日南市","town":"吾田西"},{"zip_code":"8870001","prefecture_kana":"ミヤザキケン","city_kana":"ニチナンシ","town_kana":"アブラツ","prefecture":"宮崎県","city":"日南市","town":"油津"},{"zip_code":"8892532","prefecture_kana":"ミヤザキケン","city_kana":"ニチナンシ","town_kana":"イタジキ","prefecture":"宮崎県","city":"日南市","town":"板敷"},{"zip_code":"8870111","prefecture_kana":"ミヤザキケン","city_kana":"ニチナンシ","town_kana":"イビイ","prefecture":"宮崎県","city":"日南市","town":"伊比井"},{"zip_code":"8892525","prefecture_kana":"ミヤザキケン","city_kana":"ニチナンシ","town_kana":"イママチ","prefecture":"宮崎県","city":"日南市","town":"今町"},{"zip_code":"8870014","prefecture_kana":"ミヤザキケン","city_kana":"ニチナンシ","town_kana":"イワサキ","prefecture":"宮崎県","city":"日南市","town":"岩崎"},{"zip_code":"8870017","prefecture_kana":"ミヤザキケン","city_kana":"ニチナンシ","town_kana":"ウメガハマ","prefecture":"宮崎県","city":"日南市","town":"梅ケ浜"},{"zip_code":"8893156","prefecture_kana":"ミヤザキケン","city_kana":"ニチナンシ","town_kana":"オオクボ","prefecture":"宮崎県","city":"日南市","town":"大窪"},{"zip_code":"8893141","prefecture_kana":"ミヤザキケン","city_kana":"ニチナンシ","town_kana":"オオドウツ","prefecture":"宮崎県","city":"日南市","town":"大堂津"},{"zip_code":"8870007","prefecture_kana":"ミヤザキケン","city_kana":"ニチナンシ","town_kana":"オトヒメチョウ","prefecture":"宮崎県","city":"日南市","town":"乙姫町"},{"zip_code":"8892535","prefecture_kana":"ミヤザキケン","city_kana":"ニチナンシ","town_kana":"オビ","prefecture":"宮崎県","city":"日南市","town":"飫肥"},{"zip_code":"8870006","prefecture_kana":"ミヤザキケン","city_kana":"ニチナンシ","town_kana":"カスガチョウ","prefecture":"宮崎県","city":"日南市","town":"春日町"},{"zip_code":"8870034","prefecture_kana":"ミヤザキケン","city_kana":"ニチナンシ","town_kana":"カゼダ","prefecture":"宮崎県","city":"日南市","town":"風田"},{"zip_code":"8893151","prefecture_kana":"ミヤザキケン","city_kana":"ニチナンシ","town_kana":"カミカタ","prefecture":"宮崎県","city":"日南市","town":"上方"},{"zip_code":"8870022","prefecture_kana":"ミヤザキケン","city_kana":"ニチナンシ","town_kana":"カミヒラノチョウ","prefecture":"宮崎県","city":"日南市","town":"上平野町"},{"zip_code":"8892401","prefecture_kana":"ミヤザキケン","city_kana":"ニチナンシ","town_kana":"キタゴウチョウオオフジ","prefecture":"宮崎県","city":"日南市","town":"北郷町大藤"},{"zip_code":"8892403","prefecture_kana":"ミヤザキケン","city_kana":"ニチナンシ","town_kana":"キタゴウチョウキタガワチ","prefecture":"宮崎県","city":"日南市","town":"北郷町北河内"},{"zip_code":"8892402","prefecture_kana":"ミヤザキケン","city_kana":"ニチナンシ","town_kana":"キタゴウチョウゴウノハラ","prefecture":"宮崎県","city":"日南市","town":"北郷町郷之原"},{"zip_code":"8870013","prefecture_kana":"ミヤザキケン","city_kana":"ニチナンシ","town_kana":"キヤマ","prefecture":"宮崎県","city":"日南市","town":"木山"},{"zip_code":"8892514","prefecture_kana":"ミヤザキケン","city_kana":"ニチナンシ","town_kana":"クスバル","prefecture":"宮崎県","city":"日南市","town":"楠原"},{"zip_code":"8870023","prefecture_kana":"ミヤザキケン","city_kana":"ニチナンシ","town_kana":"クマヤ","prefecture":"宮崎県","city":"日南市","town":"隈谷"},{"zip_code":"8893152","prefecture_kana":"ミヤザキケン","city_kana":"ニチナンシ","town_kana":"ケヨシダ","prefecture":"宮崎県","city":"日南市","town":"毛吉田"},{"zip_code":"8870005","prefecture_kana":"ミヤザキケン","city_kana":"ニチナンシ","town_kana":"ザイモクチョウ","prefecture":"宮崎県","city":"日南市","town":"材木町"},{"zip_code":"8892512","prefecture_kana":"ミヤザキケン","city_kana":"ニチナンシ","town_kana":"サカタニコウ","prefecture":"宮崎県","city":"日南市","town":"酒谷甲"},{"zip_code":"8892511","prefecture_kana":"ミヤザキケン","city_kana":"ニチナンシ","town_kana":"サカタニオツ","prefecture":"宮崎県","city":"日南市","town":"酒谷乙"},{"zip_code":"8893142","prefecture_kana":"ミヤザキケン","city_kana":"ニチナンシ","town_kana":"シオヅル","prefecture":"宮崎県","city":"日南市","town":"塩鶴"},{"zip_code":"8893143","prefecture_kana":"ミヤザキケン","city_kana":"ニチナンシ","town_kana":"シモカタ","prefecture":"宮崎県","city":"日南市","town":"下方"},{"zip_code":"8870011","prefecture_kana":"ミヤザキケン","city_kana":"ニチナンシ","town_kana":"セガイ","prefecture":"宮崎県","city":"日南市","town":"瀬貝"},{"zip_code":"8870003","prefecture_kana":"ミヤザキケン","city_kana":"ニチナンシ","town_kana":"セニシ","prefecture":"宮崎県","city":"日南市","town":"瀬西"},{"zip_code":"8870012","prefecture_kana":"ミヤザキケン","city_kana":"ニチナンシ","town_kana":"ソノダ","prefecture":"宮崎県","city":"日南市","town":"園田"},{"zip_code":"8870021","prefecture_kana":"ミヤザキケン","city_kana":"ニチナンシ","town_kana":"チュウオウドオリ","prefecture":"宮崎県","city":"日南市","town":"中央通"},{"zip_code":"8893154","prefecture_kana":"ミヤザキケン","city_kana":"ニチナンシ","town_kana":"ツカダコウ","prefecture":"宮崎県","city":"日南市","town":"塚田甲"},{"zip_code":"8893155","prefecture_kana":"ミヤザキケン","city_kana":"ニチナンシ","town_kana":"ツカダオツ","prefecture":"宮崎県","city":"日南市","town":"塚田乙"},{"zip_code":"8870004","prefecture_kana":"ミヤザキケン","city_kana":"ニチナンシ","town_kana":"テンプク","prefecture":"宮崎県","city":"日南市","town":"天福"},{"zip_code":"8892534","prefecture_kana":"ミヤザキケン","city_kana":"ニチナンシ","town_kana":"トキトウチョウ","prefecture":"宮崎県","city":"日南市","town":"時任町"},{"zip_code":"8870031","prefecture_kana":"ミヤザキケン","city_kana":"ニチナンシ","town_kana":"トダカ","prefecture":"宮崎県","city":"日南市","town":"戸高"},{"zip_code":"8892524","prefecture_kana":"ミヤザキケン","city_kana":"ニチナンシ","town_kana":"トノトコロ","prefecture":"宮崎県","city":"日南市","town":"殿所"},{"zip_code":"8870016","prefecture_kana":"ミヤザキケン","city_kana":"ニチナンシ","town_kana":"ナカヒラノ","prefecture":"宮崎県","city":"日南市","town":"中平野"},{"zip_code":"8893213","prefecture_kana":"ミヤザキケン","city_kana":"ニチナンシ","town_kana":"ナンゴウチョウカタガミ","prefecture":"宮崎県","city":"日南市","town":"南郷町潟上"},{"zip_code":"8893203","prefecture_kana":"ミヤザキケン","city_kana":"ニチナンシ","town_kana":"ナンゴウチョウタニノクチ","prefecture":"宮崎県","city":"日南市","town":"南郷町谷之口"},{"zip_code":"8893201","prefecture_kana":"ミヤザキケン","city_kana":"ニチナンシ","town_kana":"ナンゴウチョウツヤノ","prefecture":"宮崎県","city":"日南市","town":"南郷町津屋野"},{"zip_code":"8893202","prefecture_kana":"ミヤザキケン","city_kana":"ニチナンシ","town_kana":"ナンゴウチョウナカムラコウ","prefecture":"宮崎県","city":"日南市","town":"南郷町中村甲"},{"zip_code":"8893204","prefecture_kana":"ミヤザキケン","city_kana":"ニチナンシ","town_kana":"ナンゴウチョウナカムラオツ","prefecture":"宮崎県","city":"日南市","town":"南郷町中村乙"},{"zip_code":"8893211","prefecture_kana":"ミヤザキケン","city_kana":"ニチナンシ","town_kana":"ナンゴウチョウニエナミ","prefecture":"宮崎県","city":"日南市","town":"南郷町贄波"},{"zip_code":"8893205","prefecture_kana":"ミヤザキケン","city_kana":"ニチナンシ","town_kana":"ナンゴウチョウニシマチ","prefecture":"宮崎県","city":"日南市","town":"南郷町西町"},{"zip_code":"8893207","prefecture_kana":"ミヤザキケン","city_kana":"ニチナンシ","town_kana":"ナンゴウチョウヒガシマチ","prefecture":"宮崎県","city":"日南市","town":"南郷町東町"},{"zip_code":"8893206","prefecture_kana":"ミヤザキケン","city_kana":"ニチナンシ","town_kana":"ナンゴウチョウミナミマチ","prefecture":"宮崎県","city":"日南市","town":"南郷町南町"},{"zip_code":"8893214","prefecture_kana":"ミヤザキケン","city_kana":"ニチナンシ","town_kana":"ナンゴウチョウヨワラ","prefecture":"宮崎県","city":"日南市","town":"南郷町榎原"},{"zip_code":"8893215","prefecture_kana":"ミヤザキケン","city_kana":"ニチナンシ","town_kana":"ナンゴウチョウヨワラコウ","prefecture":"宮崎県","city":"日南市","town":"南郷町榎原甲"},{"zip_code":"8893216","prefecture_kana":"ミヤザキケン","city_kana":"ニチナンシ","town_kana":"ナンゴウチョウヨワラオツ","prefecture":"宮崎県","city":"日南市","town":"南郷町榎原乙"},{"zip_code":"8893217","prefecture_kana":"ミヤザキケン","city_kana":"ニチナンシ","town_kana":"ナンゴウチョウヨワラヘイ","prefecture":"宮崎県","city":"日南市","town":"南郷町榎原丙"},{"zip_code":"8893212","prefecture_kana":"ミヤザキケン","city_kana":"ニチナンシ","town_kana":"ナンゴウチョウワキモト","prefecture":"宮崎県","city":"日南市","town":"南郷町脇本"},{"zip_code":"8870024","prefecture_kana":"ミヤザキケン","city_kana":"ニチナンシ","town_kana":"ニシベンブン","prefecture":"宮崎県","city":"日南市","town":"西弁分"},{"zip_code":"8870002","prefecture_kana":"ミヤザキケン","city_kana":"ニチナンシ","town_kana":"ニシマチ","prefecture":"宮崎県","city":"日南市","town":"西町"},{"zip_code":"8893153","prefecture_kana":"ミヤザキケン","city_kana":"ニチナンシ","town_kana":"ハギノミネ","prefecture":"宮崎県","city":"日南市","town":"萩之嶺"},{"zip_code":"8892521","prefecture_kana":"ミヤザキケン","city_kana":"ニチナンシ","town_kana":"ヒガシベンブンオツ","prefecture":"宮崎県","city":"日南市","town":"東弁分乙"},{"zip_code":"8892522","prefecture_kana":"ミヤザキケン","city_kana":"ニチナンシ","town_kana":"ヒガシベンブンコウ","prefecture":"宮崎県","city":"日南市","town":"東弁分甲"},{"zip_code":"8870015","prefecture_kana":"ミヤザキケン","city_kana":"ニチナンシ","town_kana":"ヒラノ","prefecture":"宮崎県","city":"日南市","town":"平野"},{"zip_code":"8870033","prefecture_kana":"ミヤザキケン","city_kana":"ニチナンシ","town_kana":"ヒラヤマ","prefecture":"宮崎県","city":"日南市","town":"平山"},{"zip_code":"8870102","prefecture_kana":"ミヤザキケン","city_kana":"ニチナンシ","town_kana":"フト","prefecture":"宮崎県","city":"日南市","town":"富土"},{"zip_code":"8892533","prefecture_kana":"ミヤザキケン","city_kana":"ニチナンシ","town_kana":"ホシクラ","prefecture":"宮崎県","city":"日南市","town":"星倉"},{"zip_code":"8892531","prefecture_kana":"ミヤザキケン","city_kana":"ニチナンシ","town_kana":"ホンマチ","prefecture":"宮崎県","city":"日南市","town":"本町"},{"zip_code":"8870032","prefecture_kana":"ミヤザキケン","city_kana":"ニチナンシ","town_kana":"マスヤス","prefecture":"宮崎県","city":"日南市","town":"益安"},{"zip_code":"8892523","prefecture_kana":"ミヤザキケン","city_kana":"ニチナンシ","town_kana":"マツナガ","prefecture":"宮崎県","city":"日南市","town":"松永"},{"zip_code":"8870101","prefecture_kana":"ミヤザキケン","city_kana":"ニチナンシ","town_kana":"ミヤウラ","prefecture":"宮崎県","city":"日南市","town":"宮浦"},{"zip_code":"8892513","prefecture_kana":"ミヤザキケン","city_kana":"ニチナンシ","town_kana":"ヨシノカタ","prefecture":"宮崎県","city":"日南市","town":"吉野方"},{"zip_code":"8860000","prefecture_kana":"ミヤザキケン","city_kana":"コバヤシシ","town_kana":"イカニケイサイガナイバアイ","prefecture":"宮崎県","city":"小林市","town":"以下に掲載がない場合"},{"zip_code":"8860009","prefecture_kana":"ミヤザキケン","city_kana":"コバヤシシ","town_kana":"エキミナミ","prefecture":"宮崎県","city":"小林市","town":"駅南"},{"zip_code":"8860006","prefecture_kana":"ミヤザキケン","city_kana":"コバヤシシ","town_kana":"キタニシカタ","prefecture":"宮崎県","city":"小林市","town":"北西方"},{"zip_code":"8860115","prefecture_kana":"ミヤザキケン","city_kana":"コバヤシシ","town_kana":"スキウチヤマ","prefecture":"宮崎県","city":"小林市","town":"須木内山"},{"zip_code":"8860112","prefecture_kana":"ミヤザキケン","city_kana":"コバヤシシ","town_kana":"スキシモダ","prefecture":"宮崎県","city":"小林市","town":"須木下田"},{"zip_code":"8860113","prefecture_kana":"ミヤザキケン","city_kana":"コバヤシシ","town_kana":"スキトリダマチ","prefecture":"宮崎県","city":"小林市","town":"須木鳥田町"},{"zip_code":"8860111","prefecture_kana":"ミヤザキケン","city_kana":"コバヤシシ","town_kana":"スキナカハラ","prefecture":"宮崎県","city":"小林市","town":"須木中原"},{"zip_code":"8860114","prefecture_kana":"ミヤザキケン","city_kana":"コバヤシシ","town_kana":"スキナサキ","prefecture":"宮崎県","city":"小林市","town":"須木奈佐木"},{"zip_code":"8860003","prefecture_kana":"ミヤザキケン","city_kana":"コバヤシシ","town_kana":"ツツミ","prefecture":"宮崎県","city":"小林市","town":"堤"},{"zip_code":"8860002","prefecture_kana":"ミヤザキケン","city_kana":"コバヤシシ","town_kana":"ツルザコ","prefecture":"宮崎県","city":"小林市","town":"水流迫"},{"zip_code":"8860211","prefecture_kana":"ミヤザキケン","city_kana":"コバヤシシ","town_kana":"ノジリチョウカミヤ","prefecture":"宮崎県","city":"小林市","town":"野尻町紙屋"},{"zip_code":"8860212","prefecture_kana":"ミヤザキケン","city_kana":"コバヤシシ","town_kana":"ノジリチョウヒガシフモト","prefecture":"宮崎県","city":"小林市","town":"野尻町東麓"},{"zip_code":"8860213","prefecture_kana":"ミヤザキケン","city_kana":"コバヤシシ","town_kana":"ノジリチョウミカノヤマ","prefecture":"宮崎県","city":"小林市","town":"野尻町三ケ野山"},{"zip_code":"8860101","prefecture_kana":"ミヤザキケン","city_kana":"コバヤシシ","town_kana":"ヒガシカタ（５７４１、５８７１バンチ）","prefecture":"宮崎県","city":"小林市","town":"東方（５７４１、５８７１番地）"},{"zip_code":"8860001","prefecture_kana":"ミヤザキケン","city_kana":"コバヤシシ","town_kana":"ヒガシカタ（ソノタ）","prefecture":"宮崎県","city":"小林市","town":"東方（その他）"},{"zip_code":"8860004","prefecture_kana":"ミヤザキケン","city_kana":"コバヤシシ","town_kana":"ホソノ","prefecture":"宮崎県","city":"小林市","town":"細野"},{"zip_code":"8860008","prefecture_kana":"ミヤザキケン","city_kana":"コバヤシシ","town_kana":"ホンマチ","prefecture":"宮崎県","city":"小林市","town":"本町"},{"zip_code":"8860007","prefecture_kana":"ミヤザキケン","city_kana":"コバヤシシ","town_kana":"マガタ","prefecture":"宮崎県","city":"小林市","town":"真方"},{"zip_code":"8860005","prefecture_kana":"ミヤザキケン","city_kana":"コバヤシシ","town_kana":"ミナミニシカタ","prefecture":"宮崎県","city":"小林市","town":"南西方"},{"zip_code":"8830000","prefecture_kana":"ミヤザキケン","city_kana":"ヒュウガシ","town_kana":"イカニケイサイガナイバアイ","prefecture":"宮崎県","city":"日向市","town":"以下に掲載がない場合"},{"zip_code":"8830003","prefecture_kana":"ミヤザキケン","city_kana":"ヒュウガシ","town_kana":"イセガハマ","prefecture":"宮崎県","city":"日向市","town":"伊勢ケ浜"},{"zip_code":"8830044","prefecture_kana":"ミヤザキケン","city_kana":"ヒュウガシ","town_kana":"ウエマチ","prefecture":"宮崎県","city":"日向市","town":"上町"},{"zip_code":"8830012","prefecture_kana":"ミヤザキケン","city_kana":"ヒュウガシ","town_kana":"エラチョウ","prefecture":"宮崎県","city":"日向市","town":"江良町"},{"zip_code":"8830053","prefecture_kana":"ミヤザキケン","city_kana":"ヒュウガシ","town_kana":"カジキチョウ","prefecture":"宮崎県","city":"日向市","town":"梶木町"},{"zip_code":"8830066","prefecture_kana":"ミヤザキケン","city_kana":"ヒュウガシ","town_kana":"カメザキ","prefecture":"宮崎県","city":"日向市","town":"亀崎"},{"zip_code":"8830068","prefecture_kana":"ミヤザキケン","city_kana":"ヒュウガシ","town_kana":"カメザキニシ","prefecture":"宮崎県","city":"日向市","town":"亀崎西"},{"zip_code":"8830067","prefecture_kana":"ミヤザキケン","city_kana":"ヒュウガシ","town_kana":"カメザキヒガシ","prefecture":"宮崎県","city":"日向市","town":"亀崎東"},{"zip_code":"8830041","prefecture_kana":"ミヤザキケン","city_kana":"ヒュウガシ","town_kana":"キタマチ","prefecture":"宮崎県","city":"日向市","town":"北町"},{"zip_code":"8830038","prefecture_kana":"ミヤザキケン","city_kana":"ヒュウガシ","town_kana":"ゲイヨウエン","prefecture":"宮崎県","city":"日向市","town":"迎洋園"},{"zip_code":"8830021","prefecture_kana":"ミヤザキケン","city_kana":"ヒュウガシ","town_kana":"ザイコウジ","prefecture":"宮崎県","city":"日向市","town":"財光寺"},{"zip_code":"8830024","prefecture_kana":"ミヤザキケン","city_kana":"ヒュウガシ","town_kana":"ザイコウジオウカンチョウ","prefecture":"宮崎県","city":"日向市","town":"財光寺往還町"},{"zip_code":"8830023","prefecture_kana":"ミヤザキケン","city_kana":"ヒュウガシ","town_kana":"ザイコウジオキマチ","prefecture":"宮崎県","city":"日向市","town":"財光寺沖町"},{"zip_code":"8891112","prefecture_kana":"ミヤザキケン","city_kana":"ヒュウガシ","town_kana":"サイワキ","prefecture":"宮崎県","city":"日向市","town":"幸脇"},{"zip_code":"8830033","prefecture_kana":"ミヤザキケン","city_kana":"ヒュウガシ","town_kana":"シオミ","prefecture":"宮崎県","city":"日向市","town":"塩見"},{"zip_code":"8830013","prefecture_kana":"ミヤザキケン","city_kana":"ヒュウガシ","town_kana":"シンセイチョウ","prefecture":"宮崎県","city":"日向市","town":"新生町"},{"zip_code":"8830011","prefecture_kana":"ミヤザキケン","city_kana":"ヒュウガシ","town_kana":"ソネチョウ","prefecture":"宮崎県","city":"日向市","town":"曽根町"},{"zip_code":"8830061","prefecture_kana":"ミヤザキケン","city_kana":"ヒュウガシ","town_kana":"ダイオウチョウ","prefecture":"宮崎県","city":"日向市","town":"大王町"},{"zip_code":"8830042","prefecture_kana":"ミヤザキケン","city_kana":"ヒュウガシ","town_kana":"タカサゴチョウ","prefecture":"宮崎県","city":"日向市","town":"高砂町"},{"zip_code":"8830063","prefecture_kana":"ミヤザキケン","city_kana":"ヒュウガシ","town_kana":"タケシマチョウ","prefecture":"宮崎県","city":"日向市","town":"竹島町"},{"zip_code":"8830052","prefecture_kana":"ミヤザキケン","city_kana":"ヒュウガシ","town_kana":"ツルマチ","prefecture":"宮崎県","city":"日向市","town":"鶴町"},{"zip_code":"8830111","prefecture_kana":"ミヤザキケン","city_kana":"ヒュウガシ","town_kana":"トウゴウチョウサコノウチ","prefecture":"宮崎県","city":"日向市","town":"東郷町迫野内"},{"zip_code":"8830213","prefecture_kana":"ミヤザキケン","city_kana":"ヒュウガシ","town_kana":"トウゴウチョウシモサンゲ","prefecture":"宮崎県","city":"日向市","town":"東郷町下三ケ"},{"zip_code":"8830211","prefecture_kana":"ミヤザキケン","city_kana":"ヒュウガシ","town_kana":"トウゴウチョウツボヤ","prefecture":"宮崎県","city":"日向市","town":"東郷町坪谷"},{"zip_code":"8830108","prefecture_kana":"ミヤザキケン","city_kana":"ヒュウガシ","town_kana":"トウゴウチョウハエバル","prefecture":"宮崎県","city":"日向市","town":"東郷町八重原"},{"zip_code":"8830109","prefecture_kana":"ミヤザキケン","city_kana":"ヒュウガシ","town_kana":"トウゴウチョウヤマゲ","prefecture":"宮崎県","city":"日向市","town":"東郷町山陰"},{"zip_code":"8891101","prefecture_kana":"ミヤザキケン","city_kana":"ヒュウガシ","town_kana":"トウゴウチョウヤマゲオツ（トリカワ）","prefecture":"宮崎県","city":"日向市","town":"東郷町山陰乙（鳥川）"},{"zip_code":"8830101","prefecture_kana":"ミヤザキケン","city_kana":"ヒュウガシ","town_kana":"トウゴウチョウヤマゲオツ（ソノタ）","prefecture":"宮崎県","city":"日向市","town":"東郷町山陰乙（その他）"},{"zip_code":"8830105","prefecture_kana":"ミヤザキケン","city_kana":"ヒュウガシ","town_kana":"トウゴウチョウヤマゲキ","prefecture":"宮崎県","city":"日向市","town":"東郷町山陰己"},{"zip_code":"8891121","prefecture_kana":"ミヤザキケン","city_kana":"ヒュウガシ","town_kana":"トウゴウチョウヤマゲコウ","prefecture":"宮崎県","city":"日向市","town":"東郷町山陰甲"},{"zip_code":"8830107","prefecture_kana":"ミヤザキケン","city_kana":"ヒュウガシ","town_kana":"トウゴウチョウヤマゲコウ","prefecture":"宮崎県","city":"日向市","town":"東郷町山陰庚"},{"zip_code":"8830106","prefecture_kana":"ミヤザキケン","city_kana":"ヒュウガシ","town_kana":"トウゴウチョウヤマゲシン","prefecture":"宮崎県","city":"日向市","town":"東郷町山陰辛"},{"zip_code":"8830103","prefecture_kana":"ミヤザキケン","city_kana":"ヒュウガシ","town_kana":"トウゴウチョウヤマゲテイ","prefecture":"宮崎県","city":"日向市","town":"東郷町山陰丁"},{"zip_code":"8830102","prefecture_kana":"ミヤザキケン","city_kana":"ヒュウガシ","town_kana":"トウゴウチョウヤマゲヘイ","prefecture":"宮崎県","city":"日向市","town":"東郷町山陰丙"},{"zip_code":"8830104","prefecture_kana":"ミヤザキケン","city_kana":"ヒュウガシ","town_kana":"トウゴウチョウヤマゲボ（５１３ノ１イナイ）","prefecture":"宮崎県","city":"日向市","town":"東郷町山陰戊（５１３の１以内）"},{"zip_code":"8830212","prefecture_kana":"ミヤザキケン","city_kana":"ヒュウガシ","town_kana":"トウゴウチョウヤマゲボ（ソノタ）","prefecture":"宮崎県","city":"日向市","town":"東郷町山陰戊（その他）"},{"zip_code":"8830034","prefecture_kana":"ミヤザキケン","city_kana":"ヒュウガシ","town_kana":"トミタカ","prefecture":"宮崎県","city":"日向市","town":"富高"},{"zip_code":"8830005","prefecture_kana":"ミヤザキケン","city_kana":"ヒュウガシ","town_kana":"ナカホリチョウ","prefecture":"宮崎県","city":"日向市","town":"中堀町"},{"zip_code":"8830046","prefecture_kana":"ミヤザキケン","city_kana":"ヒュウガシ","town_kana":"ナカマチ","prefecture":"宮崎県","city":"日向市","town":"中町"},{"zip_code":"8830015","prefecture_kana":"ミヤザキケン","city_kana":"ヒュウガシ","town_kana":"ナガエチョウ","prefecture":"宮崎県","city":"日向市","town":"永江町"},{"zip_code":"8830004","prefecture_kana":"ミヤザキケン","city_kana":"ヒュウガシ","town_kana":"ハママチ","prefecture":"宮崎県","city":"日向市","town":"浜町"},{"zip_code":"8830014","prefecture_kana":"ミヤザキケン","city_kana":"ヒュウガシ","town_kana":"ハラマチ","prefecture":"宮崎県","city":"日向市","town":"原町"},{"zip_code":"8830035","prefecture_kana":"ミヤザキケン","city_kana":"ヒュウガシ","town_kana":"ハルハラチョウ","prefecture":"宮崎県","city":"日向市","town":"春原町"},{"zip_code":"8830062","prefecture_kana":"ミヤザキケン","city_kana":"ヒュウガシ","town_kana":"ヒチヤ","prefecture":"宮崎県","city":"日向市","town":"日知屋"},{"zip_code":"8830064","prefecture_kana":"ミヤザキケン","city_kana":"ヒュウガシ","town_kana":"ヒチヤフルタチョウ","prefecture":"宮崎県","city":"日向市","town":"日知屋古田町"},{"zip_code":"8830022","prefecture_kana":"ミヤザキケン","city_kana":"ヒュウガシ","town_kana":"ヒライワ","prefecture":"宮崎県","city":"日向市","town":"平岩"},{"zip_code":"8830031","prefecture_kana":"ミヤザキケン","city_kana":"ヒュウガシ","town_kana":"ヒラチョウ","prefecture":"宮崎県","city":"日向市","town":"比良町"},{"zip_code":"8830002","prefecture_kana":"ミヤザキケン","city_kana":"ヒュウガシ","town_kana":"ヒラノチョウ","prefecture":"宮崎県","city":"日向市","town":"平野町"},{"zip_code":"8830037","prefecture_kana":"ミヤザキケン","city_kana":"ヒュウガシ","town_kana":"フドウジ","prefecture":"宮崎県","city":"日向市","town":"不動寺"},{"zip_code":"8830065","prefecture_kana":"ミヤザキケン","city_kana":"ヒュウガシ","town_kana":"フナバチョウ","prefecture":"宮崎県","city":"日向市","town":"船場町"},{"zip_code":"8830001","prefecture_kana":"ミヤザキケン","city_kana":"ヒュウガシ","town_kana":"ホソシマ","prefecture":"宮崎県","city":"日向市","town":"細島"},{"zip_code":"8830045","prefecture_kana":"ミヤザキケン","city_kana":"ヒュウガシ","town_kana":"ホンマチ","prefecture":"宮崎県","city":"日向市","town":"本町"},{"zip_code":"8830036","prefecture_kana":"ミヤザキケン","city_kana":"ヒュウガシ","town_kana":"ミナミマチ","prefecture":"宮崎県","city":"日向市","town":"南町"},{"zip_code":"8891111","prefecture_kana":"ミヤザキケン","city_kana":"ヒュウガシ","town_kana":"ミミツチョウ","prefecture":"宮崎県","city":"日向市","town":"美々津町"},{"zip_code":"8830043","prefecture_kana":"ミヤザキケン","city_kana":"ヒュウガシ","town_kana":"ミヤコマチ","prefecture":"宮崎県","city":"日向市","town":"都町"},{"zip_code":"8830051","prefecture_kana":"ミヤザキケン","city_kana":"ヒュウガシ","town_kana":"ムカエチョウ","prefecture":"宮崎県","city":"日向市","town":"向江町"},{"zip_code":"8830032","prefecture_kana":"ミヤザキケン","city_kana":"ヒュウガシ","town_kana":"ヤマシタチョウ","prefecture":"宮崎県","city":"日向市","town":"山下町"},{"zip_code":"8830006","prefecture_kana":"ミヤザキケン","city_kana":"ヒュウガシ","town_kana":"ヤマテチョウ","prefecture":"宮崎県","city":"日向市","town":"山手町"},{"zip_code":"8880000","prefecture_kana":"ミヤザキケン","city_kana":"クシマシ","town_kana":"イカニケイサイガナイバアイ","prefecture":"宮崎県","city":"串間市","town":"以下に掲載がない場合"},{"zip_code":"8880006","prefecture_kana":"ミヤザキケン","city_kana":"クシマシ","town_kana":"アキヤマ","prefecture":"宮崎県","city":"串間市","town":"秋山"},{"zip_code":"8893533","prefecture_kana":"ミヤザキケン","city_kana":"クシマシ","town_kana":"イチウジ","prefecture":"宮崎県","city":"串間市","town":"一氏"},{"zip_code":"8893311","prefecture_kana":"ミヤザキケン","city_kana":"クシマシ","town_kana":"イチキ","prefecture":"宮崎県","city":"串間市","town":"市木"},{"zip_code":"8880221","prefecture_kana":"ミヤザキケン","city_kana":"クシマシ","town_kana":"オオノ","prefecture":"宮崎県","city":"串間市","town":"大納"},{"zip_code":"8893532","prefecture_kana":"ミヤザキケン","city_kana":"クシマシ","town_kana":"オオヒラ","prefecture":"宮崎県","city":"串間市","town":"大平"},{"zip_code":"8893534","prefecture_kana":"ミヤザキケン","city_kana":"クシマシ","town_kana":"オオヤドリ","prefecture":"宮崎県","city":"串間市","town":"大矢取"},{"zip_code":"8880005","prefecture_kana":"ミヤザキケン","city_kana":"クシマシ","town_kana":"キタカタ","prefecture":"宮崎県","city":"串間市","town":"北方"},{"zip_code":"8880004","prefecture_kana":"ミヤザキケン","city_kana":"クシマシ","town_kana":"クシマ","prefecture":"宮崎県","city":"串間市","town":"串間"},{"zip_code":"8880009","prefecture_kana":"ミヤザキケン","city_kana":"クシマシ","town_kana":"サキダ","prefecture":"宮崎県","city":"串間市","town":"崎田"},{"zip_code":"8880002","prefecture_kana":"ミヤザキケン","city_kana":"クシマシ","town_kana":"タカマツ","prefecture":"宮崎県","city":"串間市","town":"高松"},{"zip_code":"8880011","prefecture_kana":"ミヤザキケン","city_kana":"クシマシ","town_kana":"テラザト","prefecture":"宮崎県","city":"串間市","town":"寺里"},{"zip_code":"8880222","prefecture_kana":"ミヤザキケン","city_kana":"クシマシ","town_kana":"トイ","prefecture":"宮崎県","city":"串間市","town":"都井"},{"zip_code":"8893531","prefecture_kana":"ミヤザキケン","city_kana":"クシマシ","town_kana":"ナル","prefecture":"宮崎県","city":"串間市","town":"奈留"},{"zip_code":"8880001","prefecture_kana":"ミヤザキケン","city_kana":"クシマシ","town_kana":"ニシカタ","prefecture":"宮崎県","city":"串間市","town":"西方"},{"zip_code":"8880012","prefecture_kana":"ミヤザキケン","city_kana":"クシマシ","town_kana":"ニシハマ","prefecture":"宮崎県","city":"串間市","town":"西浜"},{"zip_code":"8880003","prefecture_kana":"ミヤザキケン","city_kana":"クシマシ","town_kana":"ヌクミ","prefecture":"宮崎県","city":"串間市","town":"奴久見"},{"zip_code":"8880013","prefecture_kana":"ミヤザキケン","city_kana":"クシマシ","town_kana":"ヒガシマチ","prefecture":"宮崎県","city":"串間市","town":"東町"},{"zip_code":"8880008","prefecture_kana":"ミヤザキケン","city_kana":"クシマシ","town_kana":"ホンジョウ","prefecture":"宮崎県","city":"串間市","town":"本城"},{"zip_code":"8880007","prefecture_kana":"ミヤザキケン","city_kana":"クシマシ","town_kana":"ミナミカタ","prefecture":"宮崎県","city":"串間市","town":"南方"},{"zip_code":"8810000","prefecture_kana":"ミヤザキケン","city_kana":"サイトシ","town_kana":"イカニケイサイガナイバアイ","prefecture":"宮崎県","city":"西都市","town":"以下に掲載がない場合"},{"zip_code":"8810031","prefecture_kana":"ミヤザキケン","city_kana":"サイトシ","town_kana":"アサヒ","prefecture":"宮崎県","city":"西都市","town":"旭"},{"zip_code":"8810111","prefecture_kana":"ミヤザキケン","city_kana":"サイトシ","town_kana":"アラタケ","prefecture":"宮崎県","city":"西都市","town":"荒武"},{"zip_code":"8810011","prefecture_kana":"ミヤザキケン","city_kana":"サイトシ","town_kana":"アリヨシチョウ","prefecture":"宮崎県","city":"西都市","town":"有吉町"},{"zip_code":"8810106","prefecture_kana":"ミヤザキケン","city_kana":"サイトシ","town_kana":"イワヅメ","prefecture":"宮崎県","city":"西都市","town":"岩爪"},{"zip_code":"8810001","prefecture_kana":"ミヤザキケン","city_kana":"サイトシ","town_kana":"オカドミ","prefecture":"宮崎県","city":"西都市","town":"岡富"},{"zip_code":"8810012","prefecture_kana":"ミヤザキケン","city_kana":"サイトシ","town_kana":"オノザキ","prefecture":"宮崎県","city":"西都市","town":"小野崎"},{"zip_code":"8810013","prefecture_kana":"ミヤザキケン","city_kana":"サイトシ","town_kana":"オノザキチョウ","prefecture":"宮崎県","city":"西都市","town":"小野崎町"},{"zip_code":"8811121","prefecture_kana":"ミヤザキケン","city_kana":"サイトシ","town_kana":"オハエ","prefecture":"宮崎県","city":"西都市","town":"尾八重"},{"zip_code":"8810103","prefecture_kana":"ミヤザキケン","city_kana":"サイトシ","town_kana":"カゼ","prefecture":"宮崎県","city":"西都市","town":"加勢"},{"zip_code":"8811122","prefecture_kana":"ミヤザキケン","city_kana":"サイトシ","town_kana":"カタウチ","prefecture":"宮崎県","city":"西都市","town":"片内"},{"zip_code":"8810104","prefecture_kana":"ミヤザキケン","city_kana":"サイトシ","town_kana":"カノダ","prefecture":"宮崎県","city":"西都市","town":"鹿野田"},{"zip_code":"8811231","prefecture_kana":"ミヤザキケン","city_kana":"サイトシ","town_kana":"カミアゲ","prefecture":"宮崎県","city":"西都市","town":"上揚"},{"zip_code":"8810115","prefecture_kana":"ミヤザキケン","city_kana":"サイトシ","town_kana":"カミサンザイ","prefecture":"宮崎県","city":"西都市","town":"上三財"},{"zip_code":"8810021","prefecture_kana":"ミヤザキケン","city_kana":"サイトシ","town_kana":"カミマチ","prefecture":"宮崎県","city":"西都市","town":"上町"},{"zip_code":"8810004","prefecture_kana":"ミヤザキケン","city_kana":"サイトシ","town_kana":"キヨミズ","prefecture":"宮崎県","city":"西都市","town":"清水"},{"zip_code":"8810002","prefecture_kana":"ミヤザキケン","city_kana":"サイトシ","town_kana":"クロウノ","prefecture":"宮崎県","city":"西都市","town":"黒生野"},{"zip_code":"8800341","prefecture_kana":"ミヤザキケン","city_kana":"サイトシ","town_kana":"ゲンノウジマ","prefecture":"宮崎県","city":"西都市","town":"現王島"},{"zip_code":"8810022","prefecture_kana":"ミヤザキケン","city_kana":"サイトシ","town_kana":"サクラガワチョウ","prefecture":"宮崎県","city":"西都市","town":"桜川町"},{"zip_code":"8810116","prefecture_kana":"ミヤザキケン","city_kana":"サイトシ","town_kana":"サブカワ","prefecture":"宮崎県","city":"西都市","town":"寒川"},{"zip_code":"8810113","prefecture_kana":"ミヤザキケン","city_kana":"サイトシ","town_kana":"シモサンザイ","prefecture":"宮崎県","city":"西都市","town":"下三財"},{"zip_code":"8810014","prefecture_kana":"ミヤザキケン","city_kana":"サイトシ","town_kana":"シモヅマ","prefecture":"宮崎県","city":"西都市","town":"下妻"},{"zip_code":"8810032","prefecture_kana":"ミヤザキケン","city_kana":"サイトシ","town_kana":"シラウマチョウ","prefecture":"宮崎県","city":"西都市","town":"白馬町"},{"zip_code":"8811232","prefecture_kana":"ミヤザキケン","city_kana":"サイトシ","town_kana":"シロミ","prefecture":"宮崎県","city":"西都市","town":"銀鏡"},{"zip_code":"8810006","prefecture_kana":"ミヤザキケン","city_kana":"サイトシ","town_kana":"シンマチ","prefecture":"宮崎県","city":"西都市","town":"新町"},{"zip_code":"8810015","prefecture_kana":"ミヤザキケン","city_kana":"サイトシ","town_kana":"セイリョウチョウ","prefecture":"宮崎県","city":"西都市","town":"聖陵町"},{"zip_code":"8810037","prefecture_kana":"ミヤザキケン","city_kana":"サイトシ","town_kana":"チャウスバル","prefecture":"宮崎県","city":"西都市","town":"茶臼原"},{"zip_code":"8810035","prefecture_kana":"ミヤザキケン","city_kana":"サイトシ","town_kana":"チュウオウチョウ","prefecture":"宮崎県","city":"西都市","town":"中央町"},{"zip_code":"8810023","prefecture_kana":"ミヤザキケン","city_kana":"サイトシ","town_kana":"ツキドノ","prefecture":"宮崎県","city":"西都市","town":"調殿"},{"zip_code":"8810033","prefecture_kana":"ミヤザキケン","city_kana":"サイトシ","town_kana":"ツマ","prefecture":"宮崎県","city":"西都市","town":"妻"},{"zip_code":"8810034","prefecture_kana":"ミヤザキケン","city_kana":"サイトシ","town_kana":"ツマチョウ","prefecture":"宮崎県","city":"西都市","town":"妻町"},{"zip_code":"8810036","prefecture_kana":"ミヤザキケン","city_kana":"サイトシ","town_kana":"ツルサキチョウ","prefecture":"宮崎県","city":"西都市","town":"水流崎町"},{"zip_code":"8810025","prefecture_kana":"ミヤザキケン","city_kana":"サイトシ","town_kana":"ドウジマル","prefecture":"宮崎県","city":"西都市","town":"童子丸"},{"zip_code":"8810114","prefecture_kana":"ミヤザキケン","city_kana":"サイトシ","town_kana":"トウダ","prefecture":"宮崎県","city":"西都市","town":"藤田"},{"zip_code":"8810105","prefecture_kana":"ミヤザキケン","city_kana":"サイトシ","town_kana":"トノコオリマチ","prefecture":"宮崎県","city":"西都市","town":"都於郡町"},{"zip_code":"8811123","prefecture_kana":"ミヤザキケン","city_kana":"サイトシ","town_kana":"ナカオ","prefecture":"宮崎県","city":"西都市","town":"中尾"},{"zip_code":"8810024","prefecture_kana":"ミヤザキケン","city_kana":"サイトシ","town_kana":"ナカヅマ","prefecture":"宮崎県","city":"西都市","town":"中妻"},{"zip_code":"8811233","prefecture_kana":"ミヤザキケン","city_kana":"サイトシ","town_kana":"ハエ","prefecture":"宮崎県","city":"西都市","town":"八重"},{"zip_code":"8810102","prefecture_kana":"ミヤザキケン","city_kana":"サイトシ","town_kana":"ヘゴオリ","prefecture":"宮崎県","city":"西都市","town":"平郡"},{"zip_code":"8810026","prefecture_kana":"ミヤザキケン","city_kana":"サイトシ","town_kana":"ホキタ","prefecture":"宮崎県","city":"西都市","town":"穂北"},{"zip_code":"8810003","prefecture_kana":"ミヤザキケン","city_kana":"サイトシ","town_kana":"ミギマツ","prefecture":"宮崎県","city":"西都市","town":"右松"},{"zip_code":"8810027","prefecture_kana":"ミヤザキケン","city_kana":"サイトシ","town_kana":"ミナミカタ","prefecture":"宮崎県","city":"西都市","town":"南方"},{"zip_code":"8810101","prefecture_kana":"ミヤザキケン","city_kana":"サイトシ","town_kana":"ミノウ","prefecture":"宮崎県","city":"西都市","town":"三納"},{"zip_code":"8810016","prefecture_kana":"ミヤザキケン","city_kana":"サイトシ","town_kana":"ミフネチョウ","prefecture":"宮崎県","city":"西都市","town":"御舟町"},{"zip_code":"8810005","prefecture_kana":"ミヤザキケン","city_kana":"サイトシ","town_kana":"ミヤケ","prefecture":"宮崎県","city":"西都市","town":"三宅"},{"zip_code":"8810112","prefecture_kana":"ミヤザキケン","city_kana":"サイトシ","town_kana":"ヤマダ","prefecture":"宮崎県","city":"西都市","town":"山田"},{"zip_code":"8894300","prefecture_kana":"ミヤザキケン","city_kana":"エビノシ","town_kana":"イカニケイサイガナイバアイ","prefecture":"宮崎県","city":"えびの市","town":"以下に掲載がない場合"},{"zip_code":"8894303","prefecture_kana":"ミヤザキケン","city_kana":"エビノシ","town_kana":"イケジマ","prefecture":"宮崎県","city":"えびの市","town":"池島"},{"zip_code":"8894306","prefecture_kana":"ミヤザキケン","city_kana":"エビノシ","town_kana":"イマニシ","prefecture":"宮崎県","city":"えびの市","town":"今西"},{"zip_code":"8894162","prefecture_kana":"ミヤザキケン","city_kana":"エビノシ","town_kana":"ウチタテ","prefecture":"宮崎県","city":"えびの市","town":"内竪"},{"zip_code":"8894153","prefecture_kana":"ミヤザキケン","city_kana":"エビノシ","town_kana":"ウラ","prefecture":"宮崎県","city":"えびの市","town":"浦"},{"zip_code":"8894304","prefecture_kana":"ミヤザキケン","city_kana":"エビノシ","town_kana":"ウワエ","prefecture":"宮崎県","city":"えびの市","town":"上江"},{"zip_code":"8894243","prefecture_kana":"ミヤザキケン","city_kana":"エビノシ","town_kana":"エノキダ","prefecture":"宮崎県","city":"えびの市","town":"榎田"},{"zip_code":"8894314","prefecture_kana":"ミヤザキケン","city_kana":"エビノシ","town_kana":"オオコウビラ","prefecture":"宮崎県","city":"えびの市","town":"大河平"},{"zip_code":"8894161","prefecture_kana":"ミヤザキケン","city_kana":"エビノシ","town_kana":"オカマツ","prefecture":"宮崎県","city":"えびの市","town":"岡松"},{"zip_code":"8894222","prefecture_kana":"ミヤザキケン","city_kana":"エビノシ","town_kana":"オダ","prefecture":"宮崎県","city":"えびの市","town":"小田"},{"zip_code":"8894155","prefecture_kana":"ミヤザキケン","city_kana":"エビノシ","town_kana":"カメサワ","prefecture":"宮崎県","city":"えびの市","town":"亀沢"},{"zip_code":"8894221","prefecture_kana":"ミヤザキケン","city_kana":"エビノシ","town_kana":"クリシタ","prefecture":"宮崎県","city":"えびの市","town":"栗下"},{"zip_code":"8894241","prefecture_kana":"ミヤザキケン","city_kana":"エビノシ","town_kana":"サイゴウ","prefecture":"宮崎県","city":"えびの市","town":"西郷"},{"zip_code":"8894312","prefecture_kana":"ミヤザキケン","city_kana":"エビノシ","town_kana":"サカモト","prefecture":"宮崎県","city":"えびの市","town":"坂元"},{"zip_code":"8894152","prefecture_kana":"ミヤザキケン","city_kana":"エビノシ","town_kana":"シマウチ","prefecture":"宮崎県","city":"えびの市","town":"島内"},{"zip_code":"8894164","prefecture_kana":"ミヤザキケン","city_kana":"エビノシ","town_kana":"ショウミョウジ","prefecture":"宮崎県","city":"えびの市","town":"昌明寺"},{"zip_code":"8894302","prefecture_kana":"ミヤザキケン","city_kana":"エビノシ","town_kana":"スエナガ","prefecture":"宮崎県","city":"えびの市","town":"末永"},{"zip_code":"8894313","prefecture_kana":"ミヤザキケン","city_kana":"エビノシ","town_kana":"スギズル","prefecture":"宮崎県","city":"えびの市","town":"杉水流"},{"zip_code":"8894311","prefecture_kana":"ミヤザキケン","city_kana":"エビノシ","town_kana":"ダイミョウジ","prefecture":"宮崎県","city":"えびの市","town":"大明司"},{"zip_code":"8894163","prefecture_kana":"ミヤザキケン","city_kana":"エビノシ","town_kana":"ツル","prefecture":"宮崎県","city":"えびの市","town":"水流"},{"zip_code":"8894234","prefecture_kana":"ミヤザキケン","city_kana":"エビノシ","town_kana":"ナガヤマ","prefecture":"宮崎県","city":"えびの市","town":"永山"},{"zip_code":"8894165","prefecture_kana":"ミヤザキケン","city_kana":"エビノシ","town_kana":"ニシカワキタ","prefecture":"宮崎県","city":"えびの市","town":"西川北"},{"zip_code":"8894232","prefecture_kana":"ミヤザキケン","city_kana":"エビノシ","town_kana":"ニシナガエウラ","prefecture":"宮崎県","city":"えびの市","town":"西長江浦"},{"zip_code":"8894233","prefecture_kana":"ミヤザキケン","city_kana":"エビノシ","town_kana":"ハイツカ","prefecture":"宮崎県","city":"えびの市","town":"灰塚"},{"zip_code":"8894301","prefecture_kana":"ミヤザキケン","city_kana":"エビノシ","town_kana":"ハラダ","prefecture":"宮崎県","city":"えびの市","town":"原田"},{"zip_code":"8894244","prefecture_kana":"ミヤザキケン","city_kana":"エビノシ","town_kana":"ヒガシカワキタ","prefecture":"宮崎県","city":"えびの市","town":"東川北"},{"zip_code":"8894231","prefecture_kana":"ミヤザキケン","city_kana":"エビノシ","town_kana":"ヒガシナガエウラ","prefecture":"宮崎県","city":"えびの市","town":"東長江浦"},{"zip_code":"8894305","prefecture_kana":"ミヤザキケン","city_kana":"エビノシ","town_kana":"マエダ","prefecture":"宮崎県","city":"えびの市","town":"前田"},{"zip_code":"8894151","prefecture_kana":"ミヤザキケン","city_kana":"エビノシ","town_kana":"ムカエ","prefecture":"宮崎県","city":"えびの市","town":"向江"},{"zip_code":"8894154","prefecture_kana":"ミヤザキケン","city_kana":"エビノシ","town_kana":"ヤナギズル","prefecture":"宮崎県","city":"えびの市","town":"柳水流"},{"zip_code":"8894242","prefecture_kana":"ミヤザキケン","city_kana":"エビノシ","town_kana":"ユダ","prefecture":"宮崎県","city":"えびの市","town":"湯田"},{"zip_code":"8891900","prefecture_kana":"ミヤザキケン","city_kana":"キタモロカタグンミマタチョウ","town_kana":"イカニケイサイガナイバアイ","prefecture":"宮崎県","city":"北諸県郡三股町","town":"以下に掲載がない場合"},{"zip_code":"8891905","prefecture_kana":"ミヤザキケン","city_kana":"キタモロカタグンミマタチョウ","town_kana":"イマイチ","prefecture":"宮崎県","city":"北諸県郡三股町","town":"今市"},{"zip_code":"8891901","prefecture_kana":"ミヤザキケン","city_kana":"キタモロカタグンミマタチョウ","town_kana":"カバヤマ","prefecture":"宮崎県","city":"北諸県郡三股町","town":"樺山"},{"zip_code":"8891902","prefecture_kana":"ミヤザキケン","city_kana":"キタモロカタグンミマタチョウ","town_kana":"ゴホンマツ","prefecture":"宮崎県","city":"北諸県郡三股町","town":"五本松"},{"zip_code":"8891904","prefecture_kana":"ミヤザキケン","city_kana":"キタモロカタグンミマタチョウ","town_kana":"シンババ","prefecture":"宮崎県","city":"北諸県郡三股町","town":"新馬場"},{"zip_code":"8891914","prefecture_kana":"ミヤザキケン","city_kana":"キタモロカタグンミマタチョウ","town_kana":"タデイケ","prefecture":"宮崎県","city":"北諸県郡三股町","town":"蓼池"},{"zip_code":"8891906","prefecture_kana":"ミヤザキケン","city_kana":"キタモロカタグンミマタチョウ","town_kana":"ナカバル","prefecture":"宮崎県","city":"北諸県郡三股町","town":"中原"},{"zip_code":"8891911","prefecture_kana":"ミヤザキケン","city_kana":"キタモロカタグンミマタチョウ","town_kana":"ナガタ","prefecture":"宮崎県","city":"北諸県郡三股町","town":"長田"},{"zip_code":"8891907","prefecture_kana":"ミヤザキケン","city_kana":"キタモロカタグンミマタチョウ","town_kana":"ハナミバル","prefecture":"宮崎県","city":"北諸県郡三股町","town":"花見原"},{"zip_code":"8891903","prefecture_kana":"ミヤザキケン","city_kana":"キタモロカタグンミマタチョウ","town_kana":"ヒエダ","prefecture":"宮崎県","city":"北諸県郡三股町","town":"稗田"},{"zip_code":"8891912","prefecture_kana":"ミヤザキケン","city_kana":"キタモロカタグンミマタチョウ","town_kana":"ミヤムラ","prefecture":"宮崎県","city":"北諸県郡三股町","town":"宮村"},{"zip_code":"8891913","prefecture_kana":"ミヤザキケン","city_kana":"キタモロカタグンミマタチョウ","town_kana":"モチバル","prefecture":"宮崎県","city":"北諸県郡三股町","town":"餅原"},{"zip_code":"8894400","prefecture_kana":"ミヤザキケン","city_kana":"ニシモロカタグンタカハルチョウ","town_kana":"イカニケイサイガナイバアイ","prefecture":"宮崎県","city":"西諸県郡高原町","town":"以下に掲載がない場合"},{"zip_code":"8894413","prefecture_kana":"ミヤザキケン","city_kana":"ニシモロカタグンタカハルチョウ","town_kana":"ウシロカワチ","prefecture":"宮崎県","city":"西諸県郡高原町","town":"後川内"},{"zip_code":"8894414","prefecture_kana":"ミヤザキケン","city_kana":"ニシモロカタグンタカハルチョウ","town_kana":"カマムタ","prefecture":"宮崎県","city":"西諸県郡高原町","town":"蒲牟田"},{"zip_code":"8894412","prefecture_kana":"ミヤザキケン","city_kana":"ニシモロカタグンタカハルチョウ","town_kana":"ニシフモト","prefecture":"宮崎県","city":"西諸県郡高原町","town":"西麓"},{"zip_code":"8894411","prefecture_kana":"ミヤザキケン","city_kana":"ニシモロカタグンタカハルチョウ","town_kana":"ヒロワラ","prefecture":"宮崎県","city":"西諸県郡高原町","town":"広原"},{"zip_code":"8801100","prefecture_kana":"ミヤザキケン","city_kana":"ヒガシモロカタグンクニトミチョウ","town_kana":"イカニケイサイガナイバアイ","prefecture":"宮崎県","city":"東諸県郡国富町","town":"以下に掲載がない場合"},{"zip_code":"8801103","prefecture_kana":"ミヤザキケン","city_kana":"ヒガシモロカタグンクニトミチョウ","town_kana":"アラシダ","prefecture":"宮崎県","city":"東諸県郡国富町","town":"嵐田"},{"zip_code":"8801121","prefecture_kana":"ミヤザキケン","city_kana":"ヒガシモロカタグンクニトミチョウ","town_kana":"イザオ（フキアゲ）","prefecture":"宮崎県","city":"東諸県郡国富町","town":"伊左生（吹上）"},{"zip_code":"8801221","prefecture_kana":"ミヤザキケン","city_kana":"ヒガシモロカタグンクニトミチョウ","town_kana":"イザオ（ソノタ）","prefecture":"宮崎県","city":"東諸県郡国富町","town":"伊左生（その他）"},{"zip_code":"8801111","prefecture_kana":"ミヤザキケン","city_kana":"ヒガシモロカタグンクニトミチョウ","town_kana":"イワチノ","prefecture":"宮崎県","city":"東諸県郡国富町","town":"岩知野"},{"zip_code":"8801113","prefecture_kana":"ミヤザキケン","city_kana":"ヒガシモロカタグンクニトミチョウ","town_kana":"キワキ","prefecture":"宮崎県","city":"東諸県郡国富町","town":"木脇"},{"zip_code":"8801114","prefecture_kana":"ミヤザキケン","city_kana":"ヒガシモロカタグンクニトミチョウ","town_kana":"サンミョウ","prefecture":"宮崎県","city":"東諸県郡国富町","town":"三名"},{"zip_code":"8801108","prefecture_kana":"ミヤザキケン","city_kana":"ヒガシモロカタグンクニトミチョウ","town_kana":"スシダ","prefecture":"宮崎県","city":"東諸県郡国富町","town":"須志田"},{"zip_code":"8801107","prefecture_kana":"ミヤザキケン","city_kana":"ヒガシモロカタグンクニトミチョウ","town_kana":"タケダ","prefecture":"宮崎県","city":"東諸県郡国富町","town":"竹田"},{"zip_code":"8801104","prefecture_kana":"ミヤザキケン","city_kana":"ヒガシモロカタグンクニトミチョウ","town_kana":"タジリ","prefecture":"宮崎県","city":"東諸県郡国富町","town":"田尻"},{"zip_code":"8801112","prefecture_kana":"ミヤザキケン","city_kana":"ヒガシモロカタグンクニトミチョウ","town_kana":"ツカバル","prefecture":"宮崎県","city":"東諸県郡国富町","town":"塚原"},{"zip_code":"8801224","prefecture_kana":"ミヤザキケン","city_kana":"ヒガシモロカタグンクニトミチョウ","town_kana":"フカドシ","prefecture":"宮崎県","city":"東諸県郡国富町","town":"深年"},{"zip_code":"8801101","prefecture_kana":"ミヤザキケン","city_kana":"ヒガシモロカタグンクニトミチョウ","town_kana":"ホンジョウ","prefecture":"宮崎県","city":"東諸県郡国富町","town":"本庄"},{"zip_code":"8801102","prefecture_kana":"ミヤザキケン","city_kana":"ヒガシモロカタグンクニトミチョウ","town_kana":"ミヤオウマル","prefecture":"宮崎県","city":"東諸県郡国富町","town":"宮王丸"},{"zip_code":"8801105","prefecture_kana":"ミヤザキケン","city_kana":"ヒガシモロカタグンクニトミチョウ","town_kana":"ムコウタカ","prefecture":"宮崎県","city":"東諸県郡国富町","town":"向高"},{"zip_code":"8801106","prefecture_kana":"ミヤザキケン","city_kana":"ヒガシモロカタグンクニトミチョウ","town_kana":"モリナガ","prefecture":"宮崎県","city":"東諸県郡国富町","town":"森永"},{"zip_code":"8801222","prefecture_kana":"ミヤザキケン","city_kana":"ヒガシモロカタグンクニトミチョウ","town_kana":"ヤツシロキタマタ","prefecture":"宮崎県","city":"東諸県郡国富町","town":"八代北俣"},{"zip_code":"8801223","prefecture_kana":"ミヤザキケン","city_kana":"ヒガシモロカタグンクニトミチョウ","town_kana":"ヤツシロミナミマタ","prefecture":"宮崎県","city":"東諸県郡国富町","town":"八代南俣"},{"zip_code":"8801300","prefecture_kana":"ミヤザキケン","city_kana":"ヒガシモロカタグンアヤチョウ","town_kana":"イカニケイサイガナイバアイ","prefecture":"宮崎県","city":"東諸県郡綾町","town":"以下に掲載がない場合"},{"zip_code":"8801301","prefecture_kana":"ミヤザキケン","city_kana":"ヒガシモロカタグンアヤチョウ","town_kana":"イリノ","prefecture":"宮崎県","city":"東諸県郡綾町","town":"入野"},{"zip_code":"8801302","prefecture_kana":"ミヤザキケン","city_kana":"ヒガシモロカタグンアヤチョウ","town_kana":"キタマタ","prefecture":"宮崎県","city":"東諸県郡綾町","town":"北俣"},{"zip_code":"8801303","prefecture_kana":"ミヤザキケン","city_kana":"ヒガシモロカタグンアヤチョウ","town_kana":"ミナミマタ","prefecture":"宮崎県","city":"東諸県郡綾町","town":"南俣"},{"zip_code":"8840000","prefecture_kana":"ミヤザキケン","city_kana":"コユグンタカナベチョウ","town_kana":"イカニケイサイガナイバアイ","prefecture":"宮崎県","city":"児湯郡高鍋町","town":"以下に掲載がない場合"},{"zip_code":"8840006","prefecture_kana":"ミヤザキケン","city_kana":"コユグンタカナベチョウ","town_kana":"ウワエ","prefecture":"宮崎県","city":"児湯郡高鍋町","town":"上江"},{"zip_code":"8840004","prefecture_kana":"ミヤザキケン","city_kana":"コユグンタカナベチョウ","town_kana":"カグチウラ","prefecture":"宮崎県","city":"児湯郡高鍋町","town":"蚊口浦"},{"zip_code":"8840002","prefecture_kana":"ミヤザキケン","city_kana":"コユグンタカナベチョウ","town_kana":"キタタカナベ","prefecture":"宮崎県","city":"児湯郡高鍋町","town":"北高鍋"},{"zip_code":"8840001","prefecture_kana":"ミヤザキケン","city_kana":"コユグンタカナベチョウ","town_kana":"タカナベマチ","prefecture":"宮崎県","city":"児湯郡高鍋町","town":"高鍋町"},{"zip_code":"8840003","prefecture_kana":"ミヤザキケン","city_kana":"コユグンタカナベチョウ","town_kana":"ミナミタカナベ","prefecture":"宮崎県","city":"児湯郡高鍋町","town":"南高鍋"},{"zip_code":"8840005","prefecture_kana":"ミヤザキケン","city_kana":"コユグンタカナベチョウ","town_kana":"モチダ","prefecture":"宮崎県","city":"児湯郡高鍋町","town":"持田"},{"zip_code":"8891400","prefecture_kana":"ミヤザキケン","city_kana":"コユグンシントミチョウ","town_kana":"イカニケイサイガナイバアイ","prefecture":"宮崎県","city":"児湯郡新富町","town":"以下に掲載がない場合"},{"zip_code":"8891405","prefecture_kana":"ミヤザキケン","city_kana":"コユグンシントミチョウ","town_kana":"イクラ","prefecture":"宮崎県","city":"児湯郡新富町","town":"伊倉"},{"zip_code":"8891403","prefecture_kana":"ミヤザキケン","city_kana":"コユグンシントミチョウ","town_kana":"カミトンダ","prefecture":"宮崎県","city":"児湯郡新富町","town":"上富田"},{"zip_code":"8891404","prefecture_kana":"ミヤザキケン","city_kana":"コユグンシントミチョウ","town_kana":"シモトンダ","prefecture":"宮崎県","city":"児湯郡新富町","town":"下富田"},{"zip_code":"8891411","prefecture_kana":"ミヤザキケン","city_kana":"コユグンシントミチョウ","town_kana":"トンダ","prefecture":"宮崎県","city":"児湯郡新富町","town":"富田"},{"zip_code":"8891415","prefecture_kana":"ミヤザキケン","city_kana":"コユグンシントミチョウ","town_kana":"トンダキタ","prefecture":"宮崎県","city":"児湯郡新富町","town":"富田北"},{"zip_code":"8891412","prefecture_kana":"ミヤザキケン","city_kana":"コユグンシントミチョウ","town_kana":"トンダヒガシ","prefecture":"宮崎県","city":"児湯郡新富町","town":"富田東"},{"zip_code":"8891413","prefecture_kana":"ミヤザキケン","city_kana":"コユグンシントミチョウ","town_kana":"トンダニシ","prefecture":"宮崎県","city":"児湯郡新富町","town":"富田西"},{"zip_code":"8891414","prefecture_kana":"ミヤザキケン","city_kana":"コユグンシントミチョウ","town_kana":"トンダミナミ","prefecture":"宮崎県","city":"児湯郡新富町","town":"富田南"},{"zip_code":"8891406","prefecture_kana":"ミヤザキケン","city_kana":"コユグンシントミチョウ","town_kana":"ニュウタ","prefecture":"宮崎県","city":"児湯郡新富町","town":"新田"},{"zip_code":"8891401","prefecture_kana":"ミヤザキケン","city_kana":"コユグンシントミチョウ","town_kana":"ヒオキ","prefecture":"宮崎県","city":"児湯郡新富町","town":"日置"},{"zip_code":"8891402","prefecture_kana":"ミヤザキケン","city_kana":"コユグンシントミチョウ","town_kana":"ミナシロ","prefecture":"宮崎県","city":"児湯郡新富町","town":"三納代"},{"zip_code":"8811400","prefecture_kana":"ミヤザキケン","city_kana":"コユグンニシメラソン","town_kana":"イカニケイサイガナイバアイ","prefecture":"宮崎県","city":"児湯郡西米良村","town":"以下に掲載がない場合"},{"zip_code":"8811412","prefecture_kana":"ミヤザキケン","city_kana":"コユグンニシメラソン","town_kana":"イタヤ","prefecture":"宮崎県","city":"児湯郡西米良村","town":"板谷"},{"zip_code":"8811302","prefecture_kana":"ミヤザキケン","city_kana":"コユグンニシメラソン","town_kana":"オガワ","prefecture":"宮崎県","city":"児湯郡西米良村","town":"小川"},{"zip_code":"8811413","prefecture_kana":"ミヤザキケン","city_kana":"コユグンニシメラソン","town_kana":"カンメラ","prefecture":"宮崎県","city":"児湯郡西米良村","town":"上米良"},{"zip_code":"8811301","prefecture_kana":"ミヤザキケン","city_kana":"コユグンニシメラソン","town_kana":"コシノオ","prefecture":"宮崎県","city":"児湯郡西米良村","town":"越野尾"},{"zip_code":"8811414","prefecture_kana":"ミヤザキケン","city_kana":"コユグンニシメラソン","town_kana":"タケワラ","prefecture":"宮崎県","city":"児湯郡西米良村","town":"竹原"},{"zip_code":"8811411","prefecture_kana":"ミヤザキケン","city_kana":"コユグンニシメラソン","town_kana":"ムラショ","prefecture":"宮崎県","city":"児湯郡西米良村","town":"村所"},{"zip_code":"8811303","prefecture_kana":"ミヤザキケン","city_kana":"コユグンニシメラソン","town_kana":"ヨコノ","prefecture":"宮崎県","city":"児湯郡西米良村","town":"横野"},{"zip_code":"8840100","prefecture_kana":"ミヤザキケン","city_kana":"コユグンキジョウチョウ","town_kana":"イカニケイサイガナイバアイ","prefecture":"宮崎県","city":"児湯郡木城町","town":"以下に掲載がない場合"},{"zip_code":"8840104","prefecture_kana":"ミヤザキケン","city_kana":"コユグンキジョウチョウ","town_kana":"イシカワウチ","prefecture":"宮崎県","city":"児湯郡木城町","town":"石河内"},{"zip_code":"8840103","prefecture_kana":"ミヤザキケン","city_kana":"コユグンキジョウチョウ","town_kana":"カワバル","prefecture":"宮崎県","city":"児湯郡木城町","town":"川原"},{"zip_code":"8840102","prefecture_kana":"ミヤザキケン","city_kana":"コユグンキジョウチョウ","town_kana":"シイノキ","prefecture":"宮崎県","city":"児湯郡木城町","town":"椎木"},{"zip_code":"8840101","prefecture_kana":"ミヤザキケン","city_kana":"コユグンキジョウチョウ","town_kana":"タカジョウ","prefecture":"宮崎県","city":"児湯郡木城町","town":"高城"},{"zip_code":"8840105","prefecture_kana":"ミヤザキケン","city_kana":"コユグンキジョウチョウ","town_kana":"ナカノマタ","prefecture":"宮崎県","city":"児湯郡木城町","town":"中之又"},{"zip_code":"8891300","prefecture_kana":"ミヤザキケン","city_kana":"コユグンカワミナミチョウ","town_kana":"イカニケイサイガナイバアイ","prefecture":"宮崎県","city":"児湯郡川南町","town":"以下に掲載がない場合"},{"zip_code":"8891301","prefecture_kana":"ミヤザキケン","city_kana":"コユグンカワミナミチョウ","town_kana":"カワミナミ","prefecture":"宮崎県","city":"児湯郡川南町","town":"川南"},{"zip_code":"8891302","prefecture_kana":"ミヤザキケン","city_kana":"コユグンカワミナミチョウ","town_kana":"ヘイダ","prefecture":"宮崎県","city":"児湯郡川南町","town":"平田"},{"zip_code":"8891200","prefecture_kana":"ミヤザキケン","city_kana":"コユグンツノチョウ","town_kana":"イカニケイサイガナイバアイ","prefecture":"宮崎県","city":"児湯郡都農町","town":"以下に掲載がない場合"},{"zip_code":"8891201","prefecture_kana":"ミヤザキケン","city_kana":"コユグンツノチョウ","town_kana":"カワキタ","prefecture":"宮崎県","city":"児湯郡都農町","town":"川北"},{"zip_code":"8890600","prefecture_kana":"ミヤザキケン","city_kana":"ヒガシウスキグンカドガワチョウ","town_kana":"イカニケイサイガナイバアイ","prefecture":"宮崎県","city":"東臼杵郡門川町","town":"以下に掲載がない場合"},{"zip_code":"8890602","prefecture_kana":"ミヤザキケン","city_kana":"ヒガシウスキグンカドガワチョウ","town_kana":"イオリガワ","prefecture":"宮崎県","city":"東臼杵郡門川町","town":"庵川"},{"zip_code":"8890605","prefecture_kana":"ミヤザキケン","city_kana":"ヒガシウスキグンカドガワチョウ","town_kana":"イオリガワニシ","prefecture":"宮崎県","city":"東臼杵郡門川町","town":"庵川西"},{"zip_code":"8890603","prefecture_kana":"ミヤザキケン","city_kana":"ヒガシウスキグンカドガワチョウ","town_kana":"カクサ","prefecture":"宮崎県","city":"東臼杵郡門川町","town":"加草"},{"zip_code":"8890611","prefecture_kana":"ミヤザキケン","city_kana":"ヒガシウスキグンカドガワチョウ","town_kana":"カドカワオズエ","prefecture":"宮崎県","city":"東臼杵郡門川町","town":"門川尾末"},{"zip_code":"8890614","prefecture_kana":"ミヤザキケン","city_kana":"ヒガシウスキグンカドガワチョウ","town_kana":"カミノマチ","prefecture":"宮崎県","city":"東臼杵郡門川町","town":"上町"},{"zip_code":"8890604","prefecture_kana":"ミヤザキケン","city_kana":"ヒガシウスキグンカドガワチョウ","town_kana":"カワチ","prefecture":"宮崎県","city":"東臼杵郡門川町","town":"川内"},{"zip_code":"8890615","prefecture_kana":"ミヤザキケン","city_kana":"ヒガシウスキグンカドガワチョウ","town_kana":"サカエガオカ","prefecture":"宮崎県","city":"東臼杵郡門川町","town":"栄ケ丘"},{"zip_code":"8890624","prefecture_kana":"ミヤザキケン","city_kana":"ヒガシウスキグンカドガワチョウ","town_kana":"ジョウガオカ","prefecture":"宮崎県","city":"東臼杵郡門川町","town":"城ケ丘"},{"zip_code":"8890601","prefecture_kana":"ミヤザキケン","city_kana":"ヒガシウスキグンカドガワチョウ","town_kana":"スガサキ","prefecture":"宮崎県","city":"東臼杵郡門川町","town":"須賀崎"},{"zip_code":"8890612","prefecture_kana":"ミヤザキケン","city_kana":"ヒガシウスキグンカドガワチョウ","town_kana":"ナカス","prefecture":"宮崎県","city":"東臼杵郡門川町","town":"中須"},{"zip_code":"8890622","prefecture_kana":"ミヤザキケン","city_kana":"ヒガシウスキグンカドガワチョウ","town_kana":"ニシサカエマチ","prefecture":"宮崎県","city":"東臼杵郡門川町","town":"西栄町"},{"zip_code":"8890621","prefecture_kana":"ミヤザキケン","city_kana":"ヒガシウスキグンカドガワチョウ","town_kana":"ヒガシサカエマチ","prefecture":"宮崎県","city":"東臼杵郡門川町","town":"東栄町"},{"zip_code":"8890626","prefecture_kana":"ミヤザキケン","city_kana":"ヒガシウスキグンカドガワチョウ","town_kana":"ヒラジョウニシ","prefecture":"宮崎県","city":"東臼杵郡門川町","town":"平城西"},{"zip_code":"8890625","prefecture_kana":"ミヤザキケン","city_kana":"ヒガシウスキグンカドガワチョウ","town_kana":"ヒラジョウヒガシ","prefecture":"宮崎県","city":"東臼杵郡門川町","town":"平城東"},{"zip_code":"8890613","prefecture_kana":"ミヤザキケン","city_kana":"ヒガシウスキグンカドガワチョウ","town_kana":"ホンマチ","prefecture":"宮崎県","city":"東臼杵郡門川町","town":"本町"},{"zip_code":"8890617","prefecture_kana":"ミヤザキケン","city_kana":"ヒガシウスキグンカドガワチョウ","town_kana":"ミナミガオカ","prefecture":"宮崎県","city":"東臼杵郡門川町","town":"南ケ丘"},{"zip_code":"8890616","prefecture_kana":"ミヤザキケン","city_kana":"ヒガシウスキグンカドガワチョウ","town_kana":"ミナミマチ","prefecture":"宮崎県","city":"東臼杵郡門川町","town":"南町"},{"zip_code":"8890623","prefecture_kana":"ミヤザキケン","city_kana":"ヒガシウスキグンカドガワチョウ","town_kana":"ミヤガハラ","prefecture":"宮崎県","city":"東臼杵郡門川町","town":"宮ケ原"},{"zip_code":"8831300","prefecture_kana":"ミヤザキケン","city_kana":"ヒガシウスキグンモロツカソン","town_kana":"イカニケイサイガナイバアイ","prefecture":"宮崎県","city":"東臼杵郡諸塚村","town":"以下に掲載がない場合"},{"zip_code":"8831301","prefecture_kana":"ミヤザキケン","city_kana":"ヒガシウスキグンモロツカソン","town_kana":"エシロ","prefecture":"宮崎県","city":"東臼杵郡諸塚村","town":"家代"},{"zip_code":"8831402","prefecture_kana":"ミヤザキケン","city_kana":"ヒガシウスキグンモロツカソン","town_kana":"ナナツヤマ（イイボシ、オバライ、カワウチ、タテイワ、ハエノヒラ、ホンムラ）","prefecture":"宮崎県","city":"東臼杵郡諸塚村","town":"七ツ山（飯干、小原井、川内、立岩、八重の平、本村）"},{"zip_code":"8831302","prefecture_kana":"ミヤザキケン","city_kana":"ヒガシウスキグンモロツカソン","town_kana":"ナナツヤマ（ソノタ）","prefecture":"宮崎県","city":"東臼杵郡諸塚村","town":"七ツ山（その他）"},{"zip_code":"8831600","prefecture_kana":"ミヤザキケン","city_kana":"ヒガシウスキグンシイバソン","town_kana":"イカニケイサイガナイバアイ","prefecture":"宮崎県","city":"東臼杵郡椎葉村","town":"以下に掲載がない場合"},{"zip_code":"8830402","prefecture_kana":"ミヤザキケン","city_kana":"ヒガシウスキグンシイバソン","town_kana":"オオカワウチ（１−１３０２バンチ）","prefecture":"宮崎県","city":"東臼杵郡椎葉村","town":"大河内（１〜１３０２番地）"},{"zip_code":"8831602","prefecture_kana":"ミヤザキケン","city_kana":"ヒガシウスキグンシイバソン","town_kana":"オオカワウチ（ソノタ）","prefecture":"宮崎県","city":"東臼杵郡椎葉村","town":"大河内（その他）"},{"zip_code":"8831601","prefecture_kana":"ミヤザキケン","city_kana":"ヒガシウスキグンシイバソン","town_kana":"シモフクラ","prefecture":"宮崎県","city":"東臼杵郡椎葉村","town":"下福良"},{"zip_code":"8831603","prefecture_kana":"ミヤザキケン","city_kana":"ヒガシウスキグンシイバソン","town_kana":"フドノ","prefecture":"宮崎県","city":"東臼杵郡椎葉村","town":"不土野"},{"zip_code":"8831604","prefecture_kana":"ミヤザキケン","city_kana":"ヒガシウスキグンシイバソン","town_kana":"マツオ","prefecture":"宮崎県","city":"東臼杵郡椎葉村","town":"松尾"},{"zip_code":"8831100","prefecture_kana":"ミヤザキケン","city_kana":"ヒガシウスキグンミサトチョウ","town_kana":"イカニケイサイガナイバアイ","prefecture":"宮崎県","city":"東臼杵郡美郷町","town":"以下に掲載がない場合"},{"zip_code":"8890901","prefecture_kana":"ミヤザキケン","city_kana":"ヒガシウスキグンミサトチョウ","town_kana":"キタゴウウナマ","prefecture":"宮崎県","city":"東臼杵郡美郷町","town":"北郷宇納間"},{"zip_code":"8890903","prefecture_kana":"ミヤザキケン","city_kana":"ヒガシウスキグンミサトチョウ","town_kana":"キタゴウクロギ","prefecture":"宮崎県","city":"東臼杵郡美郷町","town":"北郷黒木"},{"zip_code":"8890902","prefecture_kana":"ミヤザキケン","city_kana":"ヒガシウスキグンミサトチョウ","town_kana":"キタゴウニュウシタ","prefecture":"宮崎県","city":"東臼杵郡美郷町","town":"北郷入下"},{"zip_code":"8831212","prefecture_kana":"ミヤザキケン","city_kana":"ヒガシウスキグンミサトチョウ","town_kana":"サイゴウオバル","prefecture":"宮崎県","city":"東臼杵郡美郷町","town":"西郷小原"},{"zip_code":"8831101","prefecture_kana":"ミヤザキケン","city_kana":"ヒガシウスキグンミサトチョウ","town_kana":"サイゴウタシロ","prefecture":"宮崎県","city":"東臼杵郡美郷町","town":"西郷田代"},{"zip_code":"8831102","prefecture_kana":"ミヤザキケン","city_kana":"ヒガシウスキグンミサトチョウ","town_kana":"サイゴウタテイシ","prefecture":"宮崎県","city":"東臼杵郡美郷町","town":"西郷立石"},{"zip_code":"8831211","prefecture_kana":"ミヤザキケン","city_kana":"ヒガシウスキグンミサトチョウ","town_kana":"サイゴウヤマサンガ","prefecture":"宮崎県","city":"東臼杵郡美郷町","town":"西郷山三ヶ"},{"zip_code":"8830303","prefecture_kana":"ミヤザキケン","city_kana":"ヒガシウスキグンミサトチョウ","town_kana":"ナンゴウカミドガワ","prefecture":"宮崎県","city":"東臼杵郡美郷町","town":"南郷上渡川"},{"zip_code":"8830304","prefecture_kana":"ミヤザキケン","city_kana":"ヒガシウスキグンミサトチョウ","town_kana":"ナンゴウキジノ","prefecture":"宮崎県","city":"東臼杵郡美郷町","town":"南郷鬼神野"},{"zip_code":"8830302","prefecture_kana":"ミヤザキケン","city_kana":"ヒガシウスキグンミサトチョウ","town_kana":"ナンゴウナカドガワ","prefecture":"宮崎県","city":"東臼杵郡美郷町","town":"南郷中渡川"},{"zip_code":"8830306","prefecture_kana":"ミヤザキケン","city_kana":"ヒガシウスキグンミサトチョウ","town_kana":"ナンゴウミカド","prefecture":"宮崎県","city":"東臼杵郡美郷町","town":"南郷神門"},{"zip_code":"8830301","prefecture_kana":"ミヤザキケン","city_kana":"ヒガシウスキグンミサトチョウ","town_kana":"ナンゴウミズシダニ","prefecture":"宮崎県","city":"東臼杵郡美郷町","town":"南郷水清谷"},{"zip_code":"8830305","prefecture_kana":"ミヤザキケン","city_kana":"ヒガシウスキグンミサトチョウ","town_kana":"ナンゴウヤマサンガ","prefecture":"宮崎県","city":"東臼杵郡美郷町","town":"南郷山三ヶ"},{"zip_code":"8821100","prefecture_kana":"ミヤザキケン","city_kana":"ニシウスキグンタカチホチョウ","town_kana":"イカニケイサイガナイバアイ","prefecture":"宮崎県","city":"西臼杵郡高千穂町","town":"以下に掲載がない場合"},{"zip_code":"8821621","prefecture_kana":"ミヤザキケン","city_kana":"ニシウスキグンタカチホチョウ","town_kana":"イワト","prefecture":"宮崎県","city":"西臼杵郡高千穂町","town":"岩戸"},{"zip_code":"8821102","prefecture_kana":"ミヤザキケン","city_kana":"ニシウスキグンタカチホチョウ","town_kana":"オシカタ","prefecture":"宮崎県","city":"西臼杵郡高千穂町","town":"押方"},{"zip_code":"8821622","prefecture_kana":"ミヤザキケン","city_kana":"ニシウスキグンタカチホチョウ","town_kana":"カミイワト","prefecture":"宮崎県","city":"西臼杵郡高千穂町","town":"上岩戸"},{"zip_code":"8821411","prefecture_kana":"ミヤザキケン","city_kana":"ニシウスキグンタカチホチョウ","town_kana":"カミノ","prefecture":"宮崎県","city":"西臼杵郡高千穂町","town":"上野"},{"zip_code":"8821414","prefecture_kana":"ミヤザキケン","city_kana":"ニシウスキグンタカチホチョウ","town_kana":"カワチ","prefecture":"宮崎県","city":"西臼杵郡高千穂町","town":"河内"},{"zip_code":"8821415","prefecture_kana":"ミヤザキケン","city_kana":"ニシウスキグンタカチホチョウ","town_kana":"ゴカショ","prefecture":"宮崎県","city":"西臼杵郡高千穂町","town":"五ケ所"},{"zip_code":"8821412","prefecture_kana":"ミヤザキケン","city_kana":"ニシウスキグンタカチホチョウ","town_kana":"シモノ","prefecture":"宮崎県","city":"西臼杵郡高千穂町","town":"下野"},{"zip_code":"8821413","prefecture_kana":"ミヤザキケン","city_kana":"ニシウスキグンタカチホチョウ","town_kana":"タバル","prefecture":"宮崎県","city":"西臼杵郡高千穂町","town":"田原"},{"zip_code":"8821101","prefecture_kana":"ミヤザキケン","city_kana":"ニシウスキグンタカチホチョウ","town_kana":"ミタイ","prefecture":"宮崎県","city":"西臼杵郡高千穂町","town":"三田井"},{"zip_code":"8821103","prefecture_kana":"ミヤザキケン","city_kana":"ニシウスキグンタカチホチョウ","town_kana":"ムコウヤマ","prefecture":"宮崎県","city":"西臼杵郡高千穂町","town":"向山"},{"zip_code":"8820400","prefecture_kana":"ミヤザキケン","city_kana":"ニシウスキグンヒノカゲチョウ","town_kana":"イカニケイサイガナイバアイ","prefecture":"宮崎県","city":"西臼杵郡日之影町","town":"以下に掲載がない場合"},{"zip_code":"8820302","prefecture_kana":"ミヤザキケン","city_kana":"ニシウスキグンヒノカゲチョウ","town_kana":"イワイカワ（サカイノ）","prefecture":"宮崎県","city":"西臼杵郡日之影町","town":"岩井川（境野）"},{"zip_code":"8820402","prefecture_kana":"ミヤザキケン","city_kana":"ニシウスキグンヒノカゲチョウ","town_kana":"イワイカワ（ソノタ）","prefecture":"宮崎県","city":"西臼杵郡日之影町","town":"岩井川（その他）"},{"zip_code":"8820301","prefecture_kana":"ミヤザキケン","city_kana":"ニシウスキグンヒノカゲチョウ","town_kana":"ナナオリ（アゲ、カサド、カバギ、シシガワ、シンマチ、タキノウチ、ナカガワ、ニシノウチ、フネノオ、ヤト、ヤナザキ）","prefecture":"宮崎県","city":"西臼杵郡日之影町","town":"七折（阿下、笠戸、椛木、鹿川、新町、滝ノ内、中川、西ノ内、舟ノ尾、八戸、簗崎）"},{"zip_code":"8820401","prefecture_kana":"ミヤザキケン","city_kana":"ニシウスキグンヒノカゲチョウ","town_kana":"ナナオリ（ソノタ）","prefecture":"宮崎県","city":"西臼杵郡日之影町","town":"七折（その他）"},{"zip_code":"8820403","prefecture_kana":"ミヤザキケン","city_kana":"ニシウスキグンヒノカゲチョウ","town_kana":"ミタテ","prefecture":"宮崎県","city":"西臼杵郡日之影町","town":"見立"},{"zip_code":"8820304","prefecture_kana":"ミヤザキケン","city_kana":"ニシウスキグンヒノカゲチョウ","town_kana":"ワケジョウ","prefecture":"宮崎県","city":"西臼杵郡日之影町","town":"分城"},{"zip_code":"8821200","prefecture_kana":"ミヤザキケン","city_kana":"ニシウスキグンゴカセチョウ","town_kana":"イカニケイサイガナイバアイ","prefecture":"宮崎県","city":"西臼杵郡五ヶ瀬町","town":"以下に掲載がない場合"},{"zip_code":"8821201","prefecture_kana":"ミヤザキケン","city_kana":"ニシウスキグンゴカセチョウ","town_kana":"クラオカ","prefecture":"宮崎県","city":"西臼杵郡五ヶ瀬町","town":"鞍岡"},{"zip_code":"8821202","prefecture_kana":"ミヤザキケン","city_kana":"ニシウスキグンゴカセチョウ","town_kana":"クワノウチ","prefecture":"宮崎県","city":"西臼杵郡五ヶ瀬町","town":"桑野内"},{"zip_code":"8821203","prefecture_kana":"ミヤザキケン","city_kana":"ニシウスキグンゴカセチョウ","town_kana":"サンカショ","prefecture":"宮崎県","city":"西臼杵郡五ヶ瀬町","town":"三ヶ所"}]