[{"zip_code":"9000000","prefecture_kana":"オキナワケン","city_kana":"ナハシ","town_kana":"イカニケイサイガナイバアイ","prefecture":"沖縄県","city":"那覇市","town":"以下に掲載がない場合"},{"zip_code":"9010154","prefecture_kana":"オキナワケン","city_kana":"ナハシ","town_kana":"アカミネ","prefecture":"沖縄県","city":"那覇市","town":"赤嶺"},{"zip_code":"9000002","prefecture_kana":"オキナワケン","city_kana":"ナハシ","town_kana":"アケボノ","prefecture":"沖縄県","city":"那覇市","town":"曙"},{"zip_code":"9020067","prefecture_kana":"オキナワケン","city_kana":"ナハシ","town_kana":"アサト","prefecture":"沖縄県","city":"那覇市","town":"安里"},{"zip_code":"9000029","prefecture_kana":"オキナワケン","city_kana":"ナハシ","town_kana":"アサヒマチ","prefecture":"沖縄県","city":"那覇市","town":"旭町"},{"zip_code":"9010143","prefecture_kana":"オキナワケン","city_kana":"ナハシ","town_kana":"アシミネ","prefecture":"沖縄県","city":"那覇市","town":"安次嶺"},{"zip_code":"9000003","prefecture_kana":"オキナワケン","city_kana":"ナハシ","town_kana":"アジャ","prefecture":"沖縄県","city":"那覇市","town":"安謝"},{"zip_code":"9000005","prefecture_kana":"オキナワケン","city_kana":"ナハシ","town_kana":"アメク","prefecture":"沖縄県","city":"那覇市","town":"天久"},{"zip_code":"9000021","prefecture_kana":"オキナワケン","city_kana":"ナハシ","town_kana":"イズミザキ","prefecture":"沖縄県","city":"那覇市","town":"泉崎"},{"zip_code":"9000011","prefecture_kana":"オキナワケン","city_kana":"ナハシ","town_kana":"ウエノヤ","prefecture":"沖縄県","city":"那覇市","town":"上之屋"},{"zip_code":"9010153","prefecture_kana":"オキナワケン","city_kana":"ナハシ","town_kana":"ウエバル","prefecture":"沖縄県","city":"那覇市","town":"宇栄原"},{"zip_code":"9020073","prefecture_kana":"オキナワケン","city_kana":"ナハシ","town_kana":"ウエマ","prefecture":"沖縄県","city":"那覇市","town":"上間"},{"zip_code":"9000026","prefecture_kana":"オキナワケン","city_kana":"ナハシ","town_kana":"オオノヤマチョウ","prefecture":"沖縄県","city":"那覇市","town":"奥武山町"},{"zip_code":"9010148","prefecture_kana":"オキナワケン","city_kana":"ナハシ","town_kana":"オオミネ","prefecture":"沖縄県","city":"那覇市","town":"大嶺"},{"zip_code":"9000006","prefecture_kana":"オキナワケン","city_kana":"ナハシ","town_kana":"オモロマチ","prefecture":"沖縄県","city":"那覇市","town":"おもろまち"},{"zip_code":"9010152","prefecture_kana":"オキナワケン","city_kana":"ナハシ","town_kana":"オロク","prefecture":"沖縄県","city":"那覇市","town":"小禄"},{"zip_code":"9010142","prefecture_kana":"オキナワケン","city_kana":"ナハシ","town_kana":"カガミズ","prefecture":"沖縄県","city":"那覇市","town":"鏡水"},{"zip_code":"9000028","prefecture_kana":"オキナワケン","city_kana":"ナハシ","town_kana":"カキノハナチョウ","prefecture":"沖縄県","city":"那覇市","town":"垣花町"},{"zip_code":"9010155","prefecture_kana":"オキナワケン","city_kana":"ナハシ","town_kana":"カナグスク","prefecture":"沖縄県","city":"那覇市","town":"金城"},{"zip_code":"9010151","prefecture_kana":"オキナワケン","city_kana":"ナハシ","town_kana":"キョウハラチョウ","prefecture":"沖縄県","city":"那覇市","town":"鏡原町"},{"zip_code":"9010146","prefecture_kana":"オキナワケン","city_kana":"ナハシ","town_kana":"グシ","prefecture":"沖縄県","city":"那覇市","town":"具志"},{"zip_code":"9000033","prefecture_kana":"オキナワケン","city_kana":"ナハシ","town_kana":"クメ","prefecture":"沖縄県","city":"那覇市","town":"久米"},{"zip_code":"9000015","prefecture_kana":"オキナワケン","city_kana":"ナハシ","town_kana":"クモジ","prefecture":"沖縄県","city":"那覇市","town":"久茂地"},{"zip_code":"9020075","prefecture_kana":"オキナワケン","city_kana":"ナハシ","town_kana":"コクバ","prefecture":"沖縄県","city":"那覇市","town":"国場"},{"zip_code":"9000024","prefecture_kana":"オキナワケン","city_kana":"ナハシ","town_kana":"コハグラ","prefecture":"沖縄県","city":"那覇市","town":"古波蔵"},{"zip_code":"9020078","prefecture_kana":"オキナワケン","city_kana":"ナハシ","town_kana":"シキナ","prefecture":"沖縄県","city":"那覇市","town":"識名"},{"zip_code":"9030813","prefecture_kana":"オキナワケン","city_kana":"ナハシ","town_kana":"シュリアカタチョウ","prefecture":"沖縄県","city":"那覇市","town":"首里赤田町"},{"zip_code":"9030811","prefecture_kana":"オキナワケン","city_kana":"ナハシ","town_kana":"シュリアカヒラチョウ","prefecture":"沖縄県","city":"那覇市","town":"首里赤平町"},{"zip_code":"9030824","prefecture_kana":"オキナワケン","city_kana":"ナハシ","town_kana":"シュリイケハタチョウ","prefecture":"沖縄県","city":"那覇市","town":"首里池端町"},{"zip_code":"9030804","prefecture_kana":"オキナワケン","city_kana":"ナハシ","town_kana":"シュリイシミネチョウ","prefecture":"沖縄県","city":"那覇市","town":"首里石嶺町"},{"zip_code":"9030823","prefecture_kana":"オキナワケン","city_kana":"ナハシ","town_kana":"シュリオオナカチョウ","prefecture":"沖縄県","city":"那覇市","town":"首里大中町"},{"zip_code":"9030802","prefecture_kana":"オキナワケン","city_kana":"ナハシ","town_kana":"シュリオオナチョウ","prefecture":"沖縄県","city":"那覇市","town":"首里大名町"},{"zip_code":"9030815","prefecture_kana":"オキナワケン","city_kana":"ナハシ","town_kana":"シュリキンジョウチョウ","prefecture":"沖縄県","city":"那覇市","town":"首里金城町"},{"zip_code":"9030821","prefecture_kana":"オキナワケン","city_kana":"ナハシ","town_kana":"シュリギボチョウ","prefecture":"沖縄県","city":"那覇市","town":"首里儀保町"},{"zip_code":"9030807","prefecture_kana":"オキナワケン","city_kana":"ナハシ","town_kana":"シュリクバガワチョウ","prefecture":"沖縄県","city":"那覇市","town":"首里久場川町"},{"zip_code":"9030814","prefecture_kana":"オキナワケン","city_kana":"ナハシ","town_kana":"シュリサキヤマチョウ","prefecture":"沖縄県","city":"那覇市","town":"首里崎山町"},{"zip_code":"9030826","prefecture_kana":"オキナワケン","city_kana":"ナハシ","town_kana":"シュリサムカワチョウ","prefecture":"沖縄県","city":"那覇市","town":"首里寒川町"},{"zip_code":"9030801","prefecture_kana":"オキナワケン","city_kana":"ナハシ","town_kana":"シュリスエヨシチョウ","prefecture":"沖縄県","city":"那覇市","town":"首里末吉町"},{"zip_code":"9030803","prefecture_kana":"オキナワケン","city_kana":"ナハシ","town_kana":"シュリタイラチョウ","prefecture":"沖縄県","city":"那覇市","town":"首里平良町"},{"zip_code":"9030806","prefecture_kana":"オキナワケン","city_kana":"ナハシ","town_kana":"シュリテラチョウ","prefecture":"沖縄県","city":"那覇市","town":"首里汀良町"},{"zip_code":"9030812","prefecture_kana":"オキナワケン","city_kana":"ナハシ","town_kana":"シュリトウノクラチョウ","prefecture":"沖縄県","city":"那覇市","town":"首里当蔵町"},{"zip_code":"9030822","prefecture_kana":"オキナワケン","city_kana":"ナハシ","town_kana":"シュリトウバルチョウ","prefecture":"沖縄県","city":"那覇市","town":"首里桃原町"},{"zip_code":"9030805","prefecture_kana":"オキナワケン","city_kana":"ナハシ","town_kana":"シュリトリホリチョウ","prefecture":"沖縄県","city":"那覇市","town":"首里鳥堀町"},{"zip_code":"9030816","prefecture_kana":"オキナワケン","city_kana":"ナハシ","town_kana":"シュリマワシチョウ","prefecture":"沖縄県","city":"那覇市","town":"首里真和志町"},{"zip_code":"9030825","prefecture_kana":"オキナワケン","city_kana":"ナハシ","town_kana":"シュリヤマガワチョウ","prefecture":"沖縄県","city":"那覇市","town":"首里山川町"},{"zip_code":"9010141","prefecture_kana":"オキナワケン","city_kana":"ナハシ","town_kana":"スミヨシチョウ","prefecture":"沖縄県","city":"那覇市","town":"住吉町"},{"zip_code":"9000023","prefecture_kana":"オキナワケン","city_kana":"ナハシ","town_kana":"ソベ","prefecture":"沖縄県","city":"那覇市","town":"楚辺"},{"zip_code":"9020066","prefecture_kana":"オキナワケン","city_kana":"ナハシ","town_kana":"ダイドウ","prefecture":"沖縄県","city":"那覇市","town":"大道"},{"zip_code":"9010145","prefecture_kana":"オキナワケン","city_kana":"ナハシ","town_kana":"タカラ","prefecture":"沖縄県","city":"那覇市","town":"高良"},{"zip_code":"9010156","prefecture_kana":"オキナワケン","city_kana":"ナハシ","town_kana":"タバル","prefecture":"沖縄県","city":"那覇市","town":"田原"},{"zip_code":"9000037","prefecture_kana":"オキナワケン","city_kana":"ナハシ","town_kana":"ツジ","prefecture":"沖縄県","city":"那覇市","town":"辻"},{"zip_code":"9000025","prefecture_kana":"オキナワケン","city_kana":"ナハシ","town_kana":"ツボガワ","prefecture":"沖縄県","city":"那覇市","town":"壺川"},{"zip_code":"9020065","prefecture_kana":"オキナワケン","city_kana":"ナハシ","town_kana":"ツボヤ","prefecture":"沖縄県","city":"那覇市","town":"壺屋"},{"zip_code":"9010144","prefecture_kana":"オキナワケン","city_kana":"ナハシ","town_kana":"トウマ","prefecture":"沖縄県","city":"那覇市","town":"当間"},{"zip_code":"9000012","prefecture_kana":"オキナワケン","city_kana":"ナハシ","town_kana":"トマリ","prefecture":"沖縄県","city":"那覇市","town":"泊"},{"zip_code":"9000035","prefecture_kana":"オキナワケン","city_kana":"ナハシ","town_kana":"トンドウチョウ","prefecture":"沖縄県","city":"那覇市","town":"通堂町"},{"zip_code":"9020074","prefecture_kana":"オキナワケン","city_kana":"ナハシ","town_kana":"ナカイマ","prefecture":"沖縄県","city":"那覇市","town":"仲井真"},{"zip_code":"9020077","prefecture_kana":"オキナワケン","city_kana":"ナハシ","town_kana":"ナガタ","prefecture":"沖縄県","city":"那覇市","town":"長田"},{"zip_code":"9000036","prefecture_kana":"オキナワケン","city_kana":"ナハシ","town_kana":"ニシ","prefecture":"沖縄県","city":"那覇市","town":"西"},{"zip_code":"9020071","prefecture_kana":"オキナワケン","city_kana":"ナハシ","town_kana":"ハンタガワ","prefecture":"沖縄県","city":"那覇市","town":"繁多川"},{"zip_code":"9000034","prefecture_kana":"オキナワケン","city_kana":"ナハシ","town_kana":"ヒガシマチ","prefecture":"沖縄県","city":"那覇市","town":"東町"},{"zip_code":"9000022","prefecture_kana":"オキナワケン","city_kana":"ナハシ","town_kana":"ヒガワ","prefecture":"沖縄県","city":"那覇市","town":"樋川"},{"zip_code":"9020061","prefecture_kana":"オキナワケン","city_kana":"ナハシ","town_kana":"フルジマ","prefecture":"沖縄県","city":"那覇市","town":"古島"},{"zip_code":"9020072","prefecture_kana":"オキナワケン","city_kana":"ナハシ","town_kana":"マアジ","prefecture":"沖縄県","city":"那覇市","town":"真地"},{"zip_code":"9000016","prefecture_kana":"オキナワケン","city_kana":"ナハシ","town_kana":"マエジマ","prefecture":"沖縄県","city":"那覇市","town":"前島"},{"zip_code":"9020068","prefecture_kana":"オキナワケン","city_kana":"ナハシ","town_kana":"マカビ","prefecture":"沖縄県","city":"那覇市","town":"真嘉比"},{"zip_code":"9000013","prefecture_kana":"オキナワケン","city_kana":"ナハシ","town_kana":"マキシ","prefecture":"沖縄県","city":"那覇市","town":"牧志"},{"zip_code":"9000014","prefecture_kana":"オキナワケン","city_kana":"ナハシ","town_kana":"マツオ","prefecture":"沖縄県","city":"那覇市","town":"松尾"},{"zip_code":"9020062","prefecture_kana":"オキナワケン","city_kana":"ナハシ","town_kana":"マツガワ","prefecture":"沖縄県","city":"那覇市","town":"松川"},{"zip_code":"9020069","prefecture_kana":"オキナワケン","city_kana":"ナハシ","town_kana":"マツシマ","prefecture":"沖縄県","city":"那覇市","town":"松島"},{"zip_code":"9000032","prefecture_kana":"オキナワケン","city_kana":"ナハシ","town_kana":"マツヤマ","prefecture":"沖縄県","city":"那覇市","town":"松山"},{"zip_code":"9000001","prefecture_kana":"オキナワケン","city_kana":"ナハシ","town_kana":"ミナトマチ","prefecture":"沖縄県","city":"那覇市","town":"港町"},{"zip_code":"9020063","prefecture_kana":"オキナワケン","city_kana":"ナハシ","town_kana":"ミハラ","prefecture":"沖縄県","city":"那覇市","town":"三原"},{"zip_code":"9010147","prefecture_kana":"オキナワケン","city_kana":"ナハシ","town_kana":"ミヤグスク","prefecture":"沖縄県","city":"那覇市","town":"宮城"},{"zip_code":"9000004","prefecture_kana":"オキナワケン","city_kana":"ナハシ","town_kana":"メカル","prefecture":"沖縄県","city":"那覇市","town":"銘苅"},{"zip_code":"9000027","prefecture_kana":"オキナワケン","city_kana":"ナハシ","town_kana":"ヤマシタチョウ","prefecture":"沖縄県","city":"那覇市","town":"山下町"},{"zip_code":"9020076","prefecture_kana":"オキナワケン","city_kana":"ナハシ","town_kana":"ヨギ","prefecture":"沖縄県","city":"那覇市","town":"与儀"},{"zip_code":"9020064","prefecture_kana":"オキナワケン","city_kana":"ナハシ","town_kana":"ヨリミヤ","prefecture":"沖縄県","city":"那覇市","town":"寄宮"},{"zip_code":"9000031","prefecture_kana":"オキナワケン","city_kana":"ナハシ","town_kana":"ワカサ","prefecture":"沖縄県","city":"那覇市","town":"若狭"},{"zip_code":"9012200","prefecture_kana":"オキナワケン","city_kana":"ギノワンシ","town_kana":"イカニケイサイガナイバアイ","prefecture":"沖縄県","city":"宜野湾市","town":"以下に掲載がない場合"},{"zip_code":"9012206","prefecture_kana":"オキナワケン","city_kana":"ギノワンシ","town_kana":"アイチ","prefecture":"沖縄県","city":"宜野湾市","town":"愛知"},{"zip_code":"9012205","prefecture_kana":"オキナワケン","city_kana":"ギノワンシ","town_kana":"アカミチ","prefecture":"沖縄県","city":"宜野湾市","town":"赤道"},{"zip_code":"9012201","prefecture_kana":"オキナワケン","city_kana":"ギノワンシ","town_kana":"アラグスク","prefecture":"沖縄県","city":"宜野湾市","town":"新城"},{"zip_code":"9012221","prefecture_kana":"オキナワケン","city_kana":"ギノワンシ","town_kana":"イサ","prefecture":"沖縄県","city":"宜野湾市","town":"伊佐"},{"zip_code":"9012204","prefecture_kana":"オキナワケン","city_kana":"ギノワンシ","town_kana":"ウエハラ","prefecture":"沖縄県","city":"宜野湾市","town":"上原"},{"zip_code":"9012227","prefecture_kana":"オキナワケン","city_kana":"ギノワンシ","town_kana":"ウチドマリ","prefecture":"沖縄県","city":"宜野湾市","town":"宇地泊"},{"zip_code":"9012225","prefecture_kana":"オキナワケン","city_kana":"ギノワンシ","town_kana":"オオジャナ","prefecture":"沖縄県","city":"宜野湾市","town":"大謝名"},{"zip_code":"9012223","prefecture_kana":"オキナワケン","city_kana":"ギノワンシ","town_kana":"オオヤマ","prefecture":"沖縄県","city":"宜野湾市","town":"大山"},{"zip_code":"9012226","prefecture_kana":"オキナワケン","city_kana":"ギノワンシ","town_kana":"カカズ","prefecture":"沖縄県","city":"宜野湾市","town":"嘉数"},{"zip_code":"9012214","prefecture_kana":"オキナワケン","city_kana":"ギノワンシ","town_kana":"ガネコ","prefecture":"沖縄県","city":"宜野湾市","town":"我如古"},{"zip_code":"9012207","prefecture_kana":"オキナワケン","city_kana":"ギノワンシ","town_kana":"カミヤマ","prefecture":"沖縄県","city":"宜野湾市","town":"神山"},{"zip_code":"9012211","prefecture_kana":"オキナワケン","city_kana":"ギノワンシ","town_kana":"ギノワン","prefecture":"沖縄県","city":"宜野湾市","town":"宜野湾"},{"zip_code":"9012222","prefecture_kana":"オキナワケン","city_kana":"ギノワンシ","town_kana":"キユウナ","prefecture":"沖縄県","city":"宜野湾市","town":"喜友名"},{"zip_code":"9012216","prefecture_kana":"オキナワケン","city_kana":"ギノワンシ","town_kana":"サマシタ","prefecture":"沖縄県","city":"宜野湾市","town":"佐真下"},{"zip_code":"9012213","prefecture_kana":"オキナワケン","city_kana":"ギノワンシ","town_kana":"シマシ","prefecture":"沖縄県","city":"宜野湾市","town":"志真志"},{"zip_code":"9012212","prefecture_kana":"オキナワケン","city_kana":"ギノワンシ","town_kana":"ナガタ","prefecture":"沖縄県","city":"宜野湾市","town":"長田"},{"zip_code":"9012203","prefecture_kana":"オキナワケン","city_kana":"ギノワンシ","town_kana":"ノダケ","prefecture":"沖縄県","city":"宜野湾市","town":"野嵩"},{"zip_code":"9012202","prefecture_kana":"オキナワケン","city_kana":"ギノワンシ","town_kana":"フテンマ","prefecture":"沖縄県","city":"宜野湾市","town":"普天間"},{"zip_code":"9012215","prefecture_kana":"オキナワケン","city_kana":"ギノワンシ","town_kana":"マエハラ","prefecture":"沖縄県","city":"宜野湾市","town":"真栄原"},{"zip_code":"9012224","prefecture_kana":"オキナワケン","city_kana":"ギノワンシ","town_kana":"マシキ","prefecture":"沖縄県","city":"宜野湾市","town":"真志喜"},{"zip_code":"9070000","prefecture_kana":"オキナワケン","city_kana":"イシガキシ","town_kana":"イカニケイサイガナイバアイ","prefecture":"沖縄県","city":"石垣市","town":"以下に掲載がない場合"},{"zip_code":"9070024","prefecture_kana":"オキナワケン","city_kana":"イシガキシ","town_kana":"アラカワ","prefecture":"沖縄県","city":"石垣市","town":"新川"},{"zip_code":"9070023","prefecture_kana":"オキナワケン","city_kana":"イシガキシ","town_kana":"イシガキ","prefecture":"沖縄県","city":"石垣市","town":"石垣"},{"zip_code":"9070332","prefecture_kana":"オキナワケン","city_kana":"イシガキシ","town_kana":"イバルマ","prefecture":"沖縄県","city":"石垣市","town":"伊原間"},{"zip_code":"9070022","prefecture_kana":"オキナワケン","city_kana":"イシガキシ","town_kana":"オオカワ","prefecture":"沖縄県","city":"石垣市","town":"大川"},{"zip_code":"9070001","prefecture_kana":"オキナワケン","city_kana":"イシガキシ","town_kana":"オオハマ","prefecture":"沖縄県","city":"石垣市","town":"大浜"},{"zip_code":"9070453","prefecture_kana":"オキナワケン","city_kana":"イシガキシ","town_kana":"カビラ","prefecture":"沖縄県","city":"石垣市","town":"川平"},{"zip_code":"9070452","prefecture_kana":"オキナワケン","city_kana":"イシガキシ","town_kana":"サキエダ","prefecture":"沖縄県","city":"石垣市","town":"崎枝"},{"zip_code":"9070242","prefecture_kana":"オキナワケン","city_kana":"イシガキシ","town_kana":"シラホ","prefecture":"沖縄県","city":"石垣市","town":"白保"},{"zip_code":"9070014","prefecture_kana":"オキナワケン","city_kana":"イシガキシ","town_kana":"シンエイチョウ","prefecture":"沖縄県","city":"石垣市","town":"新栄町"},{"zip_code":"9070241","prefecture_kana":"オキナワケン","city_kana":"イシガキシ","town_kana":"トウザト","prefecture":"沖縄県","city":"石垣市","town":"桃里"},{"zip_code":"9070004","prefecture_kana":"オキナワケン","city_kana":"イシガキシ","town_kana":"トノシロ","prefecture":"沖縄県","city":"石垣市","town":"登野城"},{"zip_code":"9070031","prefecture_kana":"オキナワケン","city_kana":"イシガキシ","town_kana":"トノシロセンカク","prefecture":"沖縄県","city":"石垣市","town":"登野城尖閣"},{"zip_code":"9070021","prefecture_kana":"オキナワケン","city_kana":"イシガキシ","town_kana":"ナグラ","prefecture":"沖縄県","city":"石垣市","town":"名蔵"},{"zip_code":"9070333","prefecture_kana":"オキナワケン","city_kana":"イシガキシ","town_kana":"ノソコ","prefecture":"沖縄県","city":"石垣市","town":"野底"},{"zip_code":"9070015","prefecture_kana":"オキナワケン","city_kana":"イシガキシ","town_kana":"パイヌハマチョウ","prefecture":"沖縄県","city":"石垣市","town":"南ぬ浜町"},{"zip_code":"9070013","prefecture_kana":"オキナワケン","city_kana":"イシガキシ","town_kana":"ハマサキチョウ","prefecture":"沖縄県","city":"石垣市","town":"浜崎町"},{"zip_code":"9070003","prefecture_kana":"オキナワケン","city_kana":"イシガキシ","town_kana":"ヒラエ","prefecture":"沖縄県","city":"石垣市","town":"平得"},{"zip_code":"9070331","prefecture_kana":"オキナワケン","city_kana":"イシガキシ","town_kana":"ヒラクボ","prefecture":"沖縄県","city":"石垣市","town":"平久保"},{"zip_code":"9070451","prefecture_kana":"オキナワケン","city_kana":"イシガキシ","town_kana":"フカイ","prefecture":"沖縄県","city":"石垣市","town":"桴海"},{"zip_code":"9070002","prefecture_kana":"オキナワケン","city_kana":"イシガキシ","town_kana":"マエザト","prefecture":"沖縄県","city":"石垣市","town":"真栄里"},{"zip_code":"9070012","prefecture_kana":"オキナワケン","city_kana":"イシガキシ","town_kana":"ミサキチョウ","prefecture":"沖縄県","city":"石垣市","town":"美崎町"},{"zip_code":"9070243","prefecture_kana":"オキナワケン","city_kana":"イシガキシ","town_kana":"ミヤラ","prefecture":"沖縄県","city":"石垣市","town":"宮良"},{"zip_code":"9070244","prefecture_kana":"オキナワケン","city_kana":"イシガキシ","town_kana":"モリヤマ","prefecture":"沖縄県","city":"石垣市","town":"盛山"},{"zip_code":"9070011","prefecture_kana":"オキナワケン","city_kana":"イシガキシ","town_kana":"ヤシマチョウ","prefecture":"沖縄県","city":"石垣市","town":"八島町"},{"zip_code":"9012100","prefecture_kana":"オキナワケン","city_kana":"ウラソエシ","town_kana":"イカニケイサイガナイバアイ","prefecture":"沖縄県","city":"浦添市","town":"以下に掲載がない場合"},{"zip_code":"9012114","prefecture_kana":"オキナワケン","city_kana":"ウラソエシ","town_kana":"アハチャ","prefecture":"沖縄県","city":"浦添市","town":"安波茶"},{"zip_code":"9012132","prefecture_kana":"オキナワケン","city_kana":"ウラソエシ","town_kana":"イソ","prefecture":"沖縄県","city":"浦添市","town":"伊祖"},{"zip_code":"9012128","prefecture_kana":"オキナワケン","city_kana":"ウラソエシ","town_kana":"イナンセ","prefecture":"沖縄県","city":"浦添市","town":"伊奈武瀬"},{"zip_code":"9012123","prefecture_kana":"オキナワケン","city_kana":"ウラソエシ","town_kana":"イリジマ","prefecture":"沖縄県","city":"浦添市","town":"西洲"},{"zip_code":"9012121","prefecture_kana":"オキナワケン","city_kana":"ウラソエシ","town_kana":"ウチマ","prefecture":"沖縄県","city":"浦添市","town":"内間"},{"zip_code":"9012113","prefecture_kana":"オキナワケン","city_kana":"ウラソエシ","town_kana":"オオヒラ","prefecture":"沖縄県","city":"浦添市","town":"大平"},{"zip_code":"9012111","prefecture_kana":"オキナワケン","city_kana":"ウラソエシ","town_kana":"キョウヅカ","prefecture":"沖縄県","city":"浦添市","town":"経塚"},{"zip_code":"9012133","prefecture_kana":"オキナワケン","city_kana":"ウラソエシ","town_kana":"グスクマ","prefecture":"沖縄県","city":"浦添市","town":"城間"},{"zip_code":"9012124","prefecture_kana":"オキナワケン","city_kana":"ウラソエシ","town_kana":"コワン","prefecture":"沖縄県","city":"浦添市","town":"小湾"},{"zip_code":"9012122","prefecture_kana":"オキナワケン","city_kana":"ウラソエシ","town_kana":"ジッチャク","prefecture":"沖縄県","city":"浦添市","town":"勢理客"},{"zip_code":"9012112","prefecture_kana":"オキナワケン","city_kana":"ウラソエシ","town_kana":"タクシ","prefecture":"沖縄県","city":"浦添市","town":"沢岻"},{"zip_code":"9012104","prefecture_kana":"オキナワケン","city_kana":"ウラソエシ","town_kana":"トウヤマ","prefecture":"沖縄県","city":"浦添市","town":"当山"},{"zip_code":"9012103","prefecture_kana":"オキナワケン","city_kana":"ウラソエシ","town_kana":"ナカマ","prefecture":"沖縄県","city":"浦添市","town":"仲間"},{"zip_code":"9012125","prefecture_kana":"オキナワケン","city_kana":"ウラソエシ","town_kana":"ナカニシ","prefecture":"沖縄県","city":"浦添市","town":"仲西"},{"zip_code":"9012101","prefecture_kana":"オキナワケン","city_kana":"ウラソエシ","town_kana":"ニシハラ","prefecture":"沖縄県","city":"浦添市","town":"西原"},{"zip_code":"9012102","prefecture_kana":"オキナワケン","city_kana":"ウラソエシ","town_kana":"マエダ","prefecture":"沖縄県","city":"浦添市","town":"前田"},{"zip_code":"9012131","prefecture_kana":"オキナワケン","city_kana":"ウラソエシ","town_kana":"マキミナト","prefecture":"沖縄県","city":"浦添市","town":"牧港"},{"zip_code":"9012134","prefecture_kana":"オキナワケン","city_kana":"ウラソエシ","town_kana":"ミナトガワ","prefecture":"沖縄県","city":"浦添市","town":"港川"},{"zip_code":"9012126","prefecture_kana":"オキナワケン","city_kana":"ウラソエシ","town_kana":"ミヤギ","prefecture":"沖縄県","city":"浦添市","town":"宮城"},{"zip_code":"9012127","prefecture_kana":"オキナワケン","city_kana":"ウラソエシ","town_kana":"ヤフソ","prefecture":"沖縄県","city":"浦添市","town":"屋富祖"},{"zip_code":"9050000","prefecture_kana":"オキナワケン","city_kana":"ナゴシ","town_kana":"イカニケイサイガナイバアイ","prefecture":"沖縄県","city":"名護市","town":"以下に掲載がない場合"},{"zip_code":"9050021","prefecture_kana":"オキナワケン","city_kana":"ナゴシ","town_kana":"アガリエ","prefecture":"沖縄県","city":"名護市","town":"東江"},{"zip_code":"9050003","prefecture_kana":"オキナワケン","city_kana":"ナゴシ","town_kana":"アサヒカワ","prefecture":"沖縄県","city":"名護市","town":"旭川"},{"zip_code":"9052263","prefecture_kana":"オキナワケン","city_kana":"ナゴシ","town_kana":"アブ","prefecture":"沖縄県","city":"名護市","town":"安部"},{"zip_code":"9050001","prefecture_kana":"オキナワケン","city_kana":"ナゴシ","town_kana":"アワ","prefecture":"沖縄県","city":"名護市","town":"安和"},{"zip_code":"9051152","prefecture_kana":"オキナワケン","city_kana":"ナゴシ","town_kana":"イサガワ","prefecture":"沖縄県","city":"名護市","town":"伊差川"},{"zip_code":"9051142","prefecture_kana":"オキナワケン","city_kana":"ナゴシ","town_kana":"イナミネ","prefecture":"沖縄県","city":"名護市","town":"稲嶺"},{"zip_code":"9050006","prefecture_kana":"オキナワケン","city_kana":"ナゴシ","town_kana":"ウムサ","prefecture":"沖縄県","city":"名護市","town":"宇茂佐"},{"zip_code":"9050009","prefecture_kana":"オキナワケン","city_kana":"ナゴシ","town_kana":"ウムサノモリ","prefecture":"沖縄県","city":"名護市","town":"宇茂佐の森"},{"zip_code":"9051634","prefecture_kana":"オキナワケン","city_kana":"ナゴシ","town_kana":"ウンテンバル","prefecture":"沖縄県","city":"名護市","town":"運天原"},{"zip_code":"9052267","prefecture_kana":"オキナワケン","city_kana":"ナゴシ","town_kana":"オオウラ","prefecture":"沖縄県","city":"名護市","town":"大浦"},{"zip_code":"9052268","prefecture_kana":"オキナワケン","city_kana":"ナゴシ","town_kana":"オオカワ","prefecture":"沖縄県","city":"名護市","town":"大川"},{"zip_code":"9050019","prefecture_kana":"オキナワケン","city_kana":"ナゴシ","town_kana":"オオキタ","prefecture":"沖縄県","city":"名護市","town":"大北"},{"zip_code":"9050017","prefecture_kana":"オキナワケン","city_kana":"ナゴシ","town_kana":"オオナカ","prefecture":"沖縄県","city":"名護市","town":"大中"},{"zip_code":"9050018","prefecture_kana":"オキナワケン","city_kana":"ナゴシ","town_kana":"オオニシ","prefecture":"沖縄県","city":"名護市","town":"大西"},{"zip_code":"9050016","prefecture_kana":"オキナワケン","city_kana":"ナゴシ","town_kana":"オオヒガシ","prefecture":"沖縄県","city":"名護市","town":"大東"},{"zip_code":"9050015","prefecture_kana":"オキナワケン","city_kana":"ナゴシ","town_kana":"オオミナミ","prefecture":"沖縄県","city":"名護市","town":"大南"},{"zip_code":"9051146","prefecture_kana":"オキナワケン","city_kana":"ナゴシ","town_kana":"オヤカワ","prefecture":"沖縄県","city":"名護市","town":"親川"},{"zip_code":"9050002","prefecture_kana":"オキナワケン","city_kana":"ナゴシ","town_kana":"カツヤマ","prefecture":"沖縄県","city":"名護市","town":"勝山"},{"zip_code":"9051633","prefecture_kana":"オキナワケン","city_kana":"ナゴシ","town_kana":"ガブ","prefecture":"沖縄県","city":"名護市","town":"我部"},{"zip_code":"9051155","prefecture_kana":"オキナワケン","city_kana":"ナゴシ","town_kana":"ガブソカ","prefecture":"沖縄県","city":"名護市","town":"我部祖河"},{"zip_code":"9052262","prefecture_kana":"オキナワケン","city_kana":"ナゴシ","town_kana":"カヨウ","prefecture":"沖縄県","city":"名護市","town":"嘉陽"},{"zip_code":"9051145","prefecture_kana":"オキナワケン","city_kana":"ナゴシ","town_kana":"カワカミ","prefecture":"沖縄県","city":"名護市","town":"川上"},{"zip_code":"9050026","prefecture_kana":"オキナワケン","city_kana":"ナゴシ","town_kana":"キセ","prefecture":"沖縄県","city":"名護市","town":"喜瀬"},{"zip_code":"9050024","prefecture_kana":"オキナワケン","city_kana":"ナゴシ","town_kana":"キョダ","prefecture":"沖縄県","city":"名護市","town":"許田"},{"zip_code":"9052173","prefecture_kana":"オキナワケン","city_kana":"ナゴシ","town_kana":"クシ","prefecture":"沖縄県","city":"名護市","town":"久志"},{"zip_code":"9050013","prefecture_kana":"オキナワケン","city_kana":"ナゴシ","town_kana":"グスク","prefecture":"沖縄県","city":"名護市","town":"城"},{"zip_code":"9051141","prefecture_kana":"オキナワケン","city_kana":"ナゴシ","town_kana":"ゲンカ","prefecture":"沖縄県","city":"名護市","town":"源河"},{"zip_code":"9050025","prefecture_kana":"オキナワケン","city_kana":"ナゴシ","town_kana":"コウキ","prefecture":"沖縄県","city":"名護市","town":"幸喜"},{"zip_code":"9051154","prefecture_kana":"オキナワケン","city_kana":"ナゴシ","town_kana":"ゴガ","prefecture":"沖縄県","city":"名護市","town":"呉我"},{"zip_code":"9051156","prefecture_kana":"オキナワケン","city_kana":"ナゴシ","town_kana":"コガチ","prefecture":"沖縄県","city":"名護市","town":"古我知"},{"zip_code":"9050023","prefecture_kana":"オキナワケン","city_kana":"ナゴシ","town_kana":"スクタ","prefecture":"沖縄県","city":"名護市","town":"数久田"},{"zip_code":"9051635","prefecture_kana":"オキナワケン","city_kana":"ナゴシ","town_kana":"スムイデ","prefecture":"沖縄県","city":"名護市","town":"済井出"},{"zip_code":"9052266","prefecture_kana":"オキナワケン","city_kana":"ナゴシ","town_kana":"セダケ","prefecture":"沖縄県","city":"名護市","town":"瀬嵩"},{"zip_code":"9051147","prefecture_kana":"オキナワケン","city_kana":"ナゴシ","town_kana":"タイラ","prefecture":"沖縄県","city":"名護市","town":"田井等"},{"zip_code":"9052265","prefecture_kana":"オキナワケン","city_kana":"ナゴシ","town_kana":"テイマ","prefecture":"沖縄県","city":"名護市","town":"汀間"},{"zip_code":"9052261","prefecture_kana":"オキナワケン","city_kana":"ナゴシ","town_kana":"テニヤ","prefecture":"沖縄県","city":"名護市","town":"天仁屋"},{"zip_code":"9052172","prefecture_kana":"オキナワケン","city_kana":"ナゴシ","town_kana":"トヨハラ","prefecture":"沖縄県","city":"名護市","town":"豊原"},{"zip_code":"9051153","prefecture_kana":"オキナワケン","city_kana":"ナゴシ","town_kana":"ナカオ","prefecture":"沖縄県","city":"名護市","town":"仲尾"},{"zip_code":"9051144","prefecture_kana":"オキナワケン","city_kana":"ナゴシ","town_kana":"ナカオシ","prefecture":"沖縄県","city":"名護市","town":"仲尾次"},{"zip_code":"9050004","prefecture_kana":"オキナワケン","city_kana":"ナゴシ","town_kana":"ナカヤマ","prefecture":"沖縄県","city":"名護市","town":"中山"},{"zip_code":"9050012","prefecture_kana":"オキナワケン","city_kana":"ナゴシ","town_kana":"ナゴ","prefecture":"沖縄県","city":"名護市","town":"名護"},{"zip_code":"9050005","prefecture_kana":"オキナワケン","city_kana":"ナゴシ","town_kana":"ビイマタ","prefecture":"沖縄県","city":"名護市","town":"為又"},{"zip_code":"9052269","prefecture_kana":"オキナワケン","city_kana":"ナゴシ","town_kana":"フタミ","prefecture":"沖縄県","city":"名護市","town":"二見"},{"zip_code":"9051151","prefecture_kana":"オキナワケン","city_kana":"ナゴシ","town_kana":"ブリケナ","prefecture":"沖縄県","city":"名護市","town":"振慶名"},{"zip_code":"9052171","prefecture_kana":"オキナワケン","city_kana":"ナゴシ","town_kana":"ヘノコ","prefecture":"沖縄県","city":"名護市","town":"辺野古"},{"zip_code":"9051143","prefecture_kana":"オキナワケン","city_kana":"ナゴシ","town_kana":"マキヤ","prefecture":"沖縄県","city":"名護市","town":"真喜屋"},{"zip_code":"9050014","prefecture_kana":"オキナワケン","city_kana":"ナゴシ","town_kana":"ミナト","prefecture":"沖縄県","city":"名護市","town":"港"},{"zip_code":"9052264","prefecture_kana":"オキナワケン","city_kana":"ナゴシ","town_kana":"ミハラ","prefecture":"沖縄県","city":"名護市","town":"三原"},{"zip_code":"9050011","prefecture_kana":"オキナワケン","city_kana":"ナゴシ","town_kana":"ミヤザト","prefecture":"沖縄県","city":"名護市","town":"宮里"},{"zip_code":"9051631","prefecture_kana":"オキナワケン","city_kana":"ナゴシ","town_kana":"ヤガ","prefecture":"沖縄県","city":"名護市","town":"屋我"},{"zip_code":"9050007","prefecture_kana":"オキナワケン","city_kana":"ナゴシ","town_kana":"ヤブ","prefecture":"沖縄県","city":"名護市","town":"屋部"},{"zip_code":"9050008","prefecture_kana":"オキナワケン","city_kana":"ナゴシ","town_kana":"ヤマノハ","prefecture":"沖縄県","city":"名護市","town":"山入端"},{"zip_code":"9050022","prefecture_kana":"オキナワケン","city_kana":"ナゴシ","town_kana":"ヨフケ","prefecture":"沖縄県","city":"名護市","town":"世冨慶"},{"zip_code":"9051632","prefecture_kana":"オキナワケン","city_kana":"ナゴシ","town_kana":"ヨヘナ","prefecture":"沖縄県","city":"名護市","town":"饒平名"},{"zip_code":"9010300","prefecture_kana":"オキナワケン","city_kana":"イトマンシ","town_kana":"イカニケイサイガナイバアイ","prefecture":"沖縄県","city":"糸満市","town":"以下に掲載がない場合"},{"zip_code":"9010301","prefecture_kana":"オキナワケン","city_kana":"イトマンシ","town_kana":"アハゴン","prefecture":"沖縄県","city":"糸満市","town":"阿波根"},{"zip_code":"9010323","prefecture_kana":"オキナワケン","city_kana":"イトマンシ","town_kana":"アラカキ","prefecture":"沖縄県","city":"糸満市","town":"新垣"},{"zip_code":"9010363","prefecture_kana":"オキナワケン","city_kana":"イトマンシ","town_kana":"イシキ","prefecture":"沖縄県","city":"糸満市","town":"伊敷"},{"zip_code":"9010342","prefecture_kana":"オキナワケン","city_kana":"イトマンシ","town_kana":"イトス","prefecture":"沖縄県","city":"糸満市","town":"糸洲"},{"zip_code":"9010361","prefecture_kana":"オキナワケン","city_kana":"イトマンシ","town_kana":"イトマン","prefecture":"沖縄県","city":"糸満市","town":"糸満"},{"zip_code":"9010344","prefecture_kana":"オキナワケン","city_kana":"イトマンシ","town_kana":"イハラ","prefecture":"沖縄県","city":"糸満市","town":"伊原"},{"zip_code":"9010332","prefecture_kana":"オキナワケン","city_kana":"イトマンシ","town_kana":"ウエグスク","prefecture":"沖縄県","city":"糸満市","town":"宇江城"},{"zip_code":"9010325","prefecture_kana":"オキナワケン","city_kana":"イトマンシ","town_kana":"オオザト","prefecture":"沖縄県","city":"糸満市","town":"大里"},{"zip_code":"9010334","prefecture_kana":"オキナワケン","city_kana":"イトマンシ","town_kana":"オオド","prefecture":"沖縄県","city":"糸満市","town":"大度"},{"zip_code":"9010313","prefecture_kana":"オキナワケン","city_kana":"イトマンシ","town_kana":"カカズ","prefecture":"沖縄県","city":"糸満市","town":"賀数"},{"zip_code":"9010303","prefecture_kana":"オキナワケン","city_kana":"イトマンシ","town_kana":"カネグスク","prefecture":"沖縄県","city":"糸満市","town":"兼城"},{"zip_code":"9010312","prefecture_kana":"オキナワケン","city_kana":"イトマンシ","town_kana":"キタナミヒラ","prefecture":"沖縄県","city":"糸満市","town":"北波平"},{"zip_code":"9010354","prefecture_kana":"オキナワケン","city_kana":"イトマンシ","town_kana":"キャン","prefecture":"沖縄県","city":"糸満市","town":"喜屋武"},{"zip_code":"9010324","prefecture_kana":"オキナワケン","city_kana":"イトマンシ","town_kana":"クニヨシ","prefecture":"沖縄県","city":"糸満市","town":"国吉"},{"zip_code":"9010341","prefecture_kana":"オキナワケン","city_kana":"イトマンシ","town_kana":"コハグラ","prefecture":"沖縄県","city":"糸満市","town":"小波蔵"},{"zip_code":"9010335","prefecture_kana":"オキナワケン","city_kana":"イトマンシ","town_kana":"コメス","prefecture":"沖縄県","city":"糸満市","town":"米須"},{"zip_code":"9010314","prefecture_kana":"オキナワケン","city_kana":"イトマンシ","town_kana":"ザハ","prefecture":"沖縄県","city":"糸満市","town":"座波"},{"zip_code":"9010364","prefecture_kana":"オキナワケン","city_kana":"イトマンシ","town_kana":"シオザキチョウ","prefecture":"沖縄県","city":"糸満市","town":"潮崎町"},{"zip_code":"9010302","prefecture_kana":"オキナワケン","city_kana":"イトマンシ","town_kana":"シオヒラ","prefecture":"沖縄県","city":"糸満市","town":"潮平"},{"zip_code":"9010311","prefecture_kana":"オキナワケン","city_kana":"イトマンシ","town_kana":"タケトミ","prefecture":"沖縄県","city":"糸満市","town":"武富"},{"zip_code":"9010353","prefecture_kana":"オキナワケン","city_kana":"イトマンシ","town_kana":"ツカザト","prefecture":"沖縄県","city":"糸満市","town":"束里"},{"zip_code":"9010315","prefecture_kana":"オキナワケン","city_kana":"イトマンシ","town_kana":"テルヤ","prefecture":"沖縄県","city":"糸満市","town":"照屋"},{"zip_code":"9010321","prefecture_kana":"オキナワケン","city_kana":"イトマンシ","town_kana":"トヨハラ","prefecture":"沖縄県","city":"糸満市","town":"豊原"},{"zip_code":"9010351","prefecture_kana":"オキナワケン","city_kana":"イトマンシ","town_kana":"ナシロ","prefecture":"沖縄県","city":"糸満市","town":"名城"},{"zip_code":"9010304","prefecture_kana":"オキナワケン","city_kana":"イトマンシ","town_kana":"ニシカワチョウ","prefecture":"沖縄県","city":"糸満市","town":"西川町"},{"zip_code":"9010305","prefecture_kana":"オキナワケン","city_kana":"イトマンシ","town_kana":"ニシザキ","prefecture":"沖縄県","city":"糸満市","town":"西崎"},{"zip_code":"9010306","prefecture_kana":"オキナワケン","city_kana":"イトマンシ","town_kana":"ニシザキチョウ","prefecture":"沖縄県","city":"糸満市","town":"西崎町"},{"zip_code":"9010345","prefecture_kana":"オキナワケン","city_kana":"イトマンシ","town_kana":"フクジ","prefecture":"沖縄県","city":"糸満市","town":"福地"},{"zip_code":"9010362","prefecture_kana":"オキナワケン","city_kana":"イトマンシ","town_kana":"マエザト","prefecture":"沖縄県","city":"糸満市","town":"真栄里"},{"zip_code":"9010331","prefecture_kana":"オキナワケン","city_kana":"イトマンシ","town_kana":"マエヒラ","prefecture":"沖縄県","city":"糸満市","town":"真栄平"},{"zip_code":"9010336","prefecture_kana":"オキナワケン","city_kana":"イトマンシ","town_kana":"マカベ","prefecture":"沖縄県","city":"糸満市","town":"真壁"},{"zip_code":"9010333","prefecture_kana":"オキナワケン","city_kana":"イトマンシ","town_kana":"マブニ","prefecture":"沖縄県","city":"糸満市","town":"摩文仁"},{"zip_code":"9010343","prefecture_kana":"オキナワケン","city_kana":"イトマンシ","town_kana":"ミナミナミヒラ","prefecture":"沖縄県","city":"糸満市","town":"南波平"},{"zip_code":"9010352","prefecture_kana":"オキナワケン","city_kana":"イトマンシ","town_kana":"ヤマグスク","prefecture":"沖縄県","city":"糸満市","town":"山城"},{"zip_code":"9010322","prefecture_kana":"オキナワケン","city_kana":"イトマンシ","town_kana":"ヨザ","prefecture":"沖縄県","city":"糸満市","town":"与座"},{"zip_code":"9040000","prefecture_kana":"オキナワケン","city_kana":"オキナワシ","town_kana":"イカニケイサイガナイバアイ","prefecture":"沖縄県","city":"沖縄市","town":"以下に掲載がない場合"},{"zip_code":"9042152","prefecture_kana":"オキナワケン","city_kana":"オキナワシ","town_kana":"アケミチ","prefecture":"沖縄県","city":"沖縄市","town":"明道"},{"zip_code":"9040012","prefecture_kana":"オキナワケン","city_kana":"オキナワシ","town_kana":"アゲダ","prefecture":"沖縄県","city":"沖縄市","town":"安慶田"},{"zip_code":"9042172","prefecture_kana":"オキナワケン","city_kana":"オキナワシ","town_kana":"アワセ","prefecture":"沖縄県","city":"沖縄市","town":"泡瀬"},{"zip_code":"9042141","prefecture_kana":"オキナワケン","city_kana":"オキナワシ","town_kana":"イケハラ","prefecture":"沖縄県","city":"沖縄市","town":"池原"},{"zip_code":"9040031","prefecture_kana":"オキナワケン","city_kana":"オキナワシ","town_kana":"ウエチ","prefecture":"沖縄県","city":"沖縄市","town":"上地"},{"zip_code":"9042163","prefecture_kana":"オキナワケン","city_kana":"オキナワシ","town_kana":"オオザト","prefecture":"沖縄県","city":"沖縄市","town":"大里"},{"zip_code":"9042162","prefecture_kana":"オキナワケン","city_kana":"オキナワシ","town_kana":"カイホウ","prefecture":"沖縄県","city":"沖縄市","town":"海邦"},{"zip_code":"9042162","prefecture_kana":"オキナワケン","city_kana":"オキナワシ","town_kana":"カイホウチョウ","prefecture":"沖縄県","city":"沖縄市","town":"海邦町"},{"zip_code":"9040005","prefecture_kana":"オキナワケン","city_kana":"オキナワシ","town_kana":"カマラ","prefecture":"沖縄県","city":"沖縄市","town":"嘉間良"},{"zip_code":"9040023","prefecture_kana":"オキナワケン","city_kana":"オキナワシ","town_kana":"クボタ","prefecture":"沖縄県","city":"沖縄市","town":"久保田"},{"zip_code":"9042145","prefecture_kana":"オキナワケン","city_kana":"オキナワシ","town_kana":"クラシキ","prefecture":"沖縄県","city":"沖縄市","town":"倉敷"},{"zip_code":"9042161","prefecture_kana":"オキナワケン","city_kana":"オキナワシ","town_kana":"コジャ","prefecture":"沖縄県","city":"沖縄市","town":"古謝"},{"zip_code":"9042166","prefecture_kana":"オキナワケン","city_kana":"オキナワシ","town_kana":"コジャツカザンチョウ","prefecture":"沖縄県","city":"沖縄市","town":"古謝津嘉山町"},{"zip_code":"9040001","prefecture_kana":"オキナワケン","city_kana":"オキナワシ","town_kana":"ゴエク","prefecture":"沖縄県","city":"沖縄市","town":"越来"},{"zip_code":"9040021","prefecture_kana":"オキナワケン","city_kana":"オキナワシ","town_kana":"ゴヤ","prefecture":"沖縄県","city":"沖縄市","town":"胡屋"},{"zip_code":"9042175","prefecture_kana":"オキナワケン","city_kana":"オキナワシ","town_kana":"シオノモリ","prefecture":"沖縄県","city":"沖縄市","town":"潮乃森"},{"zip_code":"9042144","prefecture_kana":"オキナワケン","city_kana":"オキナワシ","town_kana":"シラカワ","prefecture":"沖縄県","city":"沖縄市","town":"白川"},{"zip_code":"9040002","prefecture_kana":"オキナワケン","city_kana":"オキナワシ","town_kana":"シロマエチョウ","prefecture":"沖縄県","city":"沖縄市","town":"城前町"},{"zip_code":"9040003","prefecture_kana":"オキナワケン","city_kana":"オキナワシ","town_kana":"スミヨシ","prefecture":"沖縄県","city":"沖縄市","town":"住吉"},{"zip_code":"9040022","prefecture_kana":"オキナワケン","city_kana":"オキナワシ","town_kana":"ソノダ","prefecture":"沖縄県","city":"沖縄市","town":"園田"},{"zip_code":"9042171","prefecture_kana":"オキナワケン","city_kana":"オキナワシ","town_kana":"タカハラ","prefecture":"沖縄県","city":"沖縄市","town":"高原"},{"zip_code":"9042143","prefecture_kana":"オキナワケン","city_kana":"オキナワシ","town_kana":"チバナ","prefecture":"沖縄県","city":"沖縄市","town":"知花"},{"zip_code":"9040004","prefecture_kana":"オキナワケン","city_kana":"オキナワシ","town_kana":"チュウオウ","prefecture":"沖縄県","city":"沖縄市","town":"中央"},{"zip_code":"9040011","prefecture_kana":"オキナワケン","city_kana":"オキナワシ","town_kana":"テルヤ","prefecture":"沖縄県","city":"沖縄市","town":"照屋"},{"zip_code":"9042164","prefecture_kana":"オキナワケン","city_kana":"オキナワシ","town_kana":"トウバル","prefecture":"沖縄県","city":"沖縄市","town":"桃原"},{"zip_code":"9040014","prefecture_kana":"オキナワケン","city_kana":"オキナワシ","town_kana":"ナカソネチョウ","prefecture":"沖縄県","city":"沖縄市","town":"仲宗根町"},{"zip_code":"9042142","prefecture_kana":"オキナワケン","city_kana":"オキナワシ","town_kana":"ノボリカワ","prefecture":"沖縄県","city":"沖縄市","town":"登川"},{"zip_code":"9042154","prefecture_kana":"オキナワケン","city_kana":"オキナワシ","town_kana":"ヒガシ","prefecture":"沖縄県","city":"沖縄市","town":"東"},{"zip_code":"9042173","prefecture_kana":"オキナワケン","city_kana":"オキナワシ","town_kana":"ヒヤゴン","prefecture":"沖縄県","city":"沖縄市","town":"比屋根"},{"zip_code":"9042151","prefecture_kana":"オキナワケン","city_kana":"オキナワシ","town_kana":"マツモト","prefecture":"沖縄県","city":"沖縄市","town":"松本"},{"zip_code":"9042153","prefecture_kana":"オキナワケン","city_kana":"オキナワシ","town_kana":"ミサト","prefecture":"沖縄県","city":"沖縄市","town":"美里"},{"zip_code":"9042156","prefecture_kana":"オキナワケン","city_kana":"オキナワシ","town_kana":"ミサトナカハラチョウ","prefecture":"沖縄県","city":"沖縄市","town":"美里仲原町"},{"zip_code":"9040035","prefecture_kana":"オキナワケン","city_kana":"オキナワシ","town_kana":"ミナミトウバル","prefecture":"沖縄県","city":"沖縄市","town":"南桃原"},{"zip_code":"9042155","prefecture_kana":"オキナワケン","city_kana":"オキナワシ","town_kana":"ミハラ","prefecture":"沖縄県","city":"沖縄市","town":"美原"},{"zip_code":"9042165","prefecture_kana":"オキナワケン","city_kana":"オキナワシ","town_kana":"ミヤザト","prefecture":"沖縄県","city":"沖縄市","town":"宮里"},{"zip_code":"9040013","prefecture_kana":"オキナワケン","city_kana":"オキナワシ","town_kana":"ムロカワ","prefecture":"沖縄県","city":"沖縄市","town":"室川"},{"zip_code":"9040032","prefecture_kana":"オキナワケン","city_kana":"オキナワシ","town_kana":"モロミザト","prefecture":"沖縄県","city":"沖縄市","town":"諸見里"},{"zip_code":"9040006","prefecture_kana":"オキナワケン","city_kana":"オキナワシ","town_kana":"ヤエシマ","prefecture":"沖縄県","city":"沖縄市","town":"八重島"},{"zip_code":"9040034","prefecture_kana":"オキナワケン","city_kana":"オキナワシ","town_kana":"ヤマウチ","prefecture":"沖縄県","city":"沖縄市","town":"山内"},{"zip_code":"9040033","prefecture_kana":"オキナワケン","city_kana":"オキナワシ","town_kana":"ヤマザト","prefecture":"沖縄県","city":"沖縄市","town":"山里"},{"zip_code":"9042174","prefecture_kana":"オキナワケン","city_kana":"オキナワシ","town_kana":"ヨギ","prefecture":"沖縄県","city":"沖縄市","town":"与儀"},{"zip_code":"9010200","prefecture_kana":"オキナワケン","city_kana":"トミグスクシ","town_kana":"イカニケイサイガナイバアイ","prefecture":"沖縄県","city":"豊見城市","town":"以下に掲載がない場合"},{"zip_code":"9010232","prefecture_kana":"オキナワケン","city_kana":"トミグスクシ","town_kana":"イラハ","prefecture":"沖縄県","city":"豊見城市","town":"伊良波"},{"zip_code":"9010243","prefecture_kana":"オキナワケン","city_kana":"トミグスクシ","town_kana":"ウエタ","prefecture":"沖縄県","city":"豊見城市","town":"上田"},{"zip_code":"9010223","prefecture_kana":"オキナワケン","city_kana":"トミグスクシ","town_kana":"オナガ","prefecture":"沖縄県","city":"豊見城市","town":"翁長"},{"zip_code":"9010202","prefecture_kana":"オキナワケン","city_kana":"トミグスクシ","town_kana":"カカズ","prefecture":"沖縄県","city":"豊見城市","town":"嘉数"},{"zip_code":"9010231","prefecture_kana":"オキナワケン","city_kana":"トミグスクシ","town_kana":"ガナハ","prefecture":"沖縄県","city":"豊見城市","town":"我那覇"},{"zip_code":"9010204","prefecture_kana":"オキナワケン","city_kana":"トミグスクシ","town_kana":"カネラ","prefecture":"沖縄県","city":"豊見城市","town":"金良"},{"zip_code":"9010244","prefecture_kana":"オキナワケン","city_kana":"トミグスクシ","town_kana":"ギボ","prefecture":"沖縄県","city":"豊見城市","town":"宜保"},{"zip_code":"9010221","prefecture_kana":"オキナワケン","city_kana":"トミグスクシ","town_kana":"ザヤス","prefecture":"沖縄県","city":"豊見城市","town":"座安"},{"zip_code":"9010233","prefecture_kana":"オキナワケン","city_kana":"トミグスクシ","town_kana":"セナガ","prefecture":"沖縄県","city":"豊見城市","town":"瀬長"},{"zip_code":"9010212","prefecture_kana":"オキナワケン","city_kana":"トミグスクシ","town_kana":"タイラ","prefecture":"沖縄県","city":"豊見城市","town":"平良"},{"zip_code":"9010213","prefecture_kana":"オキナワケン","city_kana":"トミグスクシ","town_kana":"タカミネ","prefecture":"沖縄県","city":"豊見城市","town":"高嶺"},{"zip_code":"9010242","prefecture_kana":"オキナワケン","city_kana":"トミグスクシ","town_kana":"タカヤス","prefecture":"沖縄県","city":"豊見城市","town":"高安"},{"zip_code":"9010234","prefecture_kana":"オキナワケン","city_kana":"トミグスクシ","town_kana":"タガミ","prefecture":"沖縄県","city":"豊見城市","town":"田頭"},{"zip_code":"9010215","prefecture_kana":"オキナワケン","city_kana":"トミグスクシ","town_kana":"トカシキ","prefecture":"沖縄県","city":"豊見城市","town":"渡嘉敷"},{"zip_code":"9010222","prefecture_kana":"オキナワケン","city_kana":"トミグスクシ","town_kana":"トハシナ","prefecture":"沖縄県","city":"豊見城市","town":"渡橋名"},{"zip_code":"9010241","prefecture_kana":"オキナワケン","city_kana":"トミグスクシ","town_kana":"トミグスク","prefecture":"沖縄県","city":"豊見城市","town":"豊見城"},{"zip_code":"9010225","prefecture_kana":"オキナワケン","city_kana":"トミグスクシ","town_kana":"トヨサキ","prefecture":"沖縄県","city":"豊見城市","town":"豊崎"},{"zip_code":"9010235","prefecture_kana":"オキナワケン","city_kana":"トミグスクシ","town_kana":"ナカチ","prefecture":"沖縄県","city":"豊見城市","town":"名嘉地"},{"zip_code":"9010203","prefecture_kana":"オキナワケン","city_kana":"トミグスクシ","town_kana":"ナガドウ","prefecture":"沖縄県","city":"豊見城市","town":"長堂"},{"zip_code":"9010205","prefecture_kana":"オキナワケン","city_kana":"トミグスクシ","town_kana":"ネサブ","prefecture":"沖縄県","city":"豊見城市","town":"根差部"},{"zip_code":"9010211","prefecture_kana":"オキナワケン","city_kana":"トミグスクシ","town_kana":"ノハ","prefecture":"沖縄県","city":"豊見城市","town":"饒波"},{"zip_code":"9010214","prefecture_kana":"オキナワケン","city_kana":"トミグスクシ","town_kana":"ビン","prefecture":"沖縄県","city":"豊見城市","town":"保栄茂"},{"zip_code":"9010201","prefecture_kana":"オキナワケン","city_kana":"トミグスクシ","town_kana":"マダンバシ","prefecture":"沖縄県","city":"豊見城市","town":"真玉橋"},{"zip_code":"9010224","prefecture_kana":"オキナワケン","city_kana":"トミグスクシ","town_kana":"ヨネ","prefecture":"沖縄県","city":"豊見城市","town":"与根"},{"zip_code":"9042200","prefecture_kana":"オキナワケン","city_kana":"ウルマシ","town_kana":"イカニケイサイガナイバアイ","prefecture":"沖縄県","city":"うるま市","town":"以下に掲載がない場合"},{"zip_code":"9042212","prefecture_kana":"オキナワケン","city_kana":"ウルマシ","town_kana":"アカノ","prefecture":"沖縄県","city":"うるま市","town":"赤野"},{"zip_code":"9042245","prefecture_kana":"オキナワケン","city_kana":"ウルマシ","town_kana":"アカミチ","prefecture":"沖縄県","city":"うるま市","town":"赤道"},{"zip_code":"9042214","prefecture_kana":"オキナワケン","city_kana":"ウルマシ","town_kana":"アゲナ","prefecture":"沖縄県","city":"うるま市","town":"安慶名"},{"zip_code":"9041106","prefecture_kana":"オキナワケン","city_kana":"ウルマシ","town_kana":"イシカワ","prefecture":"沖縄県","city":"うるま市","town":"石川"},{"zip_code":"9041103","prefecture_kana":"オキナワケン","city_kana":"ウルマシ","town_kana":"イシカワアカサキ","prefecture":"沖縄県","city":"うるま市","town":"石川赤崎"},{"zip_code":"9041102","prefecture_kana":"オキナワケン","city_kana":"ウルマシ","town_kana":"イシカワアガリヤマ","prefecture":"沖縄県","city":"うるま市","town":"石川東山"},{"zip_code":"9041101","prefecture_kana":"オキナワケン","city_kana":"ウルマシ","town_kana":"イシカワアガリヤマモトマチ","prefecture":"沖縄県","city":"うるま市","town":"石川東山本町"},{"zip_code":"9041107","prefecture_kana":"オキナワケン","city_kana":"ウルマシ","town_kana":"イシカワアケボノ","prefecture":"沖縄県","city":"うるま市","town":"石川曙"},{"zip_code":"9041104","prefecture_kana":"オキナワケン","city_kana":"ウルマシ","town_kana":"イシカワイシザキ","prefecture":"沖縄県","city":"うるま市","town":"石川石崎"},{"zip_code":"9041115","prefecture_kana":"オキナワケン","city_kana":"ウルマシ","town_kana":"イシカワイハ","prefecture":"沖縄県","city":"うるま市","town":"石川伊波"},{"zip_code":"9041114","prefecture_kana":"オキナワケン","city_kana":"ウルマシ","town_kana":"イシカワカデカル","prefecture":"沖縄県","city":"うるま市","town":"石川嘉手苅"},{"zip_code":"9041105","prefecture_kana":"オキナワケン","city_kana":"ウルマシ","town_kana":"イシカワシラハマ","prefecture":"沖縄県","city":"うるま市","town":"石川白浜"},{"zip_code":"9041112","prefecture_kana":"オキナワケン","city_kana":"ウルマシ","town_kana":"イシカワソナン","prefecture":"沖縄県","city":"うるま市","town":"石川楚南"},{"zip_code":"9041111","prefecture_kana":"オキナワケン","city_kana":"ウルマシ","town_kana":"イシカワヒガシオンナ","prefecture":"沖縄県","city":"うるま市","town":"石川東恩納"},{"zip_code":"9041108","prefecture_kana":"オキナワケン","city_kana":"ウルマシ","town_kana":"イシカワヒガシオンナザキ","prefecture":"沖縄県","city":"うるま市","town":"石川東恩納崎"},{"zip_code":"9041113","prefecture_kana":"オキナワケン","city_kana":"ウルマシ","town_kana":"イシカワヤマシロ","prefecture":"沖縄県","city":"うるま市","town":"石川山城"},{"zip_code":"9042204","prefecture_kana":"オキナワケン","city_kana":"ウルマシ","town_kana":"イリバル","prefecture":"沖縄県","city":"うるま市","town":"西原"},{"zip_code":"9042222","prefecture_kana":"オキナワケン","city_kana":"ウルマシ","town_kana":"ウエズ","prefecture":"沖縄県","city":"うるま市","town":"上江洲"},{"zip_code":"9042211","prefecture_kana":"オキナワケン","city_kana":"ウルマシ","town_kana":"ウケン","prefecture":"沖縄県","city":"うるま市","town":"宇堅"},{"zip_code":"9042244","prefecture_kana":"オキナワケン","city_kana":"ウルマシ","town_kana":"エス","prefecture":"沖縄県","city":"うるま市","town":"江洲"},{"zip_code":"9042205","prefecture_kana":"オキナワケン","city_kana":"ウルマシ","town_kana":"エノビ","prefecture":"沖縄県","city":"うるま市","town":"栄野比"},{"zip_code":"9042224","prefecture_kana":"オキナワケン","city_kana":"ウルマシ","town_kana":"オオタ","prefecture":"沖縄県","city":"うるま市","town":"大田"},{"zip_code":"9042313","prefecture_kana":"オキナワケン","city_kana":"ウルマシ","town_kana":"カツレンウチマ","prefecture":"沖縄県","city":"うるま市","town":"勝連内間"},{"zip_code":"9042317","prefecture_kana":"オキナワケン","city_kana":"ウルマシ","town_kana":"カツレンツケン","prefecture":"沖縄県","city":"うるま市","town":"勝連津堅"},{"zip_code":"9042311","prefecture_kana":"オキナワケン","city_kana":"ウルマシ","town_kana":"カツレンハエバル","prefecture":"沖縄県","city":"うるま市","town":"勝連南風原"},{"zip_code":"9042315","prefecture_kana":"オキナワケン","city_kana":"ウルマシ","town_kana":"カツレンハマ","prefecture":"沖縄県","city":"うるま市","town":"勝連浜"},{"zip_code":"9042316","prefecture_kana":"オキナワケン","city_kana":"ウルマシ","town_kana":"カツレンヒガ","prefecture":"沖縄県","city":"うるま市","town":"勝連比嘉"},{"zip_code":"9042314","prefecture_kana":"オキナワケン","city_kana":"ウルマシ","town_kana":"カツレンヘシキヤ","prefecture":"沖縄県","city":"うるま市","town":"勝連平敷屋"},{"zip_code":"9042312","prefecture_kana":"オキナワケン","city_kana":"ウルマシ","town_kana":"カツレンヘンナ","prefecture":"沖縄県","city":"うるま市","town":"勝連平安名"},{"zip_code":"9042241","prefecture_kana":"オキナワケン","city_kana":"ウルマシ","town_kana":"カネカダン","prefecture":"沖縄県","city":"うるま市","town":"兼箇段"},{"zip_code":"9042203","prefecture_kana":"オキナワケン","city_kana":"ウルマシ","town_kana":"カワサキ","prefecture":"沖縄県","city":"うるま市","town":"川崎"},{"zip_code":"9042232","prefecture_kana":"オキナワケン","city_kana":"ウルマシ","town_kana":"カワタ","prefecture":"沖縄県","city":"うるま市","town":"川田"},{"zip_code":"9042236","prefecture_kana":"オキナワケン","city_kana":"ウルマシ","town_kana":"キナカ","prefecture":"沖縄県","city":"うるま市","town":"喜仲"},{"zip_code":"9042225","prefecture_kana":"オキナワケン","city_kana":"ウルマシ","town_kana":"キャン","prefecture":"沖縄県","city":"うるま市","town":"喜屋武"},{"zip_code":"9042223","prefecture_kana":"オキナワケン","city_kana":"ウルマシ","town_kana":"グシカワ","prefecture":"沖縄県","city":"うるま市","town":"具志川"},{"zip_code":"9042201","prefecture_kana":"オキナワケン","city_kana":"ウルマシ","town_kana":"コンブ","prefecture":"沖縄県","city":"うるま市","town":"昆布"},{"zip_code":"9042231","prefecture_kana":"オキナワケン","city_kana":"ウルマシ","town_kana":"シオヤ","prefecture":"沖縄県","city":"うるま市","town":"塩屋"},{"zip_code":"9042234","prefecture_kana":"オキナワケン","city_kana":"ウルマシ","town_kana":"スザキ","prefecture":"沖縄県","city":"うるま市","town":"州崎"},{"zip_code":"9042221","prefecture_kana":"オキナワケン","city_kana":"ウルマシ","town_kana":"タイラガワ","prefecture":"沖縄県","city":"うるま市","town":"平良川"},{"zip_code":"9042242","prefecture_kana":"オキナワケン","city_kana":"ウルマシ","town_kana":"タカエス","prefecture":"沖縄県","city":"うるま市","town":"高江洲"},{"zip_code":"9042213","prefecture_kana":"オキナワケン","city_kana":"ウルマシ","town_kana":"タバ","prefecture":"沖縄県","city":"うるま市","town":"田場"},{"zip_code":"9042202","prefecture_kana":"オキナワケン","city_kana":"ウルマシ","town_kana":"テンガン","prefecture":"沖縄県","city":"うるま市","town":"天願"},{"zip_code":"9042233","prefecture_kana":"オキナワケン","city_kana":"ウルマシ","town_kana":"トヨハラ","prefecture":"沖縄県","city":"うるま市","town":"豊原"},{"zip_code":"9042226","prefecture_kana":"オキナワケン","city_kana":"ウルマシ","town_kana":"ナカミネ","prefecture":"沖縄県","city":"うるま市","town":"仲嶺"},{"zip_code":"9042235","prefecture_kana":"オキナワケン","city_kana":"ウルマシ","town_kana":"マエハラ","prefecture":"沖縄県","city":"うるま市","town":"前原"},{"zip_code":"9042215","prefecture_kana":"オキナワケン","city_kana":"ウルマシ","town_kana":"ミドリマチ","prefecture":"沖縄県","city":"うるま市","town":"みどり町"},{"zip_code":"9042243","prefecture_kana":"オキナワケン","city_kana":"ウルマシ","town_kana":"ミヤザト","prefecture":"沖縄県","city":"うるま市","town":"宮里"},{"zip_code":"9042303","prefecture_kana":"オキナワケン","city_kana":"ウルマシ","town_kana":"ヨナシロ","prefecture":"沖縄県","city":"うるま市","town":"与那城"},{"zip_code":"9042306","prefecture_kana":"オキナワケン","city_kana":"ウルマシ","town_kana":"ヨナシロアセリ","prefecture":"沖縄県","city":"うるま市","town":"与那城安勢理"},{"zip_code":"9042421","prefecture_kana":"オキナワケン","city_kana":"ウルマシ","town_kana":"ヨナシロイケイ","prefecture":"沖縄県","city":"うるま市","town":"与那城伊計"},{"zip_code":"9042422","prefecture_kana":"オキナワケン","city_kana":"ウルマシ","town_kana":"ヨナシロイケミ","prefecture":"沖縄県","city":"うるま市","town":"与那城池味"},{"zip_code":"9042424","prefecture_kana":"オキナワケン","city_kana":"ウルマシ","town_kana":"ヨナシロウエハラ","prefecture":"沖縄県","city":"うるま市","town":"与那城上原"},{"zip_code":"9042305","prefecture_kana":"オキナワケン","city_kana":"ウルマシ","town_kana":"ヨナシロチュウオウ","prefecture":"沖縄県","city":"うるま市","town":"与那城中央"},{"zip_code":"9042301","prefecture_kana":"オキナワケン","city_kana":"ウルマシ","town_kana":"ヨナシロテルマ","prefecture":"沖縄県","city":"うるま市","town":"与那城照間"},{"zip_code":"9042425","prefecture_kana":"オキナワケン","city_kana":"ウルマシ","town_kana":"ヨナシロトウバル","prefecture":"沖縄県","city":"うるま市","town":"与那城桃原"},{"zip_code":"9042302","prefecture_kana":"オキナワケン","city_kana":"ウルマシ","town_kana":"ヨナシロニシハラ","prefecture":"沖縄県","city":"うるま市","town":"与那城西原"},{"zip_code":"9042307","prefecture_kana":"オキナワケン","city_kana":"ウルマシ","town_kana":"ヨナシロノヘン","prefecture":"沖縄県","city":"うるま市","town":"与那城饒辺"},{"zip_code":"9042428","prefecture_kana":"オキナワケン","city_kana":"ウルマシ","town_kana":"ヨナシロヒラミヤ","prefecture":"沖縄県","city":"うるま市","town":"与那城平宮"},{"zip_code":"9042426","prefecture_kana":"オキナワケン","city_kana":"ウルマシ","town_kana":"ヨナシロヘンザ","prefecture":"沖縄県","city":"うるま市","town":"与那城平安座"},{"zip_code":"9042423","prefecture_kana":"オキナワケン","city_kana":"ウルマシ","town_kana":"ヨナシロミヤギ","prefecture":"沖縄県","city":"うるま市","town":"与那城宮城"},{"zip_code":"9042304","prefecture_kana":"オキナワケン","city_kana":"ウルマシ","town_kana":"ヨナシロヤケナ","prefecture":"沖縄県","city":"うるま市","town":"与那城屋慶名"},{"zip_code":"9042427","prefecture_kana":"オキナワケン","city_kana":"ウルマシ","town_kana":"ヨナシロヤヒラ","prefecture":"沖縄県","city":"うるま市","town":"与那城屋平"},{"zip_code":"9060000","prefecture_kana":"オキナワケン","city_kana":"ミヤコジマシ","town_kana":"イカニケイサイガナイバアイ","prefecture":"沖縄県","city":"宮古島市","town":"以下に掲載がない場合"},{"zip_code":"9060502","prefecture_kana":"オキナワケン","city_kana":"ミヤコジマシ","town_kana":"イラブイケマソエ","prefecture":"沖縄県","city":"宮古島市","town":"伊良部池間添"},{"zip_code":"9060503","prefecture_kana":"オキナワケン","city_kana":"ミヤコジマシ","town_kana":"イラブイラブ","prefecture":"沖縄県","city":"宮古島市","town":"伊良部伊良部"},{"zip_code":"9060505","prefecture_kana":"オキナワケン","city_kana":"ミヤコジマシ","town_kana":"イラブクニナカ","prefecture":"沖縄県","city":"宮古島市","town":"伊良部国仲"},{"zip_code":"9060507","prefecture_kana":"オキナワケン","city_kana":"ミヤコジマシ","town_kana":"イラブサワダ","prefecture":"沖縄県","city":"宮古島市","town":"伊良部佐和田"},{"zip_code":"9060504","prefecture_kana":"オキナワケン","city_kana":"ミヤコジマシ","town_kana":"イラブナカチ","prefecture":"沖縄県","city":"宮古島市","town":"伊良部仲地"},{"zip_code":"9060506","prefecture_kana":"オキナワケン","city_kana":"ミヤコジマシ","town_kana":"イラブナガハマ","prefecture":"沖縄県","city":"宮古島市","town":"伊良部長浜"},{"zip_code":"9060501","prefecture_kana":"オキナワケン","city_kana":"ミヤコジマシ","town_kana":"イラブマエサトソエ","prefecture":"沖縄県","city":"宮古島市","town":"伊良部前里添"},{"zip_code":"9060204","prefecture_kana":"オキナワケン","city_kana":"ミヤコジマシ","town_kana":"ウエノウエノ","prefecture":"沖縄県","city":"宮古島市","town":"上野上野"},{"zip_code":"9060202","prefecture_kana":"オキナワケン","city_kana":"ミヤコジマシ","town_kana":"ウエノシンザト","prefecture":"沖縄県","city":"宮古島市","town":"上野新里"},{"zip_code":"9060201","prefecture_kana":"オキナワケン","city_kana":"ミヤコジマシ","town_kana":"ウエノノバル","prefecture":"沖縄県","city":"宮古島市","town":"上野野原"},{"zip_code":"9060203","prefecture_kana":"オキナワケン","city_kana":"ミヤコジマシ","town_kana":"ウエノミヤグニ","prefecture":"沖縄県","city":"宮古島市","town":"上野宮国"},{"zip_code":"9060102","prefecture_kana":"オキナワケン","city_kana":"ミヤコジマシ","town_kana":"グスクベアラグスク","prefecture":"沖縄県","city":"宮古島市","town":"城辺新城"},{"zip_code":"9060108","prefecture_kana":"オキナワケン","city_kana":"ミヤコジマシ","town_kana":"グスクベウルカ","prefecture":"沖縄県","city":"宮古島市","town":"城辺砂川"},{"zip_code":"9060109","prefecture_kana":"オキナワケン","city_kana":"ミヤコジマシ","town_kana":"グスクベシモザトソエ","prefecture":"沖縄県","city":"宮古島市","town":"城辺下里添"},{"zip_code":"9060107","prefecture_kana":"オキナワケン","city_kana":"ミヤコジマシ","town_kana":"グスクベトモリ","prefecture":"沖縄県","city":"宮古島市","town":"城辺友利"},{"zip_code":"9060105","prefecture_kana":"オキナワケン","city_kana":"ミヤコジマシ","town_kana":"グスクベナガマ","prefecture":"沖縄県","city":"宮古島市","town":"城辺長間"},{"zip_code":"9060106","prefecture_kana":"オキナワケン","city_kana":"ミヤコジマシ","town_kana":"グスクベニシザトソエ","prefecture":"沖縄県","city":"宮古島市","town":"城辺西里添"},{"zip_code":"9060104","prefecture_kana":"オキナワケン","city_kana":"ミヤコジマシ","town_kana":"グスクベヒガ","prefecture":"沖縄県","city":"宮古島市","town":"城辺比嘉"},{"zip_code":"9060103","prefecture_kana":"オキナワケン","city_kana":"ミヤコジマシ","town_kana":"グスクベフクザト","prefecture":"沖縄県","city":"宮古島市","town":"城辺福里"},{"zip_code":"9060101","prefecture_kana":"オキナワケン","city_kana":"ミヤコジマシ","town_kana":"グスクベボラ","prefecture":"沖縄県","city":"宮古島市","town":"城辺保良"},{"zip_code":"9060304","prefecture_kana":"オキナワケン","city_kana":"ミヤコジマシ","town_kana":"シモジウエチ","prefecture":"沖縄県","city":"宮古島市","town":"下地上地"},{"zip_code":"9060302","prefecture_kana":"オキナワケン","city_kana":"ミヤコジマシ","town_kana":"シモジカデカリ","prefecture":"沖縄県","city":"宮古島市","town":"下地嘉手苅"},{"zip_code":"9060301","prefecture_kana":"オキナワケン","city_kana":"ミヤコジマシ","town_kana":"シモジカワミツ","prefecture":"沖縄県","city":"宮古島市","town":"下地川満"},{"zip_code":"9060306","prefecture_kana":"オキナワケン","city_kana":"ミヤコジマシ","town_kana":"シモジクリマ","prefecture":"沖縄県","city":"宮古島市","town":"下地来間"},{"zip_code":"9060303","prefecture_kana":"オキナワケン","city_kana":"ミヤコジマシ","town_kana":"シモジスガマ","prefecture":"沖縄県","city":"宮古島市","town":"下地洲鎌"},{"zip_code":"9060305","prefecture_kana":"オキナワケン","city_kana":"ミヤコジマシ","town_kana":"シモジヨナハ","prefecture":"沖縄県","city":"宮古島市","town":"下地与那覇"},{"zip_code":"9060421","prefecture_kana":"オキナワケン","city_kana":"ミヤコジマシ","town_kana":"ヒラライケマ","prefecture":"沖縄県","city":"宮古島市","town":"平良池間"},{"zip_code":"9060004","prefecture_kana":"オキナワケン","city_kana":"ミヤコジマシ","town_kana":"ヒララオオウラ","prefecture":"沖縄県","city":"宮古島市","town":"平良大浦"},{"zip_code":"9060001","prefecture_kana":"オキナワケン","city_kana":"ミヤコジマシ","town_kana":"ヒララオオガミ","prefecture":"沖縄県","city":"宮古島市","town":"平良大神"},{"zip_code":"9060002","prefecture_kana":"オキナワケン","city_kana":"ミヤコジマシ","town_kana":"ヒララカリマタ","prefecture":"沖縄県","city":"宮古島市","town":"平良狩俣"},{"zip_code":"9060015","prefecture_kana":"オキナワケン","city_kana":"ミヤコジマシ","town_kana":"ヒララクガイ","prefecture":"沖縄県","city":"宮古島市","town":"平良久貝"},{"zip_code":"9060003","prefecture_kana":"オキナワケン","city_kana":"ミヤコジマシ","town_kana":"ヒララシマジリ","prefecture":"沖縄県","city":"宮古島市","town":"平良島尻"},{"zip_code":"9060013","prefecture_kana":"オキナワケン","city_kana":"ミヤコジマシ","town_kana":"ヒララシモザト","prefecture":"沖縄県","city":"宮古島市","town":"平良下里"},{"zip_code":"9060008","prefecture_kana":"オキナワケン","city_kana":"ミヤコジマシ","town_kana":"ヒララニカドリ","prefecture":"沖縄県","city":"宮古島市","town":"平良荷川取"},{"zip_code":"9060012","prefecture_kana":"オキナワケン","city_kana":"ミヤコジマシ","town_kana":"ヒララニシザト","prefecture":"沖縄県","city":"宮古島市","town":"平良西里"},{"zip_code":"9060006","prefecture_kana":"オキナワケン","city_kana":"ミヤコジマシ","town_kana":"ヒララニシナカソネ","prefecture":"沖縄県","city":"宮古島市","town":"平良西仲宗根"},{"zip_code":"9060005","prefecture_kana":"オキナワケン","city_kana":"ミヤコジマシ","town_kana":"ヒララニシハラ","prefecture":"沖縄県","city":"宮古島市","town":"平良西原"},{"zip_code":"9060007","prefecture_kana":"オキナワケン","city_kana":"ミヤコジマシ","town_kana":"ヒララヒガシナカソネ","prefecture":"沖縄県","city":"宮古島市","town":"平良東仲宗根"},{"zip_code":"9060011","prefecture_kana":"オキナワケン","city_kana":"ミヤコジマシ","town_kana":"ヒララヒガシナカソネゾエ","prefecture":"沖縄県","city":"宮古島市","town":"平良東仲宗根添"},{"zip_code":"9060422","prefecture_kana":"オキナワケン","city_kana":"ミヤコジマシ","town_kana":"ヒララマエザト","prefecture":"沖縄県","city":"宮古島市","town":"平良前里"},{"zip_code":"9060014","prefecture_kana":"オキナワケン","city_kana":"ミヤコジマシ","town_kana":"ヒララマツバラ","prefecture":"沖縄県","city":"宮古島市","town":"平良松原"},{"zip_code":"9011400","prefecture_kana":"オキナワケン","city_kana":"ナンジョウシ","town_kana":"イカニケイサイガナイバアイ","prefecture":"沖縄県","city":"南城市","town":"以下に掲載がない場合"},{"zip_code":"9011204","prefecture_kana":"オキナワケン","city_kana":"ナンジョウシ","town_kana":"オオザトイナミネ","prefecture":"沖縄県","city":"南城市","town":"大里稲嶺"},{"zip_code":"9011202","prefecture_kana":"オキナワケン","city_kana":"ナンジョウシ","town_kana":"オオザトオオザト","prefecture":"沖縄県","city":"南城市","town":"大里大里"},{"zip_code":"9011203","prefecture_kana":"オキナワケン","city_kana":"ナンジョウシ","town_kana":"オオザトオオシロ","prefecture":"沖縄県","city":"南城市","town":"大里大城"},{"zip_code":"9011208","prefecture_kana":"オキナワケン","city_kana":"ナンジョウシ","town_kana":"オオザトタイラ","prefecture":"沖縄県","city":"南城市","town":"大里平良"},{"zip_code":"9011205","prefecture_kana":"オキナワケン","city_kana":"ナンジョウシ","town_kana":"オオザトタカヒラ","prefecture":"沖縄県","city":"南城市","town":"大里高平"},{"zip_code":"9011206","prefecture_kana":"オキナワケン","city_kana":"ナンジョウシ","town_kana":"オオザトナカマ","prefecture":"沖縄県","city":"南城市","town":"大里仲間"},{"zip_code":"9011207","prefecture_kana":"オキナワケン","city_kana":"ナンジョウシ","town_kana":"オオザトフルゲン","prefecture":"沖縄県","city":"南城市","town":"大里古堅"},{"zip_code":"9011201","prefecture_kana":"オキナワケン","city_kana":"ナンジョウシ","town_kana":"オオザトミネイ","prefecture":"沖縄県","city":"南城市","town":"大里嶺井"},{"zip_code":"9011401","prefecture_kana":"オキナワケン","city_kana":"ナンジョウシ","town_kana":"サシキイバラ","prefecture":"沖縄県","city":"南城市","town":"佐敷伊原"},{"zip_code":"9011413","prefecture_kana":"オキナワケン","city_kana":"ナンジョウシ","town_kana":"サシキオコク","prefecture":"沖縄県","city":"南城市","town":"佐敷小谷"},{"zip_code":"9011411","prefecture_kana":"オキナワケン","city_kana":"ナンジョウシ","town_kana":"サシキカネク","prefecture":"沖縄県","city":"南城市","town":"佐敷兼久"},{"zip_code":"9011403","prefecture_kana":"オキナワケン","city_kana":"ナンジョウシ","town_kana":"サシキサシキ","prefecture":"沖縄県","city":"南城市","town":"佐敷佐敷"},{"zip_code":"9011415","prefecture_kana":"オキナワケン","city_kana":"ナンジョウシ","town_kana":"サシキシンカイ","prefecture":"沖縄県","city":"南城市","town":"佐敷新開"},{"zip_code":"9011412","prefecture_kana":"オキナワケン","city_kana":"ナンジョウシ","town_kana":"サシキシンザト","prefecture":"沖縄県","city":"南城市","town":"佐敷新里"},{"zip_code":"9011414","prefecture_kana":"オキナワケン","city_kana":"ナンジョウシ","town_kana":"サシキツハコ","prefecture":"沖縄県","city":"南城市","town":"佐敷津波古"},{"zip_code":"9011402","prefecture_kana":"オキナワケン","city_kana":"ナンジョウシ","town_kana":"サシキテドコン","prefecture":"沖縄県","city":"南城市","town":"佐敷手登根"},{"zip_code":"9011405","prefecture_kana":"オキナワケン","city_kana":"ナンジョウシ","town_kana":"サシキナカイホ","prefecture":"沖縄県","city":"南城市","town":"佐敷仲伊保"},{"zip_code":"9011404","prefecture_kana":"オキナワケン","city_kana":"ナンジョウシ","town_kana":"サシキフソザキ","prefecture":"沖縄県","city":"南城市","town":"佐敷冨祖崎"},{"zip_code":"9011406","prefecture_kana":"オキナワケン","city_kana":"ナンジョウシ","town_kana":"サシキヤビク","prefecture":"沖縄県","city":"南城市","town":"佐敷屋比久"},{"zip_code":"9010617","prefecture_kana":"オキナワケン","city_kana":"ナンジョウシ","town_kana":"タマグスクアイチ","prefecture":"沖縄県","city":"南城市","town":"玉城愛地"},{"zip_code":"9010606","prefecture_kana":"オキナワケン","city_kana":"ナンジョウシ","town_kana":"タマグスクイトカズ","prefecture":"沖縄県","city":"南城市","town":"玉城糸数"},{"zip_code":"9010614","prefecture_kana":"オキナワケン","city_kana":"ナンジョウシ","town_kana":"タマグスクオウ","prefecture":"沖縄県","city":"南城市","town":"玉城奥武"},{"zip_code":"9010608","prefecture_kana":"オキナワケン","city_kana":"ナンジョウシ","town_kana":"タマグスクオヤケバル","prefecture":"沖縄県","city":"南城市","town":"玉城親慶原"},{"zip_code":"9010601","prefecture_kana":"オキナワケン","city_kana":"ナンジョウシ","town_kana":"タマグスクカキノハナ","prefecture":"沖縄県","city":"南城市","town":"玉城垣花"},{"zip_code":"9010607","prefecture_kana":"オキナワケン","city_kana":"ナンジョウシ","town_kana":"タマグスクキラバル","prefecture":"沖縄県","city":"南城市","town":"玉城喜良原"},{"zip_code":"9010613","prefecture_kana":"オキナワケン","city_kana":"ナンジョウシ","town_kana":"タマグスクシケンバル","prefecture":"沖縄県","city":"南城市","town":"玉城志堅原"},{"zip_code":"9010604","prefecture_kana":"オキナワケン","city_kana":"ナンジョウシ","town_kana":"タマグスクタマグスク","prefecture":"沖縄県","city":"南城市","town":"玉城玉城"},{"zip_code":"9010612","prefecture_kana":"オキナワケン","city_kana":"ナンジョウシ","town_kana":"タマグスクトウヤマ","prefecture":"沖縄県","city":"南城市","town":"玉城當山"},{"zip_code":"9010605","prefecture_kana":"オキナワケン","city_kana":"ナンジョウシ","town_kana":"タマグスクナカヤマ","prefecture":"沖縄県","city":"南城市","town":"玉城中山"},{"zip_code":"9010602","prefecture_kana":"オキナワケン","city_kana":"ナンジョウシ","town_kana":"タマグスクナカンダカリ","prefecture":"沖縄県","city":"南城市","town":"玉城仲村渠"},{"zip_code":"9010603","prefecture_kana":"オキナワケン","city_kana":"ナンジョウシ","town_kana":"タマグスクヒャクナ","prefecture":"沖縄県","city":"南城市","town":"玉城百名"},{"zip_code":"9010611","prefecture_kana":"オキナワケン","city_kana":"ナンジョウシ","town_kana":"タマグスクフサト","prefecture":"沖縄県","city":"南城市","town":"玉城富里"},{"zip_code":"9010618","prefecture_kana":"オキナワケン","city_kana":"ナンジョウシ","town_kana":"タマグスクフナコシ","prefecture":"沖縄県","city":"南城市","town":"玉城船越"},{"zip_code":"9010615","prefecture_kana":"オキナワケン","city_kana":"ナンジョウシ","town_kana":"タマグスクホリカワ","prefecture":"沖縄県","city":"南城市","town":"玉城堀川"},{"zip_code":"9010616","prefecture_kana":"オキナワケン","city_kana":"ナンジョウシ","town_kana":"タマグスクマエカワ","prefecture":"沖縄県","city":"南城市","town":"玉城前川"},{"zip_code":"9010619","prefecture_kana":"オキナワケン","city_kana":"ナンジョウシ","town_kana":"タマグスクヤカブ","prefecture":"沖縄県","city":"南城市","town":"玉城屋嘉部"},{"zip_code":"9011502","prefecture_kana":"オキナワケン","city_kana":"ナンジョウシ","town_kana":"チネンアザマ","prefecture":"沖縄県","city":"南城市","town":"知念安座真"},{"zip_code":"9011504","prefecture_kana":"オキナワケン","city_kana":"ナンジョウシ","town_kana":"チネンウミノ","prefecture":"沖縄県","city":"南城市","town":"知念海野"},{"zip_code":"9011514","prefecture_kana":"オキナワケン","city_kana":"ナンジョウシ","town_kana":"チネングシケン","prefecture":"沖縄県","city":"南城市","town":"知念具志堅"},{"zip_code":"9011501","prefecture_kana":"オキナワケン","city_kana":"ナンジョウシ","town_kana":"チネンクダカ","prefecture":"沖縄県","city":"南城市","town":"知念久高"},{"zip_code":"9011511","prefecture_kana":"オキナワケン","city_kana":"ナンジョウシ","town_kana":"チネンクデケン","prefecture":"沖縄県","city":"南城市","town":"知念久手堅"},{"zip_code":"9011505","prefecture_kana":"オキナワケン","city_kana":"ナンジョウシ","town_kana":"チネンクハラ","prefecture":"沖縄県","city":"南城市","town":"知念久原"},{"zip_code":"9011516","prefecture_kana":"オキナワケン","city_kana":"ナンジョウシ","town_kana":"チネンシキヤ","prefecture":"沖縄県","city":"南城市","town":"知念志喜屋"},{"zip_code":"9011503","prefecture_kana":"オキナワケン","city_kana":"ナンジョウシ","town_kana":"チネンチナ","prefecture":"沖縄県","city":"南城市","town":"知念知名"},{"zip_code":"9011513","prefecture_kana":"オキナワケン","city_kana":"ナンジョウシ","town_kana":"チネンチネン","prefecture":"沖縄県","city":"南城市","town":"知念知念"},{"zip_code":"9011515","prefecture_kana":"オキナワケン","city_kana":"ナンジョウシ","town_kana":"チネンヤマザト","prefecture":"沖縄県","city":"南城市","town":"知念山里"},{"zip_code":"9011512","prefecture_kana":"オキナワケン","city_kana":"ナンジョウシ","town_kana":"チネンヨシトミ","prefecture":"沖縄県","city":"南城市","town":"知念吉富"},{"zip_code":"9011407","prefecture_kana":"オキナワケン","city_kana":"ナンジョウシ","town_kana":"ツキシロ","prefecture":"沖縄県","city":"南城市","town":"つきしろ"},{"zip_code":"9051400","prefecture_kana":"オキナワケン","city_kana":"クニガミグンクニガミソン","town_kana":"イカニケイサイガナイバアイ","prefecture":"沖縄県","city":"国頭郡国頭村","town":"以下に掲載がない場合"},{"zip_code":"9051503","prefecture_kana":"オキナワケン","city_kana":"クニガミグンクニガミソン","town_kana":"アダ","prefecture":"沖縄県","city":"国頭郡国頭村","town":"安田"},{"zip_code":"9051504","prefecture_kana":"オキナワケン","city_kana":"クニガミグンクニガミソン","town_kana":"アハ","prefecture":"沖縄県","city":"国頭郡国頭村","town":"安波"},{"zip_code":"9051428","prefecture_kana":"オキナワケン","city_kana":"クニガミグンクニガミソン","town_kana":"イジ","prefecture":"沖縄県","city":"国頭郡国頭村","town":"伊地"},{"zip_code":"9051423","prefecture_kana":"オキナワケン","city_kana":"クニガミグンクニガミソン","town_kana":"ウカ","prefecture":"沖縄県","city":"国頭郡国頭村","town":"宇嘉"},{"zip_code":"9051429","prefecture_kana":"オキナワケン","city_kana":"クニガミグンクニガミソン","town_kana":"ウラ","prefecture":"沖縄県","city":"国頭郡国頭村","town":"宇良"},{"zip_code":"9051501","prefecture_kana":"オキナワケン","city_kana":"クニガミグンクニガミソン","town_kana":"オク","prefecture":"沖縄県","city":"国頭郡国頭村","town":"奥"},{"zip_code":"9051412","prefecture_kana":"オキナワケン","city_kana":"クニガミグンクニガミソン","town_kana":"オクマ","prefecture":"沖縄県","city":"国頭郡国頭村","town":"奥間"},{"zip_code":"9051416","prefecture_kana":"オキナワケン","city_kana":"クニガミグンクニガミソン","town_kana":"カガンジ","prefecture":"沖縄県","city":"国頭郡国頭村","town":"鏡地"},{"zip_code":"9051422","prefecture_kana":"オキナワケン","city_kana":"クニガミグンクニガミソン","town_kana":"ギナマ","prefecture":"沖縄県","city":"国頭郡国頭村","town":"宜名真"},{"zip_code":"9051425","prefecture_kana":"オキナワケン","city_kana":"クニガミグンクニガミソン","town_kana":"サテ","prefecture":"沖縄県","city":"国頭郡国頭村","town":"佐手"},{"zip_code":"9051426","prefecture_kana":"オキナワケン","city_kana":"クニガミグンクニガミソン","town_kana":"ジャシキ","prefecture":"沖縄県","city":"国頭郡国頭村","town":"謝敷"},{"zip_code":"9051502","prefecture_kana":"オキナワケン","city_kana":"クニガミグンクニガミソン","town_kana":"ソス","prefecture":"沖縄県","city":"国頭郡国頭村","town":"楚洲"},{"zip_code":"9051417","prefecture_kana":"オキナワケン","city_kana":"クニガミグンクニガミソン","town_kana":"トウバル","prefecture":"沖縄県","city":"国頭郡国頭村","town":"桃原"},{"zip_code":"9051415","prefecture_kana":"オキナワケン","city_kana":"クニガミグンクニガミソン","town_kana":"ハマ","prefecture":"沖縄県","city":"国頭郡国頭村","town":"浜"},{"zip_code":"9051414","prefecture_kana":"オキナワケン","city_kana":"クニガミグンクニガミソン","town_kana":"ハンジ","prefecture":"沖縄県","city":"国頭郡国頭村","town":"半地"},{"zip_code":"9051413","prefecture_kana":"オキナワケン","city_kana":"クニガミグンクニガミソン","town_kana":"ヒジ","prefecture":"沖縄県","city":"国頭郡国頭村","town":"比地"},{"zip_code":"9051421","prefecture_kana":"オキナワケン","city_kana":"クニガミグンクニガミソン","town_kana":"ヘド","prefecture":"沖縄県","city":"国頭郡国頭村","town":"辺戸"},{"zip_code":"9051424","prefecture_kana":"オキナワケン","city_kana":"クニガミグンクニガミソン","town_kana":"ベノキ","prefecture":"沖縄県","city":"国頭郡国頭村","town":"辺野喜"},{"zip_code":"9051411","prefecture_kana":"オキナワケン","city_kana":"クニガミグンクニガミソン","town_kana":"ヘントナ","prefecture":"沖縄県","city":"国頭郡国頭村","town":"辺土名"},{"zip_code":"9051427","prefecture_kana":"オキナワケン","city_kana":"クニガミグンクニガミソン","town_kana":"ヨナ","prefecture":"沖縄県","city":"国頭郡国頭村","town":"与那"},{"zip_code":"9051300","prefecture_kana":"オキナワケン","city_kana":"クニガミグンオオギミソン","town_kana":"イカニケイサイガナイバアイ","prefecture":"沖縄県","city":"国頭郡大宜味村","town":"以下に掲載がない場合"},{"zip_code":"9051308","prefecture_kana":"オキナワケン","city_kana":"クニガミグンオオギミソン","town_kana":"ウエハラ","prefecture":"沖縄県","city":"国頭郡大宜味村","town":"上原"},{"zip_code":"9051317","prefecture_kana":"オキナワケン","city_kana":"クニガミグンオオギミソン","town_kana":"エス","prefecture":"沖縄県","city":"国頭郡大宜味村","town":"江洲"},{"zip_code":"9051305","prefecture_kana":"オキナワケン","city_kana":"クニガミグンオオギミソン","town_kana":"オオガネク","prefecture":"沖縄県","city":"国頭郡大宜味村","town":"大兼久"},{"zip_code":"9051306","prefecture_kana":"オキナワケン","city_kana":"クニガミグンオオギミソン","town_kana":"オオギミ","prefecture":"沖縄県","city":"国頭郡大宜味村","town":"大宜味"},{"zip_code":"9051313","prefecture_kana":"オキナワケン","city_kana":"クニガミグンオオギミソン","town_kana":"オシカワ","prefecture":"沖縄県","city":"国頭郡大宜味村","town":"押川"},{"zip_code":"9051303","prefecture_kana":"オキナワケン","city_kana":"クニガミグンオオギミソン","town_kana":"キジョカ","prefecture":"沖縄県","city":"国頭郡大宜味村","town":"喜如嘉"},{"zip_code":"9051311","prefecture_kana":"オキナワケン","city_kana":"クニガミグンオオギミソン","town_kana":"シオヤ","prefecture":"沖縄県","city":"国頭郡大宜味村","town":"塩屋"},{"zip_code":"9051302","prefecture_kana":"オキナワケン","city_kana":"クニガミグンオオギミソン","town_kana":"ジャナグスク","prefecture":"沖縄県","city":"国頭郡大宜味村","town":"謝名城"},{"zip_code":"9051316","prefecture_kana":"オキナワケン","city_kana":"クニガミグンオオギミソン","town_kana":"シラハマ","prefecture":"沖縄県","city":"国頭郡大宜味村","town":"白浜"},{"zip_code":"9051315","prefecture_kana":"オキナワケン","city_kana":"クニガミグンオオギミソン","town_kana":"タイホ","prefecture":"沖縄県","city":"国頭郡大宜味村","town":"大保"},{"zip_code":"9051301","prefecture_kana":"オキナワケン","city_kana":"クニガミグンオオギミソン","town_kana":"タカザト","prefecture":"沖縄県","city":"国頭郡大宜味村","town":"田嘉里"},{"zip_code":"9051314","prefecture_kana":"オキナワケン","city_kana":"クニガミグンオオギミソン","town_kana":"タミナト","prefecture":"沖縄県","city":"国頭郡大宜味村","town":"田港"},{"zip_code":"9051318","prefecture_kana":"オキナワケン","city_kana":"クニガミグンオオギミソン","town_kana":"ツハ","prefecture":"沖縄県","city":"国頭郡大宜味村","town":"津波"},{"zip_code":"9051304","prefecture_kana":"オキナワケン","city_kana":"クニガミグンオオギミソン","town_kana":"ヌウハ","prefecture":"沖縄県","city":"国頭郡大宜味村","town":"饒波"},{"zip_code":"9051307","prefecture_kana":"オキナワケン","city_kana":"クニガミグンオオギミソン","town_kana":"ネロメ","prefecture":"沖縄県","city":"国頭郡大宜味村","town":"根路銘"},{"zip_code":"9051319","prefecture_kana":"オキナワケン","city_kana":"クニガミグンオオギミソン","town_kana":"ミヤギ","prefecture":"沖縄県","city":"国頭郡大宜味村","town":"宮城"},{"zip_code":"9051312","prefecture_kana":"オキナワケン","city_kana":"クニガミグンオオギミソン","town_kana":"ヤコ","prefecture":"沖縄県","city":"国頭郡大宜味村","town":"屋古"},{"zip_code":"9051200","prefecture_kana":"オキナワケン","city_kana":"クニガミグンヒガシソン","town_kana":"イカニケイサイガナイバアイ","prefecture":"沖縄県","city":"国頭郡東村","town":"以下に掲載がない場合"},{"zip_code":"9051206","prefecture_kana":"オキナワケン","city_kana":"クニガミグンヒガシソン","town_kana":"アルメ","prefecture":"沖縄県","city":"国頭郡東村","town":"有銘"},{"zip_code":"9051203","prefecture_kana":"オキナワケン","city_kana":"クニガミグンヒガシソン","town_kana":"カワタ","prefecture":"沖縄県","city":"国頭郡東村","town":"川田"},{"zip_code":"9051205","prefecture_kana":"オキナワケン","city_kana":"クニガミグンヒガシソン","town_kana":"ゲサシ","prefecture":"沖縄県","city":"国頭郡東村","town":"慶佐次"},{"zip_code":"9051204","prefecture_kana":"オキナワケン","city_kana":"クニガミグンヒガシソン","town_kana":"タイラ","prefecture":"沖縄県","city":"国頭郡東村","town":"平良"},{"zip_code":"9051201","prefecture_kana":"オキナワケン","city_kana":"クニガミグンヒガシソン","town_kana":"タカエ","prefecture":"沖縄県","city":"国頭郡東村","town":"高江"},{"zip_code":"9051202","prefecture_kana":"オキナワケン","city_kana":"クニガミグンヒガシソン","town_kana":"ミヤギ","prefecture":"沖縄県","city":"国頭郡東村","town":"宮城"},{"zip_code":"9050400","prefecture_kana":"オキナワケン","city_kana":"クニガミグンナキジンソン","town_kana":"イカニケイサイガナイバアイ","prefecture":"沖縄県","city":"国頭郡今帰仁村","town":"以下に掲載がない場合"},{"zip_code":"9050411","prefecture_kana":"オキナワケン","city_kana":"クニガミグンナキジンソン","town_kana":"アメソコ","prefecture":"沖縄県","city":"国頭郡今帰仁村","town":"天底"},{"zip_code":"9050428","prefecture_kana":"オキナワケン","city_kana":"クニガミグンナキジンソン","town_kana":"イマドマリ","prefecture":"沖縄県","city":"国頭郡今帰仁村","town":"今泊"},{"zip_code":"9050403","prefecture_kana":"オキナワケン","city_kana":"クニガミグンナキジンソン","town_kana":"ウンテン","prefecture":"沖縄県","city":"国頭郡今帰仁村","town":"運天"},{"zip_code":"9050427","prefecture_kana":"オキナワケン","city_kana":"クニガミグンナキジンソン","town_kana":"カネシ","prefecture":"沖縄県","city":"国頭郡今帰仁村","town":"兼次"},{"zip_code":"9050404","prefecture_kana":"オキナワケン","city_kana":"クニガミグンナキジンソン","town_kana":"カミウンテン","prefecture":"沖縄県","city":"国頭郡今帰仁村","town":"上運天"},{"zip_code":"9050406","prefecture_kana":"オキナワケン","city_kana":"クニガミグンナキジンソン","town_kana":"コウリ","prefecture":"沖縄県","city":"国頭郡今帰仁村","town":"古宇利"},{"zip_code":"9050421","prefecture_kana":"オキナワケン","city_kana":"クニガミグンナキジンソン","town_kana":"コエチ","prefecture":"沖縄県","city":"国頭郡今帰仁村","town":"越地"},{"zip_code":"9050413","prefecture_kana":"オキナワケン","city_kana":"クニガミグンナキジンソン","town_kana":"ゴガヤマ","prefecture":"沖縄県","city":"国頭郡今帰仁村","town":"呉我山"},{"zip_code":"9050422","prefecture_kana":"オキナワケン","city_kana":"クニガミグンナキジンソン","town_kana":"サキヤマ","prefecture":"沖縄県","city":"国頭郡今帰仁村","town":"崎山"},{"zip_code":"9050414","prefecture_kana":"オキナワケン","city_kana":"クニガミグンナキジンソン","town_kana":"ジャナ","prefecture":"沖縄県","city":"国頭郡今帰仁村","town":"謝名"},{"zip_code":"9050426","prefecture_kana":"オキナワケン","city_kana":"クニガミグンナキジンソン","town_kana":"ショシ","prefecture":"沖縄県","city":"国頭郡今帰仁村","town":"諸志"},{"zip_code":"9050405","prefecture_kana":"オキナワケン","city_kana":"クニガミグンナキジンソン","town_kana":"セリキャク","prefecture":"沖縄県","city":"国頭郡今帰仁村","town":"勢理客"},{"zip_code":"9050415","prefecture_kana":"オキナワケン","city_kana":"クニガミグンナキジンソン","town_kana":"タマシロ","prefecture":"沖縄県","city":"国頭郡今帰仁村","town":"玉城"},{"zip_code":"9050402","prefecture_kana":"オキナワケン","city_kana":"クニガミグンナキジンソン","town_kana":"トキジン","prefecture":"沖縄県","city":"国頭郡今帰仁村","town":"渡喜仁"},{"zip_code":"9050424","prefecture_kana":"オキナワケン","city_kana":"クニガミグンナキジンソン","town_kana":"ナカオシ","prefecture":"沖縄県","city":"国頭郡今帰仁村","town":"仲尾次"},{"zip_code":"9050401","prefecture_kana":"オキナワケン","city_kana":"クニガミグンナキジンソン","town_kana":"ナカソネ","prefecture":"沖縄県","city":"国頭郡今帰仁村","town":"仲宗根"},{"zip_code":"9050423","prefecture_kana":"オキナワケン","city_kana":"クニガミグンナキジンソン","town_kana":"ヘシキ","prefecture":"沖縄県","city":"国頭郡今帰仁村","town":"平敷"},{"zip_code":"9050425","prefecture_kana":"オキナワケン","city_kana":"クニガミグンナキジンソン","town_kana":"ヨナミネ","prefecture":"沖縄県","city":"国頭郡今帰仁村","town":"与那嶺"},{"zip_code":"9050412","prefecture_kana":"オキナワケン","city_kana":"クニガミグンナキジンソン","town_kana":"ワクガワ","prefecture":"沖縄県","city":"国頭郡今帰仁村","town":"湧川"},{"zip_code":"9050200","prefecture_kana":"オキナワケン","city_kana":"クニガミグンモトブチョウ","town_kana":"イカニケイサイガナイバアイ","prefecture":"沖縄県","city":"国頭郡本部町","town":"以下に掲載がない場合"},{"zip_code":"9050206","prefecture_kana":"オキナワケン","city_kana":"クニガミグンモトブチョウ","town_kana":"イシカワ","prefecture":"沖縄県","city":"国頭郡本部町","town":"石川"},{"zip_code":"9050221","prefecture_kana":"オキナワケン","city_kana":"クニガミグンモトブチョウ","town_kana":"イズミ","prefecture":"沖縄県","city":"国頭郡本部町","town":"伊豆味"},{"zip_code":"9050228","prefecture_kana":"オキナワケン","city_kana":"クニガミグンモトブチョウ","town_kana":"イノハ","prefecture":"沖縄県","city":"国頭郡本部町","town":"伊野波"},{"zip_code":"9050229","prefecture_kana":"オキナワケン","city_kana":"クニガミグンモトブチョウ","town_kana":"ウフドウ","prefecture":"沖縄県","city":"国頭郡本部町","town":"大堂"},{"zip_code":"9050217","prefecture_kana":"オキナワケン","city_kana":"クニガミグンモトブチョウ","town_kana":"ウラサキ","prefecture":"沖縄県","city":"国頭郡本部町","town":"浦崎"},{"zip_code":"9050223","prefecture_kana":"オキナワケン","city_kana":"クニガミグンモトブチョウ","town_kana":"オオカヨウ","prefecture":"沖縄県","city":"国頭郡本部町","town":"大嘉陽"},{"zip_code":"9050212","prefecture_kana":"オキナワケン","city_kana":"クニガミグンモトブチョウ","town_kana":"オオハマ","prefecture":"沖縄県","city":"国頭郡本部町","town":"大浜"},{"zip_code":"9050202","prefecture_kana":"オキナワケン","city_kana":"クニガミグンモトブチョウ","town_kana":"カツウ","prefecture":"沖縄県","city":"国頭郡本部町","town":"嘉津宇"},{"zip_code":"9050209","prefecture_kana":"オキナワケン","city_kana":"クニガミグンモトブチョウ","town_kana":"キタザト","prefecture":"沖縄県","city":"国頭郡本部町","town":"北里"},{"zip_code":"9050201","prefecture_kana":"オキナワケン","city_kana":"クニガミグンモトブチョウ","town_kana":"グシケン","prefecture":"沖縄県","city":"国頭郡本部町","town":"具志堅"},{"zip_code":"9050226","prefecture_kana":"オキナワケン","city_kana":"クニガミグンモトブチョウ","town_kana":"ケンケン","prefecture":"沖縄県","city":"国頭郡本部町","town":"健堅"},{"zip_code":"9050225","prefecture_kana":"オキナワケン","city_kana":"クニガミグンモトブチョウ","town_kana":"サキモトブ","prefecture":"沖縄県","city":"国頭郡本部町","town":"崎本部"},{"zip_code":"9050203","prefecture_kana":"オキナワケン","city_kana":"クニガミグンモトブチョウ","town_kana":"ジャハナ","prefecture":"沖縄県","city":"国頭郡本部町","town":"謝花"},{"zip_code":"9050208","prefecture_kana":"オキナワケン","city_kana":"クニガミグンモトブチョウ","town_kana":"シンザト","prefecture":"沖縄県","city":"国頭郡本部町","town":"新里"},{"zip_code":"9050227","prefecture_kana":"オキナワケン","city_kana":"クニガミグンモトブチョウ","town_kana":"セソコ","prefecture":"沖縄県","city":"国頭郡本部町","town":"瀬底"},{"zip_code":"9050213","prefecture_kana":"オキナワケン","city_kana":"クニガミグンモトブチョウ","town_kana":"タンチャ","prefecture":"沖縄県","city":"国頭郡本部町","town":"谷茶"},{"zip_code":"9050214","prefecture_kana":"オキナワケン","city_kana":"クニガミグンモトブチョウ","town_kana":"トグチ","prefecture":"沖縄県","city":"国頭郡本部町","town":"渡久地"},{"zip_code":"9050204","prefecture_kana":"オキナワケン","city_kana":"クニガミグンモトブチョウ","town_kana":"トヨハラ","prefecture":"沖縄県","city":"国頭郡本部町","town":"豊原"},{"zip_code":"9050222","prefecture_kana":"オキナワケン","city_kana":"クニガミグンモトブチョウ","town_kana":"ナミザト","prefecture":"沖縄県","city":"国頭郡本部町","town":"並里"},{"zip_code":"9050215","prefecture_kana":"オキナワケン","city_kana":"クニガミグンモトブチョウ","town_kana":"ノバル","prefecture":"沖縄県","city":"国頭郡本部町","town":"野原"},{"zip_code":"9050216","prefecture_kana":"オキナワケン","city_kana":"クニガミグンモトブチョウ","town_kana":"ハマモト","prefecture":"沖縄県","city":"国頭郡本部町","town":"浜元"},{"zip_code":"9050211","prefecture_kana":"オキナワケン","city_kana":"クニガミグンモトブチョウ","town_kana":"ヒガシ","prefecture":"沖縄県","city":"国頭郡本部町","town":"東"},{"zip_code":"9050207","prefecture_kana":"オキナワケン","city_kana":"クニガミグンモトブチョウ","town_kana":"ビセ","prefecture":"沖縄県","city":"国頭郡本部町","town":"備瀬"},{"zip_code":"9050218","prefecture_kana":"オキナワケン","city_kana":"クニガミグンモトブチョウ","town_kana":"フルジマ","prefecture":"沖縄県","city":"国頭郡本部町","town":"古島"},{"zip_code":"9050224","prefecture_kana":"オキナワケン","city_kana":"クニガミグンモトブチョウ","town_kana":"ヘナジ","prefecture":"沖縄県","city":"国頭郡本部町","town":"辺名地"},{"zip_code":"9050205","prefecture_kana":"オキナワケン","city_kana":"クニガミグンモトブチョウ","town_kana":"ヤマカワ","prefecture":"沖縄県","city":"国頭郡本部町","town":"山川"},{"zip_code":"9050219","prefecture_kana":"オキナワケン","city_kana":"クニガミグンモトブチョウ","town_kana":"ヤマザト","prefecture":"沖縄県","city":"国頭郡本部町","town":"山里"},{"zip_code":"9040400","prefecture_kana":"オキナワケン","city_kana":"クニガミグンオンナソン","town_kana":"イカニケイサイガナイバアイ","prefecture":"沖縄県","city":"国頭郡恩納村","town":"以下に掲載がない場合"},{"zip_code":"9040402","prefecture_kana":"オキナワケン","city_kana":"クニガミグンオンナソン","town_kana":"アフソ","prefecture":"沖縄県","city":"国頭郡恩納村","town":"安富祖"},{"zip_code":"9040411","prefecture_kana":"オキナワケン","city_kana":"クニガミグンオンナソン","town_kana":"オンナ","prefecture":"沖縄県","city":"国頭郡恩納村","town":"恩納"},{"zip_code":"9040403","prefecture_kana":"オキナワケン","city_kana":"クニガミグンオンナソン","town_kana":"キセンバル","prefecture":"沖縄県","city":"国頭郡恩納村","town":"喜瀬武原"},{"zip_code":"9040404","prefecture_kana":"オキナワケン","city_kana":"クニガミグンオンナソン","town_kana":"セラカキ","prefecture":"沖縄県","city":"国頭郡恩納村","town":"瀬良垣"},{"zip_code":"9040412","prefecture_kana":"オキナワケン","city_kana":"クニガミグンオンナソン","town_kana":"タンチャ","prefecture":"沖縄県","city":"国頭郡恩納村","town":"谷茶"},{"zip_code":"9040415","prefecture_kana":"オキナワケン","city_kana":"クニガミグンオンナソン","town_kana":"ナカドマリ","prefecture":"沖縄県","city":"国頭郡恩納村","town":"仲泊"},{"zip_code":"9040401","prefecture_kana":"オキナワケン","city_kana":"クニガミグンオンナソン","town_kana":"ナカマ","prefecture":"沖縄県","city":"国頭郡恩納村","town":"名嘉真"},{"zip_code":"9040413","prefecture_kana":"オキナワケン","city_kana":"クニガミグンオンナソン","town_kana":"フチャク","prefecture":"沖縄県","city":"国頭郡恩納村","town":"冨着"},{"zip_code":"9040414","prefecture_kana":"オキナワケン","city_kana":"クニガミグンオンナソン","town_kana":"マエガネク","prefecture":"沖縄県","city":"国頭郡恩納村","town":"前兼久"},{"zip_code":"9040417","prefecture_kana":"オキナワケン","city_kana":"クニガミグンオンナソン","town_kana":"マエダ","prefecture":"沖縄県","city":"国頭郡恩納村","town":"真栄田"},{"zip_code":"9040416","prefecture_kana":"オキナワケン","city_kana":"クニガミグンオンナソン","town_kana":"ヤマダ","prefecture":"沖縄県","city":"国頭郡恩納村","town":"山田"},{"zip_code":"9041300","prefecture_kana":"オキナワケン","city_kana":"クニガミグンギノザソン","town_kana":"イカニケイサイガナイバアイ","prefecture":"沖縄県","city":"国頭郡宜野座村","town":"以下に掲載がない場合"},{"zip_code":"9041304","prefecture_kana":"オキナワケン","city_kana":"クニガミグンギノザソン","town_kana":"カンナ","prefecture":"沖縄県","city":"国頭郡宜野座村","town":"漢那"},{"zip_code":"9041302","prefecture_kana":"オキナワケン","city_kana":"クニガミグンギノザソン","town_kana":"ギノザ","prefecture":"沖縄県","city":"国頭郡宜野座村","town":"宜野座"},{"zip_code":"9041303","prefecture_kana":"オキナワケン","city_kana":"クニガミグンギノザソン","town_kana":"ソケイ","prefecture":"沖縄県","city":"国頭郡宜野座村","town":"惣慶"},{"zip_code":"9041301","prefecture_kana":"オキナワケン","city_kana":"クニガミグンギノザソン","town_kana":"マツダ","prefecture":"沖縄県","city":"国頭郡宜野座村","town":"松田"},{"zip_code":"9041200","prefecture_kana":"オキナワケン","city_kana":"クニガミグンキンチョウ","town_kana":"イカニケイサイガナイバアイ","prefecture":"沖縄県","city":"国頭郡金武町","town":"以下に掲載がない場合"},{"zip_code":"9041202","prefecture_kana":"オキナワケン","city_kana":"クニガミグンキンチョウ","town_kana":"イゲイ","prefecture":"沖縄県","city":"国頭郡金武町","town":"伊芸"},{"zip_code":"9041201","prefecture_kana":"オキナワケン","city_kana":"クニガミグンキンチョウ","town_kana":"キン","prefecture":"沖縄県","city":"国頭郡金武町","town":"金武"},{"zip_code":"9041203","prefecture_kana":"オキナワケン","city_kana":"クニガミグンキンチョウ","town_kana":"ヤカ","prefecture":"沖縄県","city":"国頭郡金武町","town":"屋嘉"},{"zip_code":"9050500","prefecture_kana":"オキナワケン","city_kana":"クニガミグンイエソン","town_kana":"イカニケイサイガナイバアイ","prefecture":"沖縄県","city":"国頭郡伊江村","town":"以下に掲載がない場合"},{"zip_code":"9050503","prefecture_kana":"オキナワケン","city_kana":"クニガミグンイエソン","town_kana":"カワヒラ","prefecture":"沖縄県","city":"国頭郡伊江村","town":"川平"},{"zip_code":"9050505","prefecture_kana":"オキナワケン","city_kana":"クニガミグンイエソン","town_kana":"ニシエウエ","prefecture":"沖縄県","city":"国頭郡伊江村","town":"西江上"},{"zip_code":"9050504","prefecture_kana":"オキナワケン","city_kana":"クニガミグンイエソン","town_kana":"ニシエマエ","prefecture":"沖縄県","city":"国頭郡伊江村","town":"西江前"},{"zip_code":"9050501","prefecture_kana":"オキナワケン","city_kana":"クニガミグンイエソン","town_kana":"ヒガシエウエ","prefecture":"沖縄県","city":"国頭郡伊江村","town":"東江上"},{"zip_code":"9050502","prefecture_kana":"オキナワケン","city_kana":"クニガミグンイエソン","town_kana":"ヒガシエマエ","prefecture":"沖縄県","city":"国頭郡伊江村","town":"東江前"},{"zip_code":"9040300","prefecture_kana":"オキナワケン","city_kana":"ナカガミグンヨミタンソン","town_kana":"イカニケイサイガナイバアイ","prefecture":"沖縄県","city":"中頭郡読谷村","town":"以下に掲載がない場合"},{"zip_code":"9040303","prefecture_kana":"オキナワケン","city_kana":"ナカガミグンヨミタンソン","town_kana":"イラミナ","prefecture":"沖縄県","city":"中頭郡読谷村","town":"伊良皆"},{"zip_code":"9040321","prefecture_kana":"オキナワケン","city_kana":"ナカガミグンヨミタンソン","town_kana":"ウエチ","prefecture":"沖縄県","city":"中頭郡読谷村","town":"上地"},{"zip_code":"9040328","prefecture_kana":"オキナワケン","city_kana":"ナカガミグンヨミタンソン","town_kana":"ウザ","prefecture":"沖縄県","city":"中頭郡読谷村","town":"宇座"},{"zip_code":"9040316","prefecture_kana":"オキナワケン","city_kana":"ナカガミグンヨミタンソン","town_kana":"オオキ","prefecture":"沖縄県","city":"中頭郡読谷村","town":"大木"},{"zip_code":"9040313","prefecture_kana":"オキナワケン","city_kana":"ナカガミグンヨミタンソン","town_kana":"オオワン","prefecture":"沖縄県","city":"中頭郡読谷村","town":"大湾"},{"zip_code":"9040302","prefecture_kana":"オキナワケン","city_kana":"ナカガミグンヨミタンソン","town_kana":"キナ","prefecture":"沖縄県","city":"中頭郡読谷村","town":"喜名"},{"zip_code":"9040327","prefecture_kana":"オキナワケン","city_kana":"ナカガミグンヨミタンソン","town_kana":"ギマ","prefecture":"沖縄県","city":"中頭郡読谷村","town":"儀間"},{"zip_code":"9040301","prefecture_kana":"オキナワケン","city_kana":"ナカガミグンヨミタンソン","town_kana":"ザキミ","prefecture":"沖縄県","city":"中頭郡読谷村","town":"座喜味"},{"zip_code":"9040325","prefecture_kana":"オキナワケン","city_kana":"ナカガミグンヨミタンソン","town_kana":"セナハ","prefecture":"沖縄県","city":"中頭郡読谷村","town":"瀬名波"},{"zip_code":"9040304","prefecture_kana":"オキナワケン","city_kana":"ナカガミグンヨミタンソン","town_kana":"ソベ","prefecture":"沖縄県","city":"中頭郡読谷村","town":"楚辺"},{"zip_code":"9040323","prefecture_kana":"オキナワケン","city_kana":"ナカガミグンヨミタンソン","town_kana":"タカシホ","prefecture":"沖縄県","city":"中頭郡読谷村","town":"高志保"},{"zip_code":"9040315","prefecture_kana":"オキナワケン","city_kana":"ナカガミグンヨミタンソン","town_kana":"トグチ","prefecture":"沖縄県","city":"中頭郡読谷村","town":"渡具知"},{"zip_code":"9040326","prefecture_kana":"オキナワケン","city_kana":"ナカガミグンヨミタンソン","town_kana":"トケシ","prefecture":"沖縄県","city":"中頭郡読谷村","town":"渡慶次"},{"zip_code":"9040305","prefecture_kana":"オキナワケン","city_kana":"ナカガミグンヨミタンソン","town_kana":"トヤ","prefecture":"沖縄県","city":"中頭郡読谷村","town":"都屋"},{"zip_code":"9040324","prefecture_kana":"オキナワケン","city_kana":"ナカガミグンヨミタンソン","town_kana":"ナガハマ","prefecture":"沖縄県","city":"中頭郡読谷村","town":"長浜"},{"zip_code":"9040322","prefecture_kana":"オキナワケン","city_kana":"ナカガミグンヨミタンソン","town_kana":"ナミヒラ","prefecture":"沖縄県","city":"中頭郡読谷村","town":"波平"},{"zip_code":"9040311","prefecture_kana":"オキナワケン","city_kana":"ナカガミグンヨミタンソン","town_kana":"ヒジャ","prefecture":"沖縄県","city":"中頭郡読谷村","town":"比謝"},{"zip_code":"9040312","prefecture_kana":"オキナワケン","city_kana":"ナカガミグンヨミタンソン","town_kana":"ヒジャバシ","prefecture":"沖縄県","city":"中頭郡読谷村","town":"比謝矼"},{"zip_code":"9040314","prefecture_kana":"オキナワケン","city_kana":"ナカガミグンヨミタンソン","town_kana":"フルゲン","prefecture":"沖縄県","city":"中頭郡読谷村","town":"古堅"},{"zip_code":"9040200","prefecture_kana":"オキナワケン","city_kana":"ナカガミグンカデナチョウ","town_kana":"イカニケイサイガナイバアイ","prefecture":"沖縄県","city":"中頭郡嘉手納町","town":"以下に掲載がない場合"},{"zip_code":"9040203","prefecture_kana":"オキナワケン","city_kana":"ナカガミグンカデナチョウ","town_kana":"カデナ","prefecture":"沖縄県","city":"中頭郡嘉手納町","town":"嘉手納"},{"zip_code":"9040205","prefecture_kana":"オキナワケン","city_kana":"ナカガミグンカデナチョウ","town_kana":"カネク","prefecture":"沖縄県","city":"中頭郡嘉手納町","town":"兼久"},{"zip_code":"9040201","prefecture_kana":"オキナワケン","city_kana":"ナカガミグンカデナチョウ","town_kana":"クドク","prefecture":"沖縄県","city":"中頭郡嘉手納町","town":"久得"},{"zip_code":"9040204","prefecture_kana":"オキナワケン","city_kana":"ナカガミグンカデナチョウ","town_kana":"ミズガマ","prefecture":"沖縄県","city":"中頭郡嘉手納町","town":"水釜"},{"zip_code":"9040202","prefecture_kana":"オキナワケン","city_kana":"ナカガミグンカデナチョウ","town_kana":"ヤラ","prefecture":"沖縄県","city":"中頭郡嘉手納町","town":"屋良"},{"zip_code":"9040100","prefecture_kana":"オキナワケン","city_kana":"ナカガミグンチャタンチョウ","town_kana":"イカニケイサイガナイバアイ","prefecture":"沖縄県","city":"中頭郡北谷町","town":"以下に掲載がない場合"},{"zip_code":"9040102","prefecture_kana":"オキナワケン","city_kana":"ナカガミグンチャタンチョウ","town_kana":"イヘイ","prefecture":"沖縄県","city":"中頭郡北谷町","town":"伊平"},{"zip_code":"9040107","prefecture_kana":"オキナワケン","city_kana":"ナカガミグンチャタンチョウ","town_kana":"オオムラ","prefecture":"沖縄県","city":"中頭郡北谷町","town":"大村"},{"zip_code":"9040101","prefecture_kana":"オキナワケン","city_kana":"ナカガミグンチャタンチョウ","town_kana":"カミセド","prefecture":"沖縄県","city":"中頭郡北谷町","town":"上勢頭"},{"zip_code":"9040117","prefecture_kana":"オキナワケン","city_kana":"ナカガミグンチャタンチョウ","town_kana":"キタマエ","prefecture":"沖縄県","city":"中頭郡北谷町","town":"北前"},{"zip_code":"9040103","prefecture_kana":"オキナワケン","city_kana":"ナカガミグンチャタンチョウ","town_kana":"クワエ","prefecture":"沖縄県","city":"中頭郡北谷町","town":"桑江"},{"zip_code":"9040111","prefecture_kana":"オキナワケン","city_kana":"ナカガミグンチャタンチョウ","town_kana":"スナベ","prefecture":"沖縄県","city":"中頭郡北谷町","town":"砂辺"},{"zip_code":"9040106","prefecture_kana":"オキナワケン","city_kana":"ナカガミグンチャタンチョウ","town_kana":"タマガミ","prefecture":"沖縄県","city":"中頭郡北谷町","town":"玉上"},{"zip_code":"9040116","prefecture_kana":"オキナワケン","city_kana":"ナカガミグンチャタンチョウ","town_kana":"チャタン","prefecture":"沖縄県","city":"中頭郡北谷町","town":"北谷"},{"zip_code":"9040104","prefecture_kana":"オキナワケン","city_kana":"ナカガミグンチャタンチョウ","town_kana":"トウバル","prefecture":"沖縄県","city":"中頭郡北谷町","town":"桃原"},{"zip_code":"9040112","prefecture_kana":"オキナワケン","city_kana":"ナカガミグンチャタンチョウ","town_kana":"ハマガワ","prefecture":"沖縄県","city":"中頭郡北谷町","town":"浜川"},{"zip_code":"9040114","prefecture_kana":"オキナワケン","city_kana":"ナカガミグンチャタンチョウ","town_kana":"ミナト","prefecture":"沖縄県","city":"中頭郡北谷町","town":"港"},{"zip_code":"9040115","prefecture_kana":"オキナワケン","city_kana":"ナカガミグンチャタンチョウ","town_kana":"ミハマ","prefecture":"沖縄県","city":"中頭郡北谷町","town":"美浜"},{"zip_code":"9040113","prefecture_kana":"オキナワケン","city_kana":"ナカガミグンチャタンチョウ","town_kana":"ミヤギ","prefecture":"沖縄県","city":"中頭郡北谷町","town":"宮城"},{"zip_code":"9040105","prefecture_kana":"オキナワケン","city_kana":"ナカガミグンチャタンチョウ","town_kana":"ヨシハラ","prefecture":"沖縄県","city":"中頭郡北谷町","town":"吉原"},{"zip_code":"9012300","prefecture_kana":"オキナワケン","city_kana":"ナカガミグンキタナカグスクソン","town_kana":"イカニケイサイガナイバアイ","prefecture":"沖縄県","city":"中頭郡北中城村","town":"以下に掲載がない場合"},{"zip_code":"9012316","prefecture_kana":"オキナワケン","city_kana":"ナカガミグンキタナカグスクソン","town_kana":"アダニヤ","prefecture":"沖縄県","city":"中頭郡北中城村","town":"安谷屋"},{"zip_code":"9012313","prefecture_kana":"オキナワケン","city_kana":"ナカガミグンキタナカグスクソン","town_kana":"アッタ","prefecture":"沖縄県","city":"中頭郡北中城村","town":"熱田"},{"zip_code":"9012314","prefecture_kana":"オキナワケン","city_kana":"ナカガミグンキタナカグスクソン","town_kana":"オオグスク","prefecture":"沖縄県","city":"中頭郡北中城村","town":"大城"},{"zip_code":"9012315","prefecture_kana":"オキナワケン","city_kana":"ナカガミグンキタナカグスクソン","town_kana":"オギドウ","prefecture":"沖縄県","city":"中頭郡北中城村","town":"荻道"},{"zip_code":"9012311","prefecture_kana":"オキナワケン","city_kana":"ナカガミグンキタナカグスクソン","town_kana":"キシャバ","prefecture":"沖縄県","city":"中頭郡北中城村","town":"喜舎場"},{"zip_code":"9012301","prefecture_kana":"オキナワケン","city_kana":"ナカガミグンキタナカグスクソン","town_kana":"シマブク","prefecture":"沖縄県","city":"中頭郡北中城村","town":"島袋"},{"zip_code":"9012317","prefecture_kana":"オキナワケン","city_kana":"ナカガミグンキタナカグスクソン","town_kana":"ズケラン","prefecture":"沖縄県","city":"中頭郡北中城村","town":"瑞慶覧"},{"zip_code":"9012303","prefecture_kana":"オキナワケン","city_kana":"ナカガミグンキタナカグスクソン","town_kana":"チュンジュン","prefecture":"沖縄県","city":"中頭郡北中城村","town":"仲順"},{"zip_code":"9012302","prefecture_kana":"オキナワケン","city_kana":"ナカガミグンキタナカグスクソン","town_kana":"トグチ","prefecture":"沖縄県","city":"中頭郡北中城村","town":"渡口"},{"zip_code":"9012305","prefecture_kana":"オキナワケン","city_kana":"ナカガミグンキタナカグスクソン","town_kana":"ヒガ","prefecture":"沖縄県","city":"中頭郡北中城村","town":"比嘉"},{"zip_code":"9012321","prefecture_kana":"オキナワケン","city_kana":"ナカガミグンキタナカグスクソン","town_kana":"ミサキ","prefecture":"沖縄県","city":"中頭郡北中城村","town":"美崎"},{"zip_code":"9012304","prefecture_kana":"オキナワケン","city_kana":"ナカガミグンキタナカグスクソン","town_kana":"ヤギバル","prefecture":"沖縄県","city":"中頭郡北中城村","town":"屋宜原"},{"zip_code":"9012306","prefecture_kana":"オキナワケン","city_kana":"ナカガミグンキタナカグスクソン","town_kana":"ライカム","prefecture":"沖縄県","city":"中頭郡北中城村","town":"ライカム"},{"zip_code":"9012312","prefecture_kana":"オキナワケン","city_kana":"ナカガミグンキタナカグスクソン","town_kana":"ワニヤ","prefecture":"沖縄県","city":"中頭郡北中城村","town":"和仁屋"},{"zip_code":"9012400","prefecture_kana":"オキナワケン","city_kana":"ナカガミグンナカグスクソン","town_kana":"イカニケイサイガナイバアイ","prefecture":"沖縄県","city":"中頭郡中城村","town":"以下に掲載がない場合"},{"zip_code":"9012407","prefecture_kana":"オキナワケン","city_kana":"ナカガミグンナカグスクソン","town_kana":"アサト","prefecture":"沖縄県","city":"中頭郡中城村","town":"安里"},{"zip_code":"9012422","prefecture_kana":"オキナワケン","city_kana":"ナカガミグンナカグスクソン","town_kana":"アラカキ","prefecture":"沖縄県","city":"中頭郡中城村","town":"新垣"},{"zip_code":"9012403","prefecture_kana":"オキナワケン","city_kana":"ナカガミグンナカグスクソン","town_kana":"イシャドウ","prefecture":"沖縄県","city":"中頭郡中城村","town":"伊舎堂"},{"zip_code":"9012417","prefecture_kana":"オキナワケン","city_kana":"ナカガミグンナカグスクソン","town_kana":"イジュ","prefecture":"沖縄県","city":"中頭郡中城村","town":"伊集"},{"zip_code":"9012412","prefecture_kana":"オキナワケン","city_kana":"ナカガミグンナカグスクソン","town_kana":"オクマ","prefecture":"沖縄県","city":"中頭郡中城村","town":"奥間"},{"zip_code":"9012423","prefecture_kana":"オキナワケン","city_kana":"ナカガミグンナカグスクソン","town_kana":"キタウエバル","prefecture":"沖縄県","city":"中頭郡中城村","town":"北上原"},{"zip_code":"9012414","prefecture_kana":"オキナワケン","city_kana":"ナカガミグンナカグスクソン","town_kana":"キタハマ","prefecture":"沖縄県","city":"中頭郡中城村","town":"北浜"},{"zip_code":"9012401","prefecture_kana":"オキナワケン","city_kana":"ナカガミグンナカグスクソン","town_kana":"クバ","prefecture":"沖縄県","city":"中頭郡中城村","town":"久場"},{"zip_code":"9012404","prefecture_kana":"オキナワケン","city_kana":"ナカガミグンナカグスクソン","town_kana":"ソエシ","prefecture":"沖縄県","city":"中頭郡中城村","town":"添石"},{"zip_code":"9012413","prefecture_kana":"オキナワケン","city_kana":"ナカガミグンナカグスクソン","town_kana":"ツハ","prefecture":"沖縄県","city":"中頭郡中城村","town":"津覇"},{"zip_code":"9012406","prefecture_kana":"オキナワケン","city_kana":"ナカガミグンナカグスクソン","town_kana":"トウマ","prefecture":"沖縄県","city":"中頭郡中城村","town":"当間"},{"zip_code":"9012402","prefecture_kana":"オキナワケン","city_kana":"ナカガミグンナカグスクソン","town_kana":"トマリ","prefecture":"沖縄県","city":"中頭郡中城村","town":"泊"},{"zip_code":"9012421","prefecture_kana":"オキナワケン","city_kana":"ナカガミグンナカグスクソン","town_kana":"ノボリマタ","prefecture":"沖縄県","city":"中頭郡中城村","town":"登又"},{"zip_code":"9012411","prefecture_kana":"オキナワケン","city_kana":"ナカガミグンナカグスクソン","town_kana":"ハマ","prefecture":"沖縄県","city":"中頭郡中城村","town":"浜"},{"zip_code":"9012424","prefecture_kana":"オキナワケン","city_kana":"ナカガミグンナカグスクソン","town_kana":"ミナミウエバル","prefecture":"沖縄県","city":"中頭郡中城村","town":"南上原"},{"zip_code":"9012415","prefecture_kana":"オキナワケン","city_kana":"ナカガミグンナカグスクソン","town_kana":"ミナミハマ","prefecture":"沖縄県","city":"中頭郡中城村","town":"南浜"},{"zip_code":"9012405","prefecture_kana":"オキナワケン","city_kana":"ナカガミグンナカグスクソン","town_kana":"ヤギ","prefecture":"沖縄県","city":"中頭郡中城村","town":"屋宜"},{"zip_code":"9012416","prefecture_kana":"オキナワケン","city_kana":"ナカガミグンナカグスクソン","town_kana":"ワウケ","prefecture":"沖縄県","city":"中頭郡中城村","town":"和宇慶"},{"zip_code":"9030100","prefecture_kana":"オキナワケン","city_kana":"ナカガミグンニシハラチョウ","town_kana":"イカニケイサイガナイバアイ","prefecture":"沖縄県","city":"中頭郡西原町","town":"以下に掲載がない場合"},{"zip_code":"9030105","prefecture_kana":"オキナワケン","city_kana":"ナカガミグンニシハラチョウ","town_kana":"アガリザキ","prefecture":"沖縄県","city":"中頭郡西原町","town":"東崎"},{"zip_code":"9030113","prefecture_kana":"オキナワケン","city_kana":"ナカガミグンニシハラチョウ","town_kana":"アムロ","prefecture":"沖縄県","city":"中頭郡西原町","town":"安室"},{"zip_code":"9030115","prefecture_kana":"オキナワケン","city_kana":"ナカガミグンニシハラチョウ","town_kana":"イケダ","prefecture":"沖縄県","city":"中頭郡西原町","town":"池田"},{"zip_code":"9030125","prefecture_kana":"オキナワケン","city_kana":"ナカガミグンニシハラチョウ","town_kana":"ウエハラ","prefecture":"沖縄県","city":"中頭郡西原町","town":"上原"},{"zip_code":"9030121","prefecture_kana":"オキナワケン","city_kana":"ナカガミグンニシハラチョウ","town_kana":"ウチマ","prefecture":"沖縄県","city":"中頭郡西原町","town":"内間"},{"zip_code":"9030117","prefecture_kana":"オキナワケン","city_kana":"ナカガミグンニシハラチョウ","town_kana":"オナガ","prefecture":"沖縄県","city":"中頭郡西原町","town":"翁長"},{"zip_code":"9030103","prefecture_kana":"オキナワケン","city_kana":"ナカガミグンニシハラチョウ","town_kana":"オナハ","prefecture":"沖縄県","city":"中頭郡西原町","town":"小那覇"},{"zip_code":"9030101","prefecture_kana":"オキナワケン","city_kana":"ナカガミグンニシハラチョウ","town_kana":"カケボク","prefecture":"沖縄県","city":"中頭郡西原町","town":"掛保久"},{"zip_code":"9030112","prefecture_kana":"オキナワケン","city_kana":"ナカガミグンニシハラチョウ","town_kana":"ガジャ","prefecture":"沖縄県","city":"中頭郡西原町","town":"我謝"},{"zip_code":"9030102","prefecture_kana":"オキナワケン","city_kana":"ナカガミグンニシハラチョウ","town_kana":"カデカル","prefecture":"沖縄県","city":"中頭郡西原町","town":"嘉手苅"},{"zip_code":"9030104","prefecture_kana":"オキナワケン","city_kana":"ナカガミグンニシハラチョウ","town_kana":"カネク","prefecture":"沖縄県","city":"中頭郡西原町","town":"兼久"},{"zip_code":"9030116","prefecture_kana":"オキナワケン","city_kana":"ナカガミグンニシハラチョウ","town_kana":"コウチ","prefecture":"沖縄県","city":"中頭郡西原町","town":"幸地"},{"zip_code":"9030122","prefecture_kana":"オキナワケン","city_kana":"ナカガミグンニシハラチョウ","town_kana":"コバシガワ","prefecture":"沖縄県","city":"中頭郡西原町","town":"小橋川"},{"zip_code":"9030118","prefecture_kana":"オキナワケン","city_kana":"ナカガミグンニシハラチョウ","town_kana":"コハツ","prefecture":"沖縄県","city":"中頭郡西原町","town":"小波津"},{"zip_code":"9030124","prefecture_kana":"オキナワケン","city_kana":"ナカガミグンニシハラチョウ","town_kana":"ゴヤ","prefecture":"沖縄県","city":"中頭郡西原町","town":"呉屋"},{"zip_code":"9030129","prefecture_kana":"オキナワケン","city_kana":"ナカガミグンニシハラチョウ","town_kana":"センバル","prefecture":"沖縄県","city":"中頭郡西原町","town":"千原"},{"zip_code":"9030126","prefecture_kana":"オキナワケン","city_kana":"ナカガミグンニシハラチョウ","town_kana":"タナバル","prefecture":"沖縄県","city":"中頭郡西原町","town":"棚原"},{"zip_code":"9030123","prefecture_kana":"オキナワケン","city_kana":"ナカガミグンニシハラチョウ","town_kana":"ツハナハ","prefecture":"沖縄県","city":"中頭郡西原町","town":"津花波"},{"zip_code":"9030114","prefecture_kana":"オキナワケン","city_kana":"ナカガミグンニシハラチョウ","town_kana":"トウバル","prefecture":"沖縄県","city":"中頭郡西原町","town":"桃原"},{"zip_code":"9030127","prefecture_kana":"オキナワケン","city_kana":"ナカガミグンニシハラチョウ","town_kana":"トクサダ","prefecture":"沖縄県","city":"中頭郡西原町","town":"徳佐田"},{"zip_code":"9030128","prefecture_kana":"オキナワケン","city_kana":"ナカガミグンニシハラチョウ","town_kana":"モリカワ","prefecture":"沖縄県","city":"中頭郡西原町","town":"森川"},{"zip_code":"9030111","prefecture_kana":"オキナワケン","city_kana":"ナカガミグンニシハラチョウ","town_kana":"ヨナグスク","prefecture":"沖縄県","city":"中頭郡西原町","town":"与那城"},{"zip_code":"9011300","prefecture_kana":"オキナワケン","city_kana":"シマジリグンヨナバルチョウ","town_kana":"イカニケイサイガナイバアイ","prefecture":"沖縄県","city":"島尻郡与那原町","town":"以下に掲載がない場合"},{"zip_code":"9011304","prefecture_kana":"オキナワケン","city_kana":"シマジリグンヨナバルチョウ","town_kana":"アガリハマ","prefecture":"沖縄県","city":"島尻郡与那原町","town":"東浜"},{"zip_code":"9011301","prefecture_kana":"オキナワケン","city_kana":"シマジリグンヨナバルチョウ","town_kana":"イタラシキ","prefecture":"沖縄県","city":"島尻郡与那原町","town":"板良敷"},{"zip_code":"9011302","prefecture_kana":"オキナワケン","city_kana":"シマジリグンヨナバルチョウ","town_kana":"ウエヨナバル","prefecture":"沖縄県","city":"島尻郡与那原町","town":"上与那原"},{"zip_code":"9011303","prefecture_kana":"オキナワケン","city_kana":"シマジリグンヨナバルチョウ","town_kana":"ヨナバル","prefecture":"沖縄県","city":"島尻郡与那原町","town":"与那原"},{"zip_code":"9011100","prefecture_kana":"オキナワケン","city_kana":"シマジリグンハエバルチョウ","town_kana":"イカニケイサイガナイバアイ","prefecture":"沖縄県","city":"島尻郡南風原町","town":"以下に掲載がない場合"},{"zip_code":"9011105","prefecture_kana":"オキナワケン","city_kana":"シマジリグンハエバルチョウ","town_kana":"アラカワ","prefecture":"沖縄県","city":"島尻郡南風原町","town":"新川"},{"zip_code":"9011101","prefecture_kana":"オキナワケン","city_kana":"シマジリグンハエバルチョウ","town_kana":"オオナ","prefecture":"沖縄県","city":"島尻郡南風原町","town":"大名"},{"zip_code":"9011111","prefecture_kana":"オキナワケン","city_kana":"シマジリグンハエバルチョウ","town_kana":"カネグスク","prefecture":"沖縄県","city":"島尻郡南風原町","town":"兼城"},{"zip_code":"9011114","prefecture_kana":"オキナワケン","city_kana":"シマジリグンハエバルチョウ","town_kana":"カミザト","prefecture":"沖縄県","city":"島尻郡南風原町","town":"神里"},{"zip_code":"9011113","prefecture_kana":"オキナワケン","city_kana":"シマジリグンハエバルチョウ","town_kana":"キャン","prefecture":"沖縄県","city":"島尻郡南風原町","town":"喜屋武"},{"zip_code":"9011117","prefecture_kana":"オキナワケン","city_kana":"シマジリグンハエバルチョウ","town_kana":"ツカザン","prefecture":"沖縄県","city":"島尻郡南風原町","town":"津嘉山"},{"zip_code":"9011116","prefecture_kana":"オキナワケン","city_kana":"シマジリグンハエバルチョウ","town_kana":"テルヤ","prefecture":"沖縄県","city":"島尻郡南風原町","town":"照屋"},{"zip_code":"9011102","prefecture_kana":"オキナワケン","city_kana":"シマジリグンハエバルチョウ","town_kana":"ミヤグスク","prefecture":"沖縄県","city":"島尻郡南風原町","town":"宮城"},{"zip_code":"9011104","prefecture_kana":"オキナワケン","city_kana":"シマジリグンハエバルチョウ","town_kana":"ミヤヒラ","prefecture":"沖縄県","city":"島尻郡南風原町","town":"宮平"},{"zip_code":"9011112","prefecture_kana":"オキナワケン","city_kana":"シマジリグンハエバルチョウ","town_kana":"モトブ","prefecture":"沖縄県","city":"島尻郡南風原町","town":"本部"},{"zip_code":"9011115","prefecture_kana":"オキナワケン","city_kana":"シマジリグンハエバルチョウ","town_kana":"ヤマカワ","prefecture":"沖縄県","city":"島尻郡南風原町","town":"山川"},{"zip_code":"9011103","prefecture_kana":"オキナワケン","city_kana":"シマジリグンハエバルチョウ","town_kana":"ヨナハ","prefecture":"沖縄県","city":"島尻郡南風原町","town":"与那覇"},{"zip_code":"9013500","prefecture_kana":"オキナワケン","city_kana":"シマジリグントカシキソン","town_kana":"イカニケイサイガナイバアイ","prefecture":"沖縄県","city":"島尻郡渡嘉敷村","town":"以下に掲載がない場合"},{"zip_code":"9013502","prefecture_kana":"オキナワケン","city_kana":"シマジリグントカシキソン","town_kana":"アハレン","prefecture":"沖縄県","city":"島尻郡渡嘉敷村","town":"阿波連"},{"zip_code":"9013501","prefecture_kana":"オキナワケン","city_kana":"シマジリグントカシキソン","town_kana":"トカシキ","prefecture":"沖縄県","city":"島尻郡渡嘉敷村","town":"渡嘉敷"},{"zip_code":"9013400","prefecture_kana":"オキナワケン","city_kana":"シマジリグンザマミソン","town_kana":"イカニケイサイガナイバアイ","prefecture":"沖縄県","city":"島尻郡座間味村","town":"以下に掲載がない場合"},{"zip_code":"9013311","prefecture_kana":"オキナワケン","city_kana":"シマジリグンザマミソン","town_kana":"アカ","prefecture":"沖縄県","city":"島尻郡座間味村","town":"阿嘉"},{"zip_code":"9013401","prefecture_kana":"オキナワケン","city_kana":"シマジリグンザマミソン","town_kana":"アサ","prefecture":"沖縄県","city":"島尻郡座間味村","town":"阿佐"},{"zip_code":"9013403","prefecture_kana":"オキナワケン","city_kana":"シマジリグンザマミソン","town_kana":"アマ","prefecture":"沖縄県","city":"島尻郡座間味村","town":"阿真"},{"zip_code":"9013312","prefecture_kana":"オキナワケン","city_kana":"シマジリグンザマミソン","town_kana":"ゲルマ","prefecture":"沖縄県","city":"島尻郡座間味村","town":"慶留間"},{"zip_code":"9013402","prefecture_kana":"オキナワケン","city_kana":"シマジリグンザマミソン","town_kana":"ザマミ","prefecture":"沖縄県","city":"島尻郡座間味村","town":"座間味"},{"zip_code":"9013700","prefecture_kana":"オキナワケン","city_kana":"シマジリグンアグニソン","town_kana":"イカニケイサイガナイバアイ","prefecture":"沖縄県","city":"島尻郡粟国村","town":"以下に掲載がない場合"},{"zip_code":"9013703","prefecture_kana":"オキナワケン","city_kana":"シマジリグンアグニソン","town_kana":"ニシ","prefecture":"沖縄県","city":"島尻郡粟国村","town":"西"},{"zip_code":"9013701","prefecture_kana":"オキナワケン","city_kana":"シマジリグンアグニソン","town_kana":"ハマ","prefecture":"沖縄県","city":"島尻郡粟国村","town":"浜"},{"zip_code":"9013702","prefecture_kana":"オキナワケン","city_kana":"シマジリグンアグニソン","town_kana":"ヒガシ","prefecture":"沖縄県","city":"島尻郡粟国村","town":"東"},{"zip_code":"9013601","prefecture_kana":"オキナワケン","city_kana":"シマジリグントナキソン","town_kana":"トナキソンイチエン","prefecture":"沖縄県","city":"島尻郡渡名喜村","town":"渡名喜村一円"},{"zip_code":"9013800","prefecture_kana":"オキナワケン","city_kana":"シマジリグンミナミダイトウソン","town_kana":"イカニケイサイガナイバアイ","prefecture":"沖縄県","city":"島尻郡南大東村","town":"以下に掲載がない場合"},{"zip_code":"9013806","prefecture_kana":"オキナワケン","city_kana":"シマジリグンミナミダイトウソン","town_kana":"イケノサワ","prefecture":"沖縄県","city":"島尻郡南大東村","town":"池之沢"},{"zip_code":"9013801","prefecture_kana":"オキナワケン","city_kana":"シマジリグンミナミダイトウソン","town_kana":"キタ","prefecture":"沖縄県","city":"島尻郡南大東村","town":"北"},{"zip_code":"9013803","prefecture_kana":"オキナワケン","city_kana":"シマジリグンミナミダイトウソン","town_kana":"キュウトウ","prefecture":"沖縄県","city":"島尻郡南大東村","town":"旧東"},{"zip_code":"9013805","prefecture_kana":"オキナワケン","city_kana":"シマジリグンミナミダイトウソン","town_kana":"ザイショ","prefecture":"沖縄県","city":"島尻郡南大東村","town":"在所"},{"zip_code":"9013802","prefecture_kana":"オキナワケン","city_kana":"シマジリグンミナミダイトウソン","town_kana":"シントウ","prefecture":"沖縄県","city":"島尻郡南大東村","town":"新東"},{"zip_code":"9013804","prefecture_kana":"オキナワケン","city_kana":"シマジリグンミナミダイトウソン","town_kana":"ミナミ","prefecture":"沖縄県","city":"島尻郡南大東村","town":"南"},{"zip_code":"9013900","prefecture_kana":"オキナワケン","city_kana":"シマジリグンキタダイトウソン","town_kana":"イカニケイサイガナイバアイ","prefecture":"沖縄県","city":"島尻郡北大東村","town":"以下に掲載がない場合"},{"zip_code":"9013902","prefecture_kana":"オキナワケン","city_kana":"シマジリグンキタダイトウソン","town_kana":"ナカノ","prefecture":"沖縄県","city":"島尻郡北大東村","town":"中野"},{"zip_code":"9013903","prefecture_kana":"オキナワケン","city_kana":"シマジリグンキタダイトウソン","town_kana":"ミナト","prefecture":"沖縄県","city":"島尻郡北大東村","town":"港"},{"zip_code":"9013901","prefecture_kana":"オキナワケン","city_kana":"シマジリグンキタダイトウソン","town_kana":"ミナミ","prefecture":"沖縄県","city":"島尻郡北大東村","town":"南"},{"zip_code":"9050700","prefecture_kana":"オキナワケン","city_kana":"シマジリグンイヘヤソン","town_kana":"イカニケイサイガナイバアイ","prefecture":"沖縄県","city":"島尻郡伊平屋村","town":"以下に掲載がない場合"},{"zip_code":"9050703","prefecture_kana":"オキナワケン","city_kana":"シマジリグンイヘヤソン","town_kana":"ガキヤ","prefecture":"沖縄県","city":"島尻郡伊平屋村","town":"我喜屋"},{"zip_code":"9050704","prefecture_kana":"オキナワケン","city_kana":"シマジリグンイヘヤソン","town_kana":"シマジリ","prefecture":"沖縄県","city":"島尻郡伊平屋村","town":"島尻"},{"zip_code":"9050701","prefecture_kana":"オキナワケン","city_kana":"シマジリグンイヘヤソン","town_kana":"ダナ","prefecture":"沖縄県","city":"島尻郡伊平屋村","town":"田名"},{"zip_code":"9050705","prefecture_kana":"オキナワケン","city_kana":"シマジリグンイヘヤソン","town_kana":"ノホ","prefecture":"沖縄県","city":"島尻郡伊平屋村","town":"野甫"},{"zip_code":"9050702","prefecture_kana":"オキナワケン","city_kana":"シマジリグンイヘヤソン","town_kana":"マエドマリ","prefecture":"沖縄県","city":"島尻郡伊平屋村","town":"前泊"},{"zip_code":"9050600","prefecture_kana":"オキナワケン","city_kana":"シマジリグンイゼナソン","town_kana":"イカニケイサイガナイバアイ","prefecture":"沖縄県","city":"島尻郡伊是名村","town":"以下に掲載がない場合"},{"zip_code":"9050604","prefecture_kana":"オキナワケン","city_kana":"シマジリグンイゼナソン","town_kana":"イゼナ","prefecture":"沖縄県","city":"島尻郡伊是名村","town":"伊是名"},{"zip_code":"9050601","prefecture_kana":"オキナワケン","city_kana":"シマジリグンイゼナソン","town_kana":"ウチハナ","prefecture":"沖縄県","city":"島尻郡伊是名村","town":"内花"},{"zip_code":"9050602","prefecture_kana":"オキナワケン","city_kana":"シマジリグンイゼナソン","town_kana":"ショミ","prefecture":"沖縄県","city":"島尻郡伊是名村","town":"諸見"},{"zip_code":"9050605","prefecture_kana":"オキナワケン","city_kana":"シマジリグンイゼナソン","town_kana":"セリキャク","prefecture":"沖縄県","city":"島尻郡伊是名村","town":"勢理客"},{"zip_code":"9050603","prefecture_kana":"オキナワケン","city_kana":"シマジリグンイゼナソン","town_kana":"ナカダ","prefecture":"沖縄県","city":"島尻郡伊是名村","town":"仲田"},{"zip_code":"9013100","prefecture_kana":"オキナワケン","city_kana":"シマジリグンクメジマチョウ","town_kana":"イカニケイサイガナイバアイ","prefecture":"沖縄県","city":"島尻郡久米島町","town":"以下に掲載がない場合"},{"zip_code":"9013103","prefecture_kana":"オキナワケン","city_kana":"シマジリグンクメジマチョウ","town_kana":"アカ","prefecture":"沖縄県","city":"島尻郡久米島町","town":"阿嘉"},{"zip_code":"9013101","prefecture_kana":"オキナワケン","city_kana":"シマジリグンクメジマチョウ","town_kana":"ウエグスク","prefecture":"沖縄県","city":"島尻郡久米島町","town":"宇江城"},{"zip_code":"9013138","prefecture_kana":"オキナワケン","city_kana":"シマジリグンクメジマチョウ","town_kana":"ウエズ","prefecture":"沖縄県","city":"島尻郡久米島町","town":"上江洲"},{"zip_code":"9013105","prefecture_kana":"オキナワケン","city_kana":"シマジリグンクメジマチョウ","town_kana":"ウネ","prefecture":"沖縄県","city":"島尻郡久米島町","town":"宇根"},{"zip_code":"9013106","prefecture_kana":"オキナワケン","city_kana":"シマジリグンクメジマチョウ","town_kana":"オウ","prefecture":"沖縄県","city":"島尻郡久米島町","town":"奥武"},{"zip_code":"9013123","prefecture_kana":"オキナワケン","city_kana":"シマジリグンクメジマチョウ","town_kana":"オオタ","prefecture":"沖縄県","city":"島尻郡久米島町","town":"大田"},{"zip_code":"9013132","prefecture_kana":"オキナワケン","city_kana":"シマジリグンクメジマチョウ","town_kana":"オオハラ","prefecture":"沖縄県","city":"島尻郡久米島町","town":"大原"},{"zip_code":"9013121","prefecture_kana":"オキナワケン","city_kana":"シマジリグンクメジマチョウ","town_kana":"カデカル","prefecture":"沖縄県","city":"島尻郡久米島町","town":"嘉手苅"},{"zip_code":"9013122","prefecture_kana":"オキナワケン","city_kana":"シマジリグンクメジマチョウ","town_kana":"カネグスク","prefecture":"沖縄県","city":"島尻郡久米島町","town":"兼城"},{"zip_code":"9013133","prefecture_kana":"オキナワケン","city_kana":"シマジリグンクメジマチョウ","town_kana":"キタハラ","prefecture":"沖縄県","city":"島尻郡久米島町","town":"北原"},{"zip_code":"9013115","prefecture_kana":"オキナワケン","city_kana":"シマジリグンクメジマチョウ","town_kana":"ギマ","prefecture":"沖縄県","city":"島尻郡久米島町","town":"儀間"},{"zip_code":"9013134","prefecture_kana":"オキナワケン","city_kana":"シマジリグンクメジマチョウ","town_kana":"グシカワ","prefecture":"沖縄県","city":"島尻郡久米島町","town":"具志川"},{"zip_code":"9013114","prefecture_kana":"オキナワケン","city_kana":"シマジリグンクメジマチョウ","town_kana":"シマジリ","prefecture":"沖縄県","city":"島尻郡久米島町","town":"島尻"},{"zip_code":"9013107","prefecture_kana":"オキナワケン","city_kana":"シマジリグンクメジマチョウ","town_kana":"ジャナドウ","prefecture":"沖縄県","city":"島尻郡久米島町","town":"謝名堂"},{"zip_code":"9013113","prefecture_kana":"オキナワケン","city_kana":"シマジリグンクメジマチョウ","town_kana":"ゼンダ","prefecture":"沖縄県","city":"島尻郡久米島町","town":"銭田"},{"zip_code":"9013125","prefecture_kana":"オキナワケン","city_kana":"シマジリグンクメジマチョウ","town_kana":"トリシマ","prefecture":"沖縄県","city":"島尻郡久米島町","town":"鳥島"},{"zip_code":"9013136","prefecture_kana":"オキナワケン","city_kana":"シマジリグンクメジマチョウ","town_kana":"ナカチ","prefecture":"沖縄県","city":"島尻郡久米島町","town":"仲地"},{"zip_code":"9013124","prefecture_kana":"オキナワケン","city_kana":"シマジリグンクメジマチョウ","town_kana":"ナカドマリ","prefecture":"沖縄県","city":"島尻郡久米島町","town":"仲泊"},{"zip_code":"9013135","prefecture_kana":"オキナワケン","city_kana":"シマジリグンクメジマチョウ","town_kana":"ナカンダカリ","prefecture":"沖縄県","city":"島尻郡久米島町","town":"仲村渠"},{"zip_code":"9013131","prefecture_kana":"オキナワケン","city_kana":"シマジリグンクメジマチョウ","town_kana":"ニシメ","prefecture":"沖縄県","city":"島尻郡久米島町","town":"西銘"},{"zip_code":"9013108","prefecture_kana":"オキナワケン","city_kana":"シマジリグンクメジマチョウ","town_kana":"ヒガ","prefecture":"沖縄県","city":"島尻郡久米島町","town":"比嘉"},{"zip_code":"9013102","prefecture_kana":"オキナワケン","city_kana":"シマジリグンクメジマチョウ","town_kana":"ヒヤジョウ","prefecture":"沖縄県","city":"島尻郡久米島町","town":"比屋定"},{"zip_code":"9013112","prefecture_kana":"オキナワケン","city_kana":"シマジリグンクメジマチョウ","town_kana":"マガリ","prefecture":"沖縄県","city":"島尻郡久米島町","town":"真我里"},{"zip_code":"9013104","prefecture_kana":"オキナワケン","city_kana":"シマジリグンクメジマチョウ","town_kana":"マジャ","prefecture":"沖縄県","city":"島尻郡久米島町","town":"真謝"},{"zip_code":"9013111","prefecture_kana":"オキナワケン","city_kana":"シマジリグンクメジマチョウ","town_kana":"ヤマグスク","prefecture":"沖縄県","city":"島尻郡久米島町","town":"山城"},{"zip_code":"9013137","prefecture_kana":"オキナワケン","city_kana":"シマジリグンクメジマチョウ","town_kana":"ヤマザト","prefecture":"沖縄県","city":"島尻郡久米島町","town":"山里"},{"zip_code":"9010400","prefecture_kana":"オキナワケン","city_kana":"シマジリグンヤエセチョウ","town_kana":"イカニケイサイガナイバアイ","prefecture":"沖縄県","city":"島尻郡八重瀬町","town":"以下に掲載がない場合"},{"zip_code":"9010514","prefecture_kana":"オキナワケン","city_kana":"シマジリグンヤエセチョウ","town_kana":"アサト","prefecture":"沖縄県","city":"島尻郡八重瀬町","town":"安里"},{"zip_code":"9010503","prefecture_kana":"オキナワケン","city_kana":"シマジリグンヤエセチョウ","town_kana":"アラグスク","prefecture":"沖縄県","city":"島尻郡八重瀬町","town":"新城"},{"zip_code":"9010405","prefecture_kana":"オキナワケン","city_kana":"シマジリグンヤエセチョウ","town_kana":"イハ","prefecture":"沖縄県","city":"島尻郡八重瀬町","town":"伊覇"},{"zip_code":"9010412","prefecture_kana":"オキナワケン","city_kana":"シマジリグンヤエセチョウ","town_kana":"ウエタバル","prefecture":"沖縄県","city":"島尻郡八重瀬町","town":"上田原"},{"zip_code":"9010502","prefecture_kana":"オキナワケン","city_kana":"シマジリグンヤエセチョウ","town_kana":"オオトン","prefecture":"沖縄県","city":"島尻郡八重瀬町","town":"大頓"},{"zip_code":"9010416","prefecture_kana":"オキナワケン","city_kana":"シマジリグンヤエセチョウ","town_kana":"ギシ","prefecture":"沖縄県","city":"島尻郡八重瀬町","town":"宜次"},{"zip_code":"9010512","prefecture_kana":"オキナワケン","city_kana":"シマジリグンヤエセチョウ","town_kana":"グシチャン","prefecture":"沖縄県","city":"島尻郡八重瀬町","town":"具志頭"},{"zip_code":"9010415","prefecture_kana":"オキナワケン","city_kana":"シマジリグンヤエセチョウ","town_kana":"コグスク","prefecture":"沖縄県","city":"島尻郡八重瀬町","town":"小城"},{"zip_code":"9010504","prefecture_kana":"オキナワケン","city_kana":"シマジリグンヤエセチョウ","town_kana":"コシハラ","prefecture":"沖縄県","city":"島尻郡八重瀬町","town":"後原"},{"zip_code":"9010401","prefecture_kana":"オキナワケン","city_kana":"シマジリグンヤエセチョウ","town_kana":"コチンダ","prefecture":"沖縄県","city":"島尻郡八重瀬町","town":"東風平"},{"zip_code":"9010413","prefecture_kana":"オキナワケン","city_kana":"シマジリグンヤエセチョウ","town_kana":"シタハク","prefecture":"沖縄県","city":"島尻郡八重瀬町","town":"志多伯"},{"zip_code":"9010404","prefecture_kana":"オキナワケン","city_kana":"シマジリグンヤエセチョウ","town_kana":"タカラ","prefecture":"沖縄県","city":"島尻郡八重瀬町","town":"高良"},{"zip_code":"9010414","prefecture_kana":"オキナワケン","city_kana":"シマジリグンヤエセチョウ","town_kana":"トウメ","prefecture":"沖縄県","city":"島尻郡八重瀬町","town":"当銘"},{"zip_code":"9010411","prefecture_kana":"オキナワケン","city_kana":"シマジリグンヤエセチョウ","town_kana":"トモヨセ","prefecture":"沖縄県","city":"島尻郡八重瀬町","town":"友寄"},{"zip_code":"9010402","prefecture_kana":"オキナワケン","city_kana":"シマジリグンヤエセチョウ","town_kana":"トモリ","prefecture":"沖縄県","city":"島尻郡八重瀬町","town":"富盛"},{"zip_code":"9010516","prefecture_kana":"オキナワケン","city_kana":"シマジリグンヤエセチョウ","town_kana":"ナカザ","prefecture":"沖縄県","city":"島尻郡八重瀬町","town":"仲座"},{"zip_code":"9010501","prefecture_kana":"オキナワケン","city_kana":"シマジリグンヤエセチョウ","town_kana":"ナガモウ","prefecture":"沖縄県","city":"島尻郡八重瀬町","town":"長毛"},{"zip_code":"9010513","prefecture_kana":"オキナワケン","city_kana":"シマジリグンヤエセチョウ","town_kana":"ハナシロ","prefecture":"沖縄県","city":"島尻郡八重瀬町","town":"玻名城"},{"zip_code":"9010417","prefecture_kana":"オキナワケン","city_kana":"シマジリグンヤエセチョウ","town_kana":"ホカマ","prefecture":"沖縄県","city":"島尻郡八重瀬町","town":"外間"},{"zip_code":"9010511","prefecture_kana":"オキナワケン","city_kana":"シマジリグンヤエセチョウ","town_kana":"ミナトガワ","prefecture":"沖縄県","city":"島尻郡八重瀬町","town":"港川"},{"zip_code":"9010406","prefecture_kana":"オキナワケン","city_kana":"シマジリグンヤエセチョウ","town_kana":"ヤギバル","prefecture":"沖縄県","city":"島尻郡八重瀬町","town":"屋宜原"},{"zip_code":"9010515","prefecture_kana":"オキナワケン","city_kana":"シマジリグンヤエセチョウ","town_kana":"ヨザ","prefecture":"沖縄県","city":"島尻郡八重瀬町","town":"与座"},{"zip_code":"9010403","prefecture_kana":"オキナワケン","city_kana":"シマジリグンヤエセチョウ","town_kana":"ヨナグスク","prefecture":"沖縄県","city":"島尻郡八重瀬町","town":"世名城"},{"zip_code":"9060600","prefecture_kana":"オキナワケン","city_kana":"ミヤコグンタラマソン","town_kana":"イカニケイサイガナイバアイ","prefecture":"沖縄県","city":"宮古郡多良間村","town":"以下に掲載がない場合"},{"zip_code":"9060601","prefecture_kana":"オキナワケン","city_kana":"ミヤコグンタラマソン","town_kana":"シオカワ","prefecture":"沖縄県","city":"宮古郡多良間村","town":"塩川"},{"zip_code":"9060602","prefecture_kana":"オキナワケン","city_kana":"ミヤコグンタラマソン","town_kana":"ナカスジ","prefecture":"沖縄県","city":"宮古郡多良間村","town":"仲筋"},{"zip_code":"9060603","prefecture_kana":"オキナワケン","city_kana":"ミヤコグンタラマソン","town_kana":"ミンナ","prefecture":"沖縄県","city":"宮古郡多良間村","town":"水納"},{"zip_code":"9070000","prefecture_kana":"オキナワケン","city_kana":"ヤエヤマグンタケトミチョウ","town_kana":"イカニケイサイガナイバアイ","prefecture":"沖縄県","city":"八重山郡竹富町","town":"以下に掲載がない場合"},{"zip_code":"9071435","prefecture_kana":"オキナワケン","city_kana":"ヤエヤマグンタケトミチョウ","town_kana":"アラグスク","prefecture":"沖縄県","city":"八重山郡竹富町","town":"新城"},{"zip_code":"9071542","prefecture_kana":"オキナワケン","city_kana":"ヤエヤマグンタケトミチョウ","town_kana":"イリオモテ","prefecture":"沖縄県","city":"八重山郡竹富町","town":"西表"},{"zip_code":"9071541","prefecture_kana":"オキナワケン","city_kana":"ヤエヤマグンタケトミチョウ","town_kana":"ウエハラ","prefecture":"沖縄県","city":"八重山郡竹富町","town":"上原"},{"zip_code":"9071311","prefecture_kana":"オキナワケン","city_kana":"ヤエヤマグンタケトミチョウ","town_kana":"クロシマ","prefecture":"沖縄県","city":"八重山郡竹富町","town":"黒島"},{"zip_code":"9071221","prefecture_kana":"オキナワケン","city_kana":"ヤエヤマグンタケトミチョウ","town_kana":"コハマ","prefecture":"沖縄県","city":"八重山郡竹富町","town":"小浜"},{"zip_code":"9071432","prefecture_kana":"オキナワケン","city_kana":"ヤエヤマグンタケトミチョウ","town_kana":"コミ","prefecture":"沖縄県","city":"八重山郡竹富町","town":"古見"},{"zip_code":"9071543","prefecture_kana":"オキナワケン","city_kana":"ヤエヤマグンタケトミチョウ","town_kana":"サキヤマ","prefecture":"沖縄県","city":"八重山郡竹富町","town":"崎山"},{"zip_code":"9071431","prefecture_kana":"オキナワケン","city_kana":"ヤエヤマグンタケトミチョウ","town_kana":"タカナ","prefecture":"沖縄県","city":"八重山郡竹富町","town":"高那"},{"zip_code":"9071101","prefecture_kana":"オキナワケン","city_kana":"ヤエヤマグンタケトミチョウ","town_kana":"タケトミ","prefecture":"沖縄県","city":"八重山郡竹富町","town":"竹富"},{"zip_code":"9071434","prefecture_kana":"オキナワケン","city_kana":"ヤエヤマグンタケトミチョウ","town_kana":"ハイミ","prefecture":"沖縄県","city":"八重山郡竹富町","town":"南風見"},{"zip_code":"9071433","prefecture_kana":"オキナワケン","city_kana":"ヤエヤマグンタケトミチョウ","town_kana":"ハイミナカ","prefecture":"沖縄県","city":"八重山郡竹富町","town":"南風見仲"},{"zip_code":"9071751","prefecture_kana":"オキナワケン","city_kana":"ヤエヤマグンタケトミチョウ","town_kana":"ハテルマ","prefecture":"沖縄県","city":"八重山郡竹富町","town":"波照間"},{"zip_code":"9071544","prefecture_kana":"オキナワケン","city_kana":"ヤエヤマグンタケトミチョウ","town_kana":"ハトマ","prefecture":"沖縄県","city":"八重山郡竹富町","town":"鳩間"},{"zip_code":"9071800","prefecture_kana":"オキナワケン","city_kana":"ヤエヤマグンヨナグニチョウ","town_kana":"イカニケイサイガナイバアイ","prefecture":"沖縄県","city":"八重山郡与那国町","town":"以下に掲載がない場合"},{"zip_code":"9071801","prefecture_kana":"オキナワケン","city_kana":"ヤエヤマグンヨナグニチョウ","town_kana":"ヨナグニ","prefecture":"沖縄県","city":"八重山郡与那国町","town":"与那国"}]