[{"zip_code":"8490000","prefecture_kana":"サガケン","city_kana":"サガシ","town_kana":"イカニケイサイガナイバアイ","prefecture":"佐賀県","city":"佐賀市","town":"以下に掲載がない場合"},{"zip_code":"8400812","prefecture_kana":"サガケン","city_kana":"サガシ","town_kana":"アイケイチョウ","prefecture":"佐賀県","city":"佐賀市","town":"愛敬町"},{"zip_code":"8400042","prefecture_kana":"サガケン","city_kana":"サガシ","town_kana":"アカマツマチ","prefecture":"佐賀県","city":"佐賀市","town":"赤松町"},{"zip_code":"8400053","prefecture_kana":"サガケン","city_kana":"サガシ","town_kana":"アサヒマチ","prefecture":"佐賀県","city":"佐賀市","town":"朝日町"},{"zip_code":"8400844","prefecture_kana":"サガケン","city_kana":"サガシ","town_kana":"イセマチ","prefecture":"佐賀県","city":"佐賀市","town":"伊勢町"},{"zip_code":"8400052","prefecture_kana":"サガケン","city_kana":"サガシ","town_kana":"イマシュクマチ","prefecture":"佐賀県","city":"佐賀市","town":"今宿町"},{"zip_code":"8400801","prefecture_kana":"サガケン","city_kana":"サガシ","town_kana":"エキマエチュウオウ","prefecture":"佐賀県","city":"佐賀市","town":"駅前中央"},{"zip_code":"8400816","prefecture_kana":"サガケン","city_kana":"サガシ","town_kana":"エキミナミホンマチ","prefecture":"佐賀県","city":"佐賀市","town":"駅南本町"},{"zip_code":"8400811","prefecture_kana":"サガケン","city_kana":"サガシ","town_kana":"オオタカラ","prefecture":"佐賀県","city":"佐賀市","town":"大財"},{"zip_code":"8400802","prefecture_kana":"サガケン","city_kana":"サガシ","town_kana":"オオタカラキタマチ","prefecture":"佐賀県","city":"佐賀市","town":"大財北町"},{"zip_code":"8400021","prefecture_kana":"サガケン","city_kana":"サガシ","town_kana":"オニマルチョウ","prefecture":"佐賀県","city":"佐賀市","town":"鬼丸町"},{"zip_code":"8490933","prefecture_kana":"サガケン","city_kana":"サガシ","town_kana":"オロシホンマチ","prefecture":"佐賀県","city":"佐賀市","town":"卸本町"},{"zip_code":"8490934","prefecture_kana":"サガケン","city_kana":"サガシ","town_kana":"カイセイ","prefecture":"佐賀県","city":"佐賀市","town":"開成"},{"zip_code":"8400862","prefecture_kana":"サガケン","city_kana":"サガシ","town_kana":"カセマチオウギマチ","prefecture":"佐賀県","city":"佐賀市","town":"嘉瀬町扇町"},{"zip_code":"8400864","prefecture_kana":"サガケン","city_kana":"サガシ","town_kana":"カセマチオギノ","prefecture":"佐賀県","city":"佐賀市","town":"嘉瀬町荻野"},{"zip_code":"8400863","prefecture_kana":"サガケン","city_kana":"サガシ","town_kana":"カセマチジュウゴ","prefecture":"佐賀県","city":"佐賀市","town":"嘉瀬町十五"},{"zip_code":"8400861","prefecture_kana":"サガケン","city_kana":"サガシ","town_kana":"カセマチナカバル","prefecture":"佐賀県","city":"佐賀市","town":"嘉瀬町中原"},{"zip_code":"8400806","prefecture_kana":"サガケン","city_kana":"サガシ","town_kana":"カミゾノ","prefecture":"佐賀県","city":"佐賀市","town":"神園"},{"zip_code":"8402212","prefecture_kana":"サガケン","city_kana":"サガシ","town_kana":"カワソエマチイヌイドウ","prefecture":"佐賀県","city":"佐賀市","town":"川副町犬井道"},{"zip_code":"8402211","prefecture_kana":"サガケン","city_kana":"サガシ","town_kana":"カワソエマチオオダクマ","prefecture":"佐賀県","city":"佐賀市","town":"川副町大詫間"},{"zip_code":"8402213","prefecture_kana":"サガケン","city_kana":"サガシ","town_kana":"カワソエマチカノエ","prefecture":"佐賀県","city":"佐賀市","town":"川副町鹿江"},{"zip_code":"8402214","prefecture_kana":"サガケン","city_kana":"サガシ","town_kana":"カワソエマチコゴモリ","prefecture":"佐賀県","city":"佐賀市","town":"川副町小々森"},{"zip_code":"8402205","prefecture_kana":"サガケン","city_kana":"サガシ","town_kana":"カワソエマチナンリ","prefecture":"佐賀県","city":"佐賀市","town":"川副町南里"},{"zip_code":"8402204","prefecture_kana":"サガケン","city_kana":"サガシ","town_kana":"カワソエマチニシコガ","prefecture":"佐賀県","city":"佐賀市","town":"川副町西古賀"},{"zip_code":"8402203","prefecture_kana":"サガケン","city_kana":"サガシ","town_kana":"カワソエマチハヤツエ","prefecture":"佐賀県","city":"佐賀市","town":"川副町早津江"},{"zip_code":"8402202","prefecture_kana":"サガケン","city_kana":"サガシ","town_kana":"カワソエマチハヤツエツ","prefecture":"佐賀県","city":"佐賀市","town":"川副町早津江津"},{"zip_code":"8402201","prefecture_kana":"サガケン","city_kana":"サガシ","town_kana":"カワソエマチフクドミ","prefecture":"佐賀県","city":"佐賀市","town":"川副町福富"},{"zip_code":"8400843","prefecture_kana":"サガケン","city_kana":"サガシ","town_kana":"カワハラマチ","prefecture":"佐賀県","city":"佐賀市","town":"川原町"},{"zip_code":"8400011","prefecture_kana":"サガケン","city_kana":"サガシ","town_kana":"キタカワソエマチエガミ","prefecture":"佐賀県","city":"佐賀市","town":"北川副町江上"},{"zip_code":"8400013","prefecture_kana":"サガケン","city_kana":"サガシ","town_kana":"キタカワソエマチシンゴウ","prefecture":"佐賀県","city":"佐賀市","town":"北川副町新郷"},{"zip_code":"8400012","prefecture_kana":"サガケン","city_kana":"サガシ","town_kana":"キタカワソエマチミツノリ","prefecture":"佐賀県","city":"佐賀市","town":"北川副町光法"},{"zip_code":"8400015","prefecture_kana":"サガケン","city_kana":"サガシ","town_kana":"キハラ","prefecture":"佐賀県","city":"佐賀市","town":"木原"},{"zip_code":"8490906","prefecture_kana":"サガケン","city_kana":"サガシ","town_kana":"キンリュウマチキンリュウ","prefecture":"佐賀県","city":"佐賀市","town":"金立町金立"},{"zip_code":"8490905","prefecture_kana":"サガケン","city_kana":"サガシ","town_kana":"キンリュウマチチフ","prefecture":"佐賀県","city":"佐賀市","town":"金立町千布"},{"zip_code":"8490904","prefecture_kana":"サガケン","city_kana":"サガシ","town_kana":"キンリュウマチヤクシマル","prefecture":"佐賀県","city":"佐賀市","town":"金立町薬師丸"},{"zip_code":"8490902","prefecture_kana":"サガケン","city_kana":"サガシ","town_kana":"クボイズミマチカミイズミ","prefecture":"佐賀県","city":"佐賀市","town":"久保泉町上和泉"},{"zip_code":"8490901","prefecture_kana":"サガケン","city_kana":"サガシ","town_kana":"クボイズミマチカワクボ","prefecture":"佐賀県","city":"佐賀市","town":"久保泉町川久保"},{"zip_code":"8490903","prefecture_kana":"サガケン","city_kana":"サガシ","town_kana":"クボイズミマチシモイズミ","prefecture":"佐賀県","city":"佐賀市","town":"久保泉町下和泉"},{"zip_code":"8490205","prefecture_kana":"サガケン","city_kana":"サガシ","town_kana":"クボタチョウエド","prefecture":"佐賀県","city":"佐賀市","town":"久保田町江戸"},{"zip_code":"8490204","prefecture_kana":"サガケン","city_kana":"サガシ","town_kana":"クボタチョウクボタ","prefecture":"佐賀県","city":"佐賀市","town":"久保田町久保田"},{"zip_code":"8490203","prefecture_kana":"サガケン","city_kana":"サガシ","town_kana":"クボタチョウシンデン","prefecture":"佐賀県","city":"佐賀市","town":"久保田町新田"},{"zip_code":"8490201","prefecture_kana":"サガケン","city_kana":"サガシ","town_kana":"クボタチョウトクマン","prefecture":"佐賀県","city":"佐賀市","town":"久保田町徳万"},{"zip_code":"8490202","prefecture_kana":"サガケン","city_kana":"サガシ","town_kana":"クボタチョウヒサドミ","prefecture":"佐賀県","city":"佐賀市","town":"久保田町久富"},{"zip_code":"8400804","prefecture_kana":"サガケン","city_kana":"サガシ","town_kana":"コウノヒガシ","prefecture":"佐賀県","city":"佐賀市","town":"神野東"},{"zip_code":"8400805","prefecture_kana":"サガケン","city_kana":"サガシ","town_kana":"コウノニシ","prefecture":"佐賀県","city":"佐賀市","town":"神野西"},{"zip_code":"8400008","prefecture_kana":"サガケン","city_kana":"サガシ","town_kana":"コセマチウシジマ","prefecture":"佐賀県","city":"佐賀市","town":"巨勢町牛島"},{"zip_code":"8400007","prefecture_kana":"サガケン","city_kana":"サガシ","town_kana":"コセマチタカオ","prefecture":"佐賀県","city":"佐賀市","town":"巨勢町高尾"},{"zip_code":"8400001","prefecture_kana":"サガケン","city_kana":"サガシ","town_kana":"コセマチシュリタ","prefecture":"佐賀県","city":"佐賀市","town":"巨勢町修理田"},{"zip_code":"8400006","prefecture_kana":"サガケン","city_kana":"サガシ","town_kana":"コセマチトウザイ","prefecture":"佐賀県","city":"佐賀市","town":"巨勢町東西"},{"zip_code":"8400824","prefecture_kana":"サガケン","city_kana":"サガシ","town_kana":"ゴフクモトマチ","prefecture":"佐賀県","city":"佐賀市","town":"呉服元町"},{"zip_code":"8400056","prefecture_kana":"サガケン","city_kana":"サガシ","town_kana":"コンヤマチ","prefecture":"佐賀県","city":"佐賀市","town":"紺屋町"},{"zip_code":"8400055","prefecture_kana":"サガケン","city_kana":"サガシ","town_kana":"ザイモク","prefecture":"佐賀県","city":"佐賀市","town":"材木"},{"zip_code":"8400803","prefecture_kana":"サガケン","city_kana":"サガシ","town_kana":"サカエマチ","prefecture":"佐賀県","city":"佐賀市","town":"栄町"},{"zip_code":"8400044","prefecture_kana":"サガケン","city_kana":"サガシ","town_kana":"サヤノモトマチ","prefecture":"佐賀県","city":"佐賀市","town":"道祖元町"},{"zip_code":"8400031","prefecture_kana":"サガケン","city_kana":"サガシ","town_kana":"シモダマチ","prefecture":"佐賀県","city":"佐賀市","town":"下田町"},{"zip_code":"8400855","prefecture_kana":"サガケン","city_kana":"サガシ","town_kana":"ショウエイマチ","prefecture":"佐賀県","city":"佐賀市","town":"昭栄町"},{"zip_code":"8400041","prefecture_kana":"サガケン","city_kana":"サガシ","town_kana":"ジョウナイ","prefecture":"佐賀県","city":"佐賀市","town":"城内"},{"zip_code":"8400043","prefecture_kana":"サガケン","city_kana":"サガシ","town_kana":"シラゲマチ","prefecture":"佐賀県","city":"佐賀市","town":"精町"},{"zip_code":"8400826","prefecture_kana":"サガケン","city_kana":"サガシ","town_kana":"シラヤマ","prefecture":"佐賀県","city":"佐賀市","town":"白山"},{"zip_code":"8400859","prefecture_kana":"サガケン","city_kana":"サガシ","town_kana":"シンエイニシ","prefecture":"佐賀県","city":"佐賀市","town":"新栄西"},{"zip_code":"8400850","prefecture_kana":"サガケン","city_kana":"サガシ","town_kana":"シンエイヒガシ","prefecture":"佐賀県","city":"佐賀市","town":"新栄東"},{"zip_code":"8400017","prefecture_kana":"サガケン","city_kana":"サガシ","town_kana":"シンゴウホンマチ","prefecture":"佐賀県","city":"佐賀市","town":"新郷本町"},{"zip_code":"8400856","prefecture_kana":"サガケン","city_kana":"サガシ","town_kana":"シンセイマチ","prefecture":"佐賀県","city":"佐賀市","town":"新生町"},{"zip_code":"8490924","prefecture_kana":"サガケン","city_kana":"サガシ","town_kana":"シンナカマチ","prefecture":"佐賀県","city":"佐賀市","town":"新中町"},{"zip_code":"8400032","prefecture_kana":"サガケン","city_kana":"サガシ","town_kana":"スエヒロ","prefecture":"佐賀県","city":"佐賀市","town":"末広"},{"zip_code":"8400814","prefecture_kana":"サガケン","city_kana":"サガシ","town_kana":"セイショウマチ","prefecture":"佐賀県","city":"佐賀市","town":"成章町"},{"zip_code":"8490927","prefecture_kana":"サガケン","city_kana":"サガシ","town_kana":"タカキセダンチ","prefecture":"佐賀県","city":"佐賀市","town":"高木瀬団地"},{"zip_code":"8490922","prefecture_kana":"サガケン","city_kana":"サガシ","town_kana":"タカキセヒガシ","prefecture":"佐賀県","city":"佐賀市","town":"高木瀬東"},{"zip_code":"8490921","prefecture_kana":"サガケン","city_kana":"サガシ","town_kana":"タカキセニシ","prefecture":"佐賀県","city":"佐賀市","town":"高木瀬西"},{"zip_code":"8490917","prefecture_kana":"サガケン","city_kana":"サガシ","town_kana":"タカキセマチナガセ","prefecture":"佐賀県","city":"佐賀市","town":"高木瀬町長瀬"},{"zip_code":"8490916","prefecture_kana":"サガケン","city_kana":"サガシ","town_kana":"タカキセマチヒガシタカギ","prefecture":"佐賀県","city":"佐賀市","town":"高木瀬町東高木"},{"zip_code":"8400822","prefecture_kana":"サガケン","city_kana":"サガシ","town_kana":"タカギマチ","prefecture":"佐賀県","city":"佐賀市","town":"高木町"},{"zip_code":"8400051","prefecture_kana":"サガケン","city_kana":"サガシ","town_kana":"タシロ","prefecture":"佐賀県","city":"佐賀市","town":"田代"},{"zip_code":"8400842","prefecture_kana":"サガケン","city_kana":"サガシ","town_kana":"タフセ","prefecture":"佐賀県","city":"佐賀市","town":"多布施"},{"zip_code":"8400825","prefecture_kana":"サガケン","city_kana":"サガシ","town_kana":"チュウオウホンマチ","prefecture":"佐賀県","city":"佐賀市","town":"中央本町"},{"zip_code":"8400815","prefecture_kana":"サガケン","city_kana":"サガシ","town_kana":"テンジン","prefecture":"佐賀県","city":"佐賀市","town":"天神"},{"zip_code":"8400851","prefecture_kana":"サガケン","city_kana":"サガシ","town_kana":"テンユウ","prefecture":"佐賀県","city":"佐賀市","town":"天祐"},{"zip_code":"8400858","prefecture_kana":"サガケン","city_kana":"サガシ","town_kana":"テンユウダンチ","prefecture":"佐賀県","city":"佐賀市","town":"天祐団地"},{"zip_code":"8400813","prefecture_kana":"サガケン","city_kana":"サガシ","town_kana":"トウジン","prefecture":"佐賀県","city":"佐賀市","town":"唐人"},{"zip_code":"8400852","prefecture_kana":"サガケン","city_kana":"サガシ","town_kana":"ナカオレマチ","prefecture":"佐賀県","city":"佐賀市","town":"中折町"},{"zip_code":"8400833","prefecture_kana":"サガケン","city_kana":"サガシ","town_kana":"ナカノコウジ","prefecture":"佐賀県","city":"佐賀市","town":"中の小路"},{"zip_code":"8400022","prefecture_kana":"サガケン","city_kana":"サガシ","town_kana":"ナカノタテマチ","prefecture":"佐賀県","city":"佐賀市","town":"中の館町"},{"zip_code":"8400853","prefecture_kana":"サガケン","city_kana":"サガシ","town_kana":"ナガセマチ","prefecture":"佐賀県","city":"佐賀市","town":"長瀬町"},{"zip_code":"8490937","prefecture_kana":"サガケン","city_kana":"サガシ","town_kana":"ナベシマ","prefecture":"佐賀県","city":"佐賀市","town":"鍋島"},{"zip_code":"8490931","prefecture_kana":"サガケン","city_kana":"サガシ","town_kana":"ナベシママチカキヒサ","prefecture":"佐賀県","city":"佐賀市","town":"鍋島町蛎久"},{"zip_code":"8490938","prefecture_kana":"サガケン","city_kana":"サガシ","town_kana":"ナベシママチナベシマ","prefecture":"佐賀県","city":"佐賀市","town":"鍋島町鍋島"},{"zip_code":"8490936","prefecture_kana":"サガケン","city_kana":"サガシ","town_kana":"ナベシママチモリタ","prefecture":"佐賀県","city":"佐賀市","town":"鍋島町森田"},{"zip_code":"8400857","prefecture_kana":"サガケン","city_kana":"サガシ","town_kana":"ナベシママチヤエ","prefecture":"佐賀県","city":"佐賀市","town":"鍋島町八戸"},{"zip_code":"8490932","prefecture_kana":"サガケン","city_kana":"サガシ","town_kana":"ナベシママチヤエミゾ","prefecture":"佐賀県","city":"佐賀市","town":"鍋島町八戸溝"},{"zip_code":"8400046","prefecture_kana":"サガケン","city_kana":"サガシ","town_kana":"ニシウオマチ","prefecture":"佐賀県","city":"佐賀市","town":"西魚町"},{"zip_code":"8400045","prefecture_kana":"サガケン","city_kana":"サガシ","town_kana":"ニシタシロ","prefecture":"佐賀県","city":"佐賀市","town":"西田代"},{"zip_code":"8400035","prefecture_kana":"サガケン","city_kana":"サガシ","town_kana":"ニシヨカマチイマヅ","prefecture":"佐賀県","city":"佐賀市","town":"西与賀町今津"},{"zip_code":"8400037","prefecture_kana":"サガケン","city_kana":"サガシ","town_kana":"ニシヨカマチソウオウツ","prefecture":"佐賀県","city":"佐賀市","town":"西与賀町相応津"},{"zip_code":"8400034","prefecture_kana":"サガケン","city_kana":"サガシ","town_kana":"ニシヨカマチリンゲ","prefecture":"佐賀県","city":"佐賀市","town":"西与賀町厘外"},{"zip_code":"8400036","prefecture_kana":"サガケン","city_kana":"サガシ","town_kana":"ニシヨカマチタカタロウ","prefecture":"佐賀県","city":"佐賀市","town":"西与賀町高太郎"},{"zip_code":"8400005","prefecture_kana":"サガケン","city_kana":"サガシ","town_kana":"ハスイケマチハスイケ","prefecture":"佐賀県","city":"佐賀市","town":"蓮池町蓮池"},{"zip_code":"8400003","prefecture_kana":"サガケン","city_kana":"サガシ","town_kana":"ハスイケマチコガ","prefecture":"佐賀県","city":"佐賀市","town":"蓮池町古賀"},{"zip_code":"8400004","prefecture_kana":"サガケン","city_kana":"サガシ","town_kana":"ハスイケマチコマツ","prefecture":"佐賀県","city":"佐賀市","town":"蓮池町小松"},{"zip_code":"8400002","prefecture_kana":"サガケン","city_kana":"サガシ","town_kana":"ハスイケマチミシマ","prefecture":"佐賀県","city":"佐賀市","town":"蓮池町見島"},{"zip_code":"8400834","prefecture_kana":"サガケン","city_kana":"サガシ","town_kana":"ハチマンコウジ","prefecture":"佐賀県","city":"佐賀市","town":"八幡小路"},{"zip_code":"8490925","prefecture_kana":"サガケン","city_kana":"サガシ","town_kana":"ハッチョウナワテマチ","prefecture":"佐賀県","city":"佐賀市","town":"八丁畷町"},{"zip_code":"8400033","prefecture_kana":"サガケン","city_kana":"サガシ","town_kana":"ヒカリ","prefecture":"佐賀県","city":"佐賀市","town":"光"},{"zip_code":"8400821","prefecture_kana":"サガケン","city_kana":"サガシ","town_kana":"ヒガシサガマチ","prefecture":"佐賀県","city":"佐賀市","town":"東佐賀町"},{"zip_code":"8402223","prefecture_kana":"サガケン","city_kana":"サガシ","town_kana":"ヒガシヨカチョウイサガイ","prefecture":"佐賀県","city":"佐賀市","town":"東与賀町飯盛"},{"zip_code":"8402221","prefecture_kana":"サガケン","city_kana":"サガシ","town_kana":"ヒガシヨカチョウシモコガ","prefecture":"佐賀県","city":"佐賀市","town":"東与賀町下古賀"},{"zip_code":"8402222","prefecture_kana":"サガケン","city_kana":"サガシ","town_kana":"ヒガシヨカチョウタナカ","prefecture":"佐賀県","city":"佐賀市","town":"東与賀町田中"},{"zip_code":"8490923","prefecture_kana":"サガケン","city_kana":"サガシ","town_kana":"ヒノデ","prefecture":"佐賀県","city":"佐賀市","town":"日の出"},{"zip_code":"8490912","prefecture_kana":"サガケン","city_kana":"サガシ","town_kana":"ヒョウゴマチカワラマチ","prefecture":"佐賀県","city":"佐賀市","town":"兵庫町瓦町"},{"zip_code":"8490915","prefecture_kana":"サガケン","city_kana":"サガシ","town_kana":"ヒョウゴマチフジノキ","prefecture":"佐賀県","city":"佐賀市","town":"兵庫町藤木"},{"zip_code":"8490914","prefecture_kana":"サガケン","city_kana":"サガシ","town_kana":"ヒョウゴマチニシブチ","prefecture":"佐賀県","city":"佐賀市","town":"兵庫町西渕"},{"zip_code":"8490913","prefecture_kana":"サガケン","city_kana":"サガシ","town_kana":"ヒョウゴマチフチ","prefecture":"佐賀県","city":"佐賀市","town":"兵庫町渕"},{"zip_code":"8490911","prefecture_kana":"サガケン","city_kana":"サガシ","town_kana":"ヒョウゴマチワカミヤ","prefecture":"佐賀県","city":"佐賀市","town":"兵庫町若宮"},{"zip_code":"8490919","prefecture_kana":"サガケン","city_kana":"サガシ","town_kana":"ヒョウゴキタ","prefecture":"佐賀県","city":"佐賀市","town":"兵庫北"},{"zip_code":"8490918","prefecture_kana":"サガケン","city_kana":"サガシ","town_kana":"ヒョウゴミナミ","prefecture":"佐賀県","city":"佐賀市","town":"兵庫南"},{"zip_code":"8400503","prefecture_kana":"サガケン","city_kana":"サガシ","town_kana":"フジチョウイチカワ","prefecture":"佐賀県","city":"佐賀市","town":"富士町市川"},{"zip_code":"8400514","prefecture_kana":"サガケン","city_kana":"サガシ","town_kana":"フジチョウウチノ","prefecture":"佐賀県","city":"佐賀市","town":"富士町内野"},{"zip_code":"8400516","prefecture_kana":"サガケン","city_kana":"サガシ","town_kana":"フジチョウウメノ","prefecture":"佐賀県","city":"佐賀市","town":"富士町梅野"},{"zip_code":"8400533","prefecture_kana":"サガケン","city_kana":"サガシ","town_kana":"フジチョウオオクシ","prefecture":"佐賀県","city":"佐賀市","town":"富士町大串"},{"zip_code":"8400532","prefecture_kana":"サガケン","city_kana":"サガシ","town_kana":"フジチョウオオノ","prefecture":"佐賀県","city":"佐賀市","town":"富士町大野"},{"zip_code":"8400521","prefecture_kana":"サガケン","city_kana":"サガシ","town_kana":"フジチョウオソエガワ","prefecture":"佐賀県","city":"佐賀市","town":"富士町小副川"},{"zip_code":"8400511","prefecture_kana":"サガケン","city_kana":"サガシ","town_kana":"フジチョウカマバル","prefecture":"佐賀県","city":"佐賀市","town":"富士町鎌原"},{"zip_code":"8400545","prefecture_kana":"サガケン","city_kana":"サガシ","town_kana":"フジチョウカミオオセ","prefecture":"佐賀県","city":"佐賀市","town":"富士町上合瀬"},{"zip_code":"8400512","prefecture_kana":"サガケン","city_kana":"サガシ","town_kana":"フジチョウカミクマカワ","prefecture":"佐賀県","city":"佐賀市","town":"富士町上熊川"},{"zip_code":"8400536","prefecture_kana":"サガケン","city_kana":"サガシ","town_kana":"フジチョウカミムツロ","prefecture":"佐賀県","city":"佐賀市","town":"富士町上無津呂"},{"zip_code":"8400531","prefecture_kana":"サガケン","city_kana":"サガシ","town_kana":"フジチョウクリナミ","prefecture":"佐賀県","city":"佐賀市","town":"富士町栗並"},{"zip_code":"8400543","prefecture_kana":"サガケン","city_kana":"サガシ","town_kana":"フジチョウコバ","prefecture":"佐賀県","city":"佐賀市","town":"富士町古場"},{"zip_code":"8400544","prefecture_kana":"サガケン","city_kana":"サガシ","town_kana":"フジチョウシモオオセ","prefecture":"佐賀県","city":"佐賀市","town":"富士町下合瀬"},{"zip_code":"8400513","prefecture_kana":"サガケン","city_kana":"サガシ","town_kana":"フジチョウシモクマカワ","prefecture":"佐賀県","city":"佐賀市","town":"富士町下熊川"},{"zip_code":"8400535","prefecture_kana":"サガケン","city_kana":"サガシ","town_kana":"フジチョウシモムツロ","prefecture":"佐賀県","city":"佐賀市","town":"富士町下無津呂"},{"zip_code":"8400502","prefecture_kana":"サガケン","city_kana":"サガシ","town_kana":"フジチョウスギヤマ","prefecture":"佐賀県","city":"佐賀市","town":"富士町杉山"},{"zip_code":"8400541","prefecture_kana":"サガケン","city_kana":"サガシ","town_kana":"フジチョウセキヤ","prefecture":"佐賀県","city":"佐賀市","town":"富士町関屋"},{"zip_code":"8400504","prefecture_kana":"サガケン","city_kana":"サガシ","town_kana":"フジチョウチャノキ","prefecture":"佐賀県","city":"佐賀市","town":"富士町苣木"},{"zip_code":"8400534","prefecture_kana":"サガケン","city_kana":"サガシ","town_kana":"フジチョウナカバル","prefecture":"佐賀県","city":"佐賀市","town":"富士町中原"},{"zip_code":"8400522","prefecture_kana":"サガケン","city_kana":"サガシ","town_kana":"フジチョウハタセ","prefecture":"佐賀県","city":"佐賀市","town":"富士町畑瀬"},{"zip_code":"8400542","prefecture_kana":"サガケン","city_kana":"サガシ","town_kana":"フジチョウフジセ","prefecture":"佐賀県","city":"佐賀市","town":"富士町藤瀬"},{"zip_code":"8400501","prefecture_kana":"サガケン","city_kana":"サガシ","town_kana":"フジチョウフルユ","prefecture":"佐賀県","city":"佐賀市","town":"富士町古湯"},{"zip_code":"8400515","prefecture_kana":"サガケン","city_kana":"サガシ","town_kana":"フジチョウマツセ","prefecture":"佐賀県","city":"佐賀市","town":"富士町松瀬"},{"zip_code":"8400537","prefecture_kana":"サガケン","city_kana":"サガシ","town_kana":"フジチョウマナゴ","prefecture":"佐賀県","city":"佐賀市","town":"富士町麻那古"},{"zip_code":"8400832","prefecture_kana":"サガケン","city_kana":"サガシ","town_kana":"ホリカワチョウ","prefecture":"佐賀県","city":"佐賀市","town":"堀川町"},{"zip_code":"8400025","prefecture_kana":"サガケン","city_kana":"サガシ","town_kana":"ホンジョウマチカノコ","prefecture":"佐賀県","city":"佐賀市","town":"本庄町鹿子"},{"zip_code":"8400027","prefecture_kana":"サガケン","city_kana":"サガシ","town_kana":"ホンジョウマチホンジョウ","prefecture":"佐賀県","city":"佐賀市","town":"本庄町本庄"},{"zip_code":"8400026","prefecture_kana":"サガケン","city_kana":"サガシ","town_kana":"ホンジョウマチショウリ","prefecture":"佐賀県","city":"佐賀市","town":"本庄町正里"},{"zip_code":"8400024","prefecture_kana":"サガケン","city_kana":"サガシ","town_kana":"ホンジョウマチスエツグ","prefecture":"佐賀県","city":"佐賀市","town":"本庄町末次"},{"zip_code":"8400023","prefecture_kana":"サガケン","city_kana":"サガシ","town_kana":"ホンジョウマチフクロ","prefecture":"佐賀県","city":"佐賀市","town":"本庄町袋"},{"zip_code":"8400831","prefecture_kana":"サガケン","city_kana":"サガシ","town_kana":"マツバラ","prefecture":"佐賀県","city":"佐賀市","town":"松原"},{"zip_code":"8400054","prefecture_kana":"サガケン","city_kana":"サガシ","town_kana":"ミズガエ","prefecture":"佐賀県","city":"佐賀市","town":"水ケ江"},{"zip_code":"8420302","prefecture_kana":"サガケン","city_kana":"サガシ","town_kana":"ミツセムラフジバル","prefecture":"佐賀県","city":"佐賀市","town":"三瀬村藤原"},{"zip_code":"8420301","prefecture_kana":"サガケン","city_kana":"サガシ","town_kana":"ミツセムラミツセ","prefecture":"佐賀県","city":"佐賀市","town":"三瀬村三瀬"},{"zip_code":"8420303","prefecture_kana":"サガケン","city_kana":"サガシ","town_kana":"ミツセムラユズリハ","prefecture":"佐賀県","city":"佐賀市","town":"三瀬村杠"},{"zip_code":"8400841","prefecture_kana":"サガケン","city_kana":"サガシ","town_kana":"ミドリコウジ","prefecture":"佐賀県","city":"佐賀市","town":"緑小路"},{"zip_code":"8400016","prefecture_kana":"サガケン","city_kana":"サガシ","town_kana":"ミナミサガ","prefecture":"佐賀県","city":"佐賀市","town":"南佐賀"},{"zip_code":"8402101","prefecture_kana":"サガケン","city_kana":"サガシ","town_kana":"モロドミチョウオオドウ","prefecture":"佐賀県","city":"佐賀市","town":"諸富町大堂"},{"zip_code":"8402102","prefecture_kana":"サガケン","city_kana":"サガシ","town_kana":"モロドミチョウタメシゲ","prefecture":"佐賀県","city":"佐賀市","town":"諸富町為重"},{"zip_code":"8402103","prefecture_kana":"サガケン","city_kana":"サガシ","town_kana":"モロドミチョウテライツ","prefecture":"佐賀県","city":"佐賀市","town":"諸富町寺井津"},{"zip_code":"8402104","prefecture_kana":"サガケン","city_kana":"サガシ","town_kana":"モロドミチョウトクドミ","prefecture":"佐賀県","city":"佐賀市","town":"諸富町徳富"},{"zip_code":"8402105","prefecture_kana":"サガケン","city_kana":"サガシ","town_kana":"モロドミチョウモロドミツ","prefecture":"佐賀県","city":"佐賀市","town":"諸富町諸富津"},{"zip_code":"8402106","prefecture_kana":"サガケン","city_kana":"サガシ","town_kana":"モロドミチョウヤマリョウ","prefecture":"佐賀県","city":"佐賀市","town":"諸富町山領"},{"zip_code":"8400854","prefecture_kana":"サガケン","city_kana":"サガシ","town_kana":"ヤエ","prefecture":"佐賀県","city":"佐賀市","town":"八戸"},{"zip_code":"8490935","prefecture_kana":"サガケン","city_kana":"サガシ","town_kana":"ヤエミゾ","prefecture":"佐賀県","city":"佐賀市","town":"八戸溝"},{"zip_code":"8400823","prefecture_kana":"サガケン","city_kana":"サガシ","town_kana":"ヤナギマチ","prefecture":"佐賀県","city":"佐賀市","town":"柳町"},{"zip_code":"8400212","prefecture_kana":"サガケン","city_kana":"サガシ","town_kana":"ヤマトチョウイケノウエ","prefecture":"佐賀県","city":"佐賀市","town":"大和町池上"},{"zip_code":"8400203","prefecture_kana":"サガケン","city_kana":"サガシ","town_kana":"ヤマトチョウウメノ","prefecture":"佐賀県","city":"佐賀市","town":"大和町梅野"},{"zip_code":"8400214","prefecture_kana":"サガケン","city_kana":"サガシ","town_kana":"ヤマトチョウカワカミ","prefecture":"佐賀県","city":"佐賀市","town":"大和町川上"},{"zip_code":"8400202","prefecture_kana":"サガケン","city_kana":"サガシ","town_kana":"ヤマトチョウクチイ","prefecture":"佐賀県","city":"佐賀市","town":"大和町久池井"},{"zip_code":"8400213","prefecture_kana":"サガケン","city_kana":"サガシ","town_kana":"ヤマトチョウクルマ","prefecture":"佐賀県","city":"佐賀市","town":"大和町久留間"},{"zip_code":"8400205","prefecture_kana":"サガケン","city_kana":"サガシ","town_kana":"ヤマトチョウナオ","prefecture":"佐賀県","city":"佐賀市","town":"大和町名尾"},{"zip_code":"8400201","prefecture_kana":"サガケン","city_kana":"サガシ","town_kana":"ヤマトチョウニイジ","prefecture":"佐賀県","city":"佐賀市","town":"大和町尼寺"},{"zip_code":"8400215","prefecture_kana":"サガケン","city_kana":"サガシ","town_kana":"ヤマトチョウハッタバル","prefecture":"佐賀県","city":"佐賀市","town":"大和町八反原"},{"zip_code":"8400211","prefecture_kana":"サガケン","city_kana":"サガシ","town_kana":"ヤマトチョウヒガシヤマダ","prefecture":"佐賀県","city":"佐賀市","town":"大和町東山田"},{"zip_code":"8400204","prefecture_kana":"サガケン","city_kana":"サガシ","town_kana":"ヤマトチョウマツセ","prefecture":"佐賀県","city":"佐賀市","town":"大和町松瀬"},{"zip_code":"8400047","prefecture_kana":"サガケン","city_kana":"サガシ","town_kana":"ヨカマチ","prefecture":"佐賀県","city":"佐賀市","town":"与賀町"},{"zip_code":"8400845","prefecture_kana":"サガケン","city_kana":"サガシ","town_kana":"ロクザマチ","prefecture":"佐賀県","city":"佐賀市","town":"六座町"},{"zip_code":"8490928","prefecture_kana":"サガケン","city_kana":"サガシ","town_kana":"ワカクス","prefecture":"佐賀県","city":"佐賀市","town":"若楠"},{"zip_code":"8490926","prefecture_kana":"サガケン","city_kana":"サガシ","town_kana":"ワカミヤ","prefecture":"佐賀県","city":"佐賀市","town":"若宮"},{"zip_code":"8470000","prefecture_kana":"サガケン","city_kana":"カラツシ","town_kana":"イカニケイサイガナイバアイ","prefecture":"佐賀県","city":"唐津市","town":"以下に掲載がない場合"},{"zip_code":"8470823","prefecture_kana":"サガケン","city_kana":"カラツシ","town_kana":"アサヒガオカ","prefecture":"佐賀県","city":"唐津市","town":"旭が丘"},{"zip_code":"8470841","prefecture_kana":"サガケン","city_kana":"カラツシ","town_kana":"アサヒマチ","prefecture":"佐賀県","city":"唐津市","town":"朝日町"},{"zip_code":"8470832","prefecture_kana":"サガケン","city_kana":"カラツシ","town_kana":"イシシ","prefecture":"佐賀県","city":"唐津市","town":"石志"},{"zip_code":"8470042","prefecture_kana":"サガケン","city_kana":"カラツシ","town_kana":"ウオヤマチ","prefecture":"佐賀県","city":"唐津市","town":"魚屋町"},{"zip_code":"8470025","prefecture_kana":"サガケン","city_kana":"カラツシ","town_kana":"ウキ","prefecture":"佐賀県","city":"唐津市","town":"宇木"},{"zip_code":"8470804","prefecture_kana":"サガケン","city_kana":"カラツシ","town_kana":"ウシロガワチ","prefecture":"佐賀県","city":"唐津市","town":"後川内"},{"zip_code":"8470124","prefecture_kana":"サガケン","city_kana":"カラツシ","town_kana":"ウラ","prefecture":"佐賀県","city":"唐津市","town":"浦"},{"zip_code":"8470853","prefecture_kana":"サガケン","city_kana":"カラツシ","town_kana":"エガワマチ","prefecture":"佐賀県","city":"唐津市","town":"江川町"},{"zip_code":"8470123","prefecture_kana":"サガケン","city_kana":"カラツシ","town_kana":"エザルキ","prefecture":"佐賀県","city":"唐津市","town":"枝去木"},{"zip_code":"8470132","prefecture_kana":"サガケン","city_kana":"カラツシ","town_kana":"オウカ","prefecture":"佐賀県","city":"唐津市","town":"相賀"},{"zip_code":"8493223","prefecture_kana":"サガケン","city_kana":"カラツシ","town_kana":"オウチチョウイキサ","prefecture":"佐賀県","city":"唐津市","town":"相知町伊岐佐"},{"zip_code":"8493201","prefecture_kana":"サガケン","city_kana":"カラツシ","town_kana":"オウチチョウオウチ","prefecture":"佐賀県","city":"唐津市","town":"相知町相知"},{"zip_code":"8493221","prefecture_kana":"サガケン","city_kana":"カラツシ","town_kana":"オウチチョウオオノ","prefecture":"佐賀県","city":"唐津市","town":"相知町大野"},{"zip_code":"8493215","prefecture_kana":"サガケン","city_kana":"カラツシ","town_kana":"オウチチョウクス","prefecture":"佐賀県","city":"唐津市","town":"相知町楠"},{"zip_code":"8493232","prefecture_kana":"サガケン","city_kana":"カラツシ","town_kana":"オウチチョウクボ","prefecture":"佐賀県","city":"唐津市","town":"相知町久保"},{"zip_code":"8493222","prefecture_kana":"サガケン","city_kana":"カラツシ","town_kana":"オウチチョウクロイワ","prefecture":"佐賀県","city":"唐津市","town":"相知町黒岩"},{"zip_code":"8493233","prefecture_kana":"サガケン","city_kana":"カラツシ","town_kana":"オウチチョウサリ","prefecture":"佐賀県","city":"唐津市","town":"相知町佐里"},{"zip_code":"8493211","prefecture_kana":"サガケン","city_kana":"カラツシ","town_kana":"オウチチョウセンゾク","prefecture":"佐賀県","city":"唐津市","town":"相知町千束"},{"zip_code":"8493214","prefecture_kana":"サガケン","city_kana":"カラツシ","town_kana":"オウチチョウタガシラ","prefecture":"佐賀県","city":"唐津市","town":"相知町田頭"},{"zip_code":"8493219","prefecture_kana":"サガケン","city_kana":"カラツシ","town_kana":"オウチチョウタカトリ","prefecture":"佐賀県","city":"唐津市","town":"相知町鷹取"},{"zip_code":"8493216","prefecture_kana":"サガケン","city_kana":"カラツシ","town_kana":"オウチチョウチョウギリ","prefecture":"佐賀県","city":"唐津市","town":"相知町町切"},{"zip_code":"8493217","prefecture_kana":"サガケン","city_kana":"カラツシ","town_kana":"オウチチョウナガヘタ","prefecture":"佐賀県","city":"唐津市","town":"相知町長部田"},{"zip_code":"8493218","prefecture_kana":"サガケン","city_kana":"カラツシ","town_kana":"オウチチョウナカヤマ","prefecture":"佐賀県","city":"唐津市","town":"相知町中山"},{"zip_code":"8493203","prefecture_kana":"サガケン","city_kana":"カラツシ","town_kana":"オウチチョウヒラヤマカミ","prefecture":"佐賀県","city":"唐津市","town":"相知町平山上"},{"zip_code":"8493202","prefecture_kana":"サガケン","city_kana":"カラツシ","town_kana":"オウチチョウヒラヤマシモ","prefecture":"佐賀県","city":"唐津市","town":"相知町平山下"},{"zip_code":"8493231","prefecture_kana":"サガケン","city_kana":"カラツシ","town_kana":"オウチチョウムタベ","prefecture":"佐賀県","city":"唐津市","town":"相知町牟田部"},{"zip_code":"8493224","prefecture_kana":"サガケン","city_kana":"カラツシ","town_kana":"オウチチョウヤマサキ","prefecture":"佐賀県","city":"唐津市","town":"相知町山崎"},{"zip_code":"8493213","prefecture_kana":"サガケン","city_kana":"カラツシ","town_kana":"オウチチョウユヤ","prefecture":"佐賀県","city":"唐津市","town":"相知町湯屋"},{"zip_code":"8493212","prefecture_kana":"サガケン","city_kana":"カラツシ","town_kana":"オウチチョウヨコマクラ","prefecture":"佐賀県","city":"唐津市","town":"相知町横枕"},{"zip_code":"8470066","prefecture_kana":"サガケン","city_kana":"カラツシ","town_kana":"オオイシマチ","prefecture":"佐賀県","city":"唐津市","town":"大石町"},{"zip_code":"8470873","prefecture_kana":"サガケン","city_kana":"カラツシ","town_kana":"カイガンドオリ","prefecture":"佐賀県","city":"唐津市","town":"海岸通"},{"zip_code":"8470022","prefecture_kana":"サガケン","city_kana":"カラツシ","town_kana":"カガミ","prefecture":"佐賀県","city":"唐津市","town":"鏡"},{"zip_code":"8470028","prefecture_kana":"サガケン","city_kana":"カラツシ","town_kana":"カガミシンカイ","prefecture":"佐賀県","city":"唐津市","town":"鏡新開"},{"zip_code":"8470065","prefecture_kana":"サガケン","city_kana":"カラツシ","town_kana":"カコマチ","prefecture":"佐賀県","city":"唐津市","town":"水主町"},{"zip_code":"8470026","prefecture_kana":"サガケン","city_kana":"カラツシ","town_kana":"カシワザキ","prefecture":"佐賀県","city":"唐津市","town":"柏崎"},{"zip_code":"8470131","prefecture_kana":"サガケン","city_kana":"カラツシ","town_kana":"カシワジマ","prefecture":"佐賀県","city":"唐津市","town":"神集島"},{"zip_code":"8470055","prefecture_kana":"サガケン","city_kana":"カラツシ","town_kana":"カタナマチ","prefecture":"佐賀県","city":"唐津市","town":"刀町"},{"zip_code":"8470015","prefecture_kana":"サガケン","city_kana":"カラツシ","town_kana":"キタジョウナイ","prefecture":"佐賀県","city":"唐津市","town":"北城内"},{"zip_code":"8471212","prefecture_kana":"サガケン","city_kana":"カラツシ","town_kana":"キタハタオオスギ","prefecture":"佐賀県","city":"唐津市","town":"北波多大杉"},{"zip_code":"8471221","prefecture_kana":"サガケン","city_kana":"カラツシ","town_kana":"キタハタカミヒラノ","prefecture":"佐賀県","city":"唐津市","town":"北波多上平野"},{"zip_code":"8471211","prefecture_kana":"サガケン","city_kana":"カラツシ","town_kana":"キタハタキシヤマ","prefecture":"佐賀県","city":"唐津市","town":"北波多岸山"},{"zip_code":"8471225","prefecture_kana":"サガケン","city_kana":"カラツシ","town_kana":"キタハタシゲ","prefecture":"佐賀県","city":"唐津市","town":"北波多志気"},{"zip_code":"8471223","prefecture_kana":"サガケン","city_kana":"カラツシ","town_kana":"キタハタシモヒラノ","prefecture":"佐賀県","city":"唐津市","town":"北波多下平野"},{"zip_code":"8471213","prefecture_kana":"サガケン","city_kana":"カラツシ","town_kana":"キタハタタケアリ","prefecture":"佐賀県","city":"唐津市","town":"北波多竹有"},{"zip_code":"8471202","prefecture_kana":"サガケン","city_kana":"カラツシ","town_kana":"キタハタタナカ","prefecture":"佐賀県","city":"唐津市","town":"北波多田中"},{"zip_code":"8471201","prefecture_kana":"サガケン","city_kana":"カラツシ","town_kana":"キタハタトクスエ","prefecture":"佐賀県","city":"唐津市","town":"北波多徳須恵"},{"zip_code":"8471222","prefecture_kana":"サガケン","city_kana":"カラツシ","town_kana":"キタハタナルフチ","prefecture":"佐賀県","city":"唐津市","town":"北波多成渕"},{"zip_code":"8471214","prefecture_kana":"サガケン","city_kana":"カラツシ","town_kana":"キタハタヒエダ","prefecture":"佐賀県","city":"唐津市","town":"北波多稗田"},{"zip_code":"8471203","prefecture_kana":"サガケン","city_kana":"カラツシ","town_kana":"キタハタヤマヒコ","prefecture":"佐賀県","city":"唐津市","town":"北波多山彦"},{"zip_code":"8471224","prefecture_kana":"サガケン","city_kana":"カラツシ","town_kana":"キタハタユキアイノ","prefecture":"佐賀県","city":"唐津市","town":"北波多行合野"},{"zip_code":"8493101","prefecture_kana":"サガケン","city_kana":"カラツシ","town_kana":"キュウラギマチアマガワ","prefecture":"佐賀県","city":"唐津市","town":"厳木町天川"},{"zip_code":"8493123","prefecture_kana":"サガケン","city_kana":"カラツシ","town_kana":"キュウラギマチイワヤ","prefecture":"佐賀県","city":"唐津市","town":"厳木町岩屋"},{"zip_code":"8493132","prefecture_kana":"サガケン","city_kana":"カラツシ","town_kana":"キュウラギマチウツボキ","prefecture":"佐賀県","city":"唐津市","town":"厳木町うつぼ木"},{"zip_code":"8493114","prefecture_kana":"サガケン","city_kana":"カラツシ","town_kana":"キュウラギマチウラガワチ","prefecture":"佐賀県","city":"唐津市","town":"厳木町浦川内"},{"zip_code":"8493131","prefecture_kana":"サガケン","city_kana":"カラツシ","town_kana":"キュウラギマチキュウラギ","prefecture":"佐賀県","city":"唐津市","town":"厳木町厳木"},{"zip_code":"8493121","prefecture_kana":"サガケン","city_kana":"カラツシ","town_kana":"キュウラギマチセトコバ","prefecture":"佐賀県","city":"唐津市","town":"厳木町瀬戸木場"},{"zip_code":"8493102","prefecture_kana":"サガケン","city_kana":"カラツシ","town_kana":"キュウラギマチトリゴエ","prefecture":"佐賀県","city":"唐津市","town":"厳木町鳥越"},{"zip_code":"8493112","prefecture_kana":"サガケン","city_kana":"カラツシ","town_kana":"キュウラギマチナカシマ","prefecture":"佐賀県","city":"唐津市","town":"厳木町中島"},{"zip_code":"8493122","prefecture_kana":"サガケン","city_kana":"カラツシ","town_kana":"キュウラギマチナミセ","prefecture":"佐賀県","city":"唐津市","town":"厳木町浪瀬"},{"zip_code":"8493115","prefecture_kana":"サガケン","city_kana":"カラツシ","town_kana":"キュウラギマチヒラノ","prefecture":"佐賀県","city":"唐津市","town":"厳木町平之"},{"zip_code":"8493103","prefecture_kana":"サガケン","city_kana":"カラツシ","town_kana":"キュウラギマチヒロカワ","prefecture":"佐賀県","city":"唐津市","town":"厳木町広川"},{"zip_code":"8493111","prefecture_kana":"サガケン","city_kana":"カラツシ","town_kana":"キュウラギマチヒロセ","prefecture":"佐賀県","city":"唐津市","town":"厳木町広瀬"},{"zip_code":"8493104","prefecture_kana":"サガケン","city_kana":"カラツシ","town_kana":"キュウラギマチホシリョウ","prefecture":"佐賀県","city":"唐津市","town":"厳木町星領"},{"zip_code":"8493113","prefecture_kana":"サガケン","city_kana":"カラツシ","town_kana":"キュウラギマチマキセ","prefecture":"佐賀県","city":"唐津市","town":"厳木町牧瀬"},{"zip_code":"8493133","prefecture_kana":"サガケン","city_kana":"カラツシ","town_kana":"キュウラギマチモトヤマ","prefecture":"佐賀県","city":"唐津市","town":"厳木町本山"},{"zip_code":"8470045","prefecture_kana":"サガケン","city_kana":"カラツシ","town_kana":"キョウマチ","prefecture":"佐賀県","city":"唐津市","town":"京町"},{"zip_code":"8470044","prefecture_kana":"サガケン","city_kana":"カラツシ","town_kana":"キワタマチ","prefecture":"佐賀県","city":"唐津市","town":"木綿町"},{"zip_code":"8470817","prefecture_kana":"サガケン","city_kana":"カラツシ","town_kana":"クマノハラマチ","prefecture":"佐賀県","city":"唐津市","town":"熊原町"},{"zip_code":"8470884","prefecture_kana":"サガケン","city_kana":"カラツシ","town_kana":"クマノミネ","prefecture":"佐賀県","city":"唐津市","town":"熊ノ峰"},{"zip_code":"8470033","prefecture_kana":"サガケン","city_kana":"カラツシ","town_kana":"クリ","prefecture":"佐賀県","city":"唐津市","town":"久里"},{"zip_code":"8470824","prefecture_kana":"サガケン","city_kana":"カラツシ","town_kana":"コウダ","prefecture":"佐賀県","city":"唐津市","town":"神田"},{"zip_code":"8470052","prefecture_kana":"サガケン","city_kana":"カラツシ","town_kana":"ゴフクマチ","prefecture":"佐賀県","city":"唐津市","town":"呉服町"},{"zip_code":"8470054","prefecture_kana":"サガケン","city_kana":"カラツシ","town_kana":"コメヤマチ","prefecture":"佐賀県","city":"唐津市","town":"米屋町"},{"zip_code":"8470053","prefecture_kana":"サガケン","city_kana":"カラツシ","town_kana":"コンヤマチ","prefecture":"佐賀県","city":"唐津市","town":"紺屋町"},{"zip_code":"8470061","prefecture_kana":"サガケン","city_kana":"カラツシ","town_kana":"ザイモクマチ","prefecture":"佐賀県","city":"唐津市","town":"材木町"},{"zip_code":"8470011","prefecture_kana":"サガケン","city_kana":"カラツシ","town_kana":"サカエマチ","prefecture":"佐賀県","city":"唐津市","town":"栄町"},{"zip_code":"8470843","prefecture_kana":"サガケン","city_kana":"カラツシ","town_kana":"サクラノババ","prefecture":"佐賀県","city":"唐津市","town":"桜馬場"},{"zip_code":"8470104","prefecture_kana":"サガケン","city_kana":"カラツシ","town_kana":"サクラマチ","prefecture":"佐賀県","city":"唐津市","town":"桜町"},{"zip_code":"8470111","prefecture_kana":"サガケン","city_kana":"カラツシ","town_kana":"サシ","prefecture":"佐賀県","city":"唐津市","town":"佐志"},{"zip_code":"8470113","prefecture_kana":"サガケン","city_kana":"カラツシ","town_kana":"サシナカザト","prefecture":"佐賀県","city":"唐津市","town":"佐志中里"},{"zip_code":"8470114","prefecture_kana":"サガケン","city_kana":"カラツシ","town_kana":"サシナカドオリ","prefecture":"佐賀県","city":"唐津市","town":"佐志中通"},{"zip_code":"8470115","prefecture_kana":"サガケン","city_kana":"カラツシ","town_kana":"サシハママチ","prefecture":"佐賀県","city":"唐津市","town":"佐志浜町"},{"zip_code":"8470112","prefecture_kana":"サガケン","city_kana":"カラツシ","town_kana":"サシミナミ","prefecture":"佐賀県","city":"唐津市","town":"佐志南"},{"zip_code":"8470883","prefecture_kana":"サガケン","city_kana":"カラツシ","town_kana":"シゲカワチ","prefecture":"佐賀県","city":"唐津市","town":"重河内"},{"zip_code":"8470067","prefecture_kana":"サガケン","city_kana":"カラツシ","town_kana":"ジュウニンマチ","prefecture":"佐賀県","city":"唐津市","town":"十人町"},{"zip_code":"8470021","prefecture_kana":"サガケン","city_kana":"カラツシ","town_kana":"ショウナンチョウ","prefecture":"佐賀県","city":"唐津市","town":"松南町"},{"zip_code":"8470043","prefecture_kana":"サガケン","city_kana":"カラツシ","town_kana":"シンコウマチ（ヒガシシンコウマチ）","prefecture":"佐賀県","city":"唐津市","town":"新興町（東新興町）"},{"zip_code":"8470816","prefecture_kana":"サガケン","city_kana":"カラツシ","town_kana":"シンコウマチ（ニシシンコウマチ）","prefecture":"佐賀県","city":"唐津市","town":"新興町（西新興町）"},{"zip_code":"8470813","prefecture_kana":"サガケン","city_kana":"カラツシ","town_kana":"シンマチ","prefecture":"佐賀県","city":"唐津市","town":"新町"},{"zip_code":"8470882","prefecture_kana":"サガケン","city_kana":"カラツシ","town_kana":"スガムタ","prefecture":"佐賀県","city":"唐津市","town":"菅牟田"},{"zip_code":"8470001","prefecture_kana":"サガケン","city_kana":"カラツシ","town_kana":"ソウズイ","prefecture":"佐賀県","city":"唐津市","town":"双水"},{"zip_code":"8470012","prefecture_kana":"サガケン","city_kana":"カラツシ","town_kana":"ダイミョウコウジ","prefecture":"佐賀県","city":"唐津市","town":"大名小路"},{"zip_code":"8470803","prefecture_kana":"サガケン","city_kana":"カラツシ","town_kana":"ダイラ","prefecture":"佐賀県","city":"唐津市","town":"大良"},{"zip_code":"8470046","prefecture_kana":"サガケン","city_kana":"カラツシ","town_kana":"タカサゴマチ","prefecture":"佐賀県","city":"唐津市","town":"高砂町"},{"zip_code":"8470027","prefecture_kana":"サガケン","city_kana":"カラツシ","town_kana":"タカシマ","prefecture":"佐賀県","city":"唐津市","town":"高島"},{"zip_code":"8470881","prefecture_kana":"サガケン","city_kana":"カラツシ","town_kana":"タケコバ","prefecture":"佐賀県","city":"唐津市","town":"竹木場"},{"zip_code":"8470831","prefecture_kana":"サガケン","city_kana":"カラツシ","town_kana":"チチカ","prefecture":"佐賀県","city":"唐津市","town":"千々賀"},{"zip_code":"8470821","prefecture_kana":"サガケン","city_kana":"カラツシ","town_kana":"チョウダ","prefecture":"佐賀県","city":"唐津市","town":"町田"},{"zip_code":"8470041","prefecture_kana":"サガケン","city_kana":"カラツシ","town_kana":"チヨダマチ","prefecture":"佐賀県","city":"唐津市","town":"千代田町"},{"zip_code":"8470312","prefecture_kana":"サガケン","city_kana":"カラツシ","town_kana":"チンゼイマチアカギ","prefecture":"佐賀県","city":"唐津市","town":"鎮西町赤木"},{"zip_code":"8470327","prefecture_kana":"サガケン","city_kana":"カラツシ","town_kana":"チンゼイマチイシムロ","prefecture":"佐賀県","city":"唐津市","town":"鎮西町石室"},{"zip_code":"8470323","prefecture_kana":"サガケン","city_kana":"カラツシ","town_kana":"チンゼイマチイワノ","prefecture":"佐賀県","city":"唐津市","town":"鎮西町岩野"},{"zip_code":"8470322","prefecture_kana":"サガケン","city_kana":"カラツシ","town_kana":"チンゼイマチウチアゲ","prefecture":"佐賀県","city":"唐津市","town":"鎮西町打上"},{"zip_code":"8470317","prefecture_kana":"サガケン","city_kana":"カラツシ","town_kana":"チンゼイマチカカラシマ","prefecture":"佐賀県","city":"唐津市","town":"鎮西町加唐島"},{"zip_code":"8470325","prefecture_kana":"サガケン","city_kana":"カラツシ","town_kana":"チンゼイマチカクラ","prefecture":"佐賀県","city":"唐津市","town":"鎮西町加倉"},{"zip_code":"8470403","prefecture_kana":"サガケン","city_kana":"カラツシ","town_kana":"チンゼイマチクシ","prefecture":"佐賀県","city":"唐津市","town":"鎮西町串"},{"zip_code":"8470324","prefecture_kana":"サガケン","city_kana":"カラツシ","town_kana":"チンゼイマチコウノ","prefecture":"佐賀県","city":"唐津市","town":"鎮西町高野"},{"zip_code":"8470313","prefecture_kana":"サガケン","city_kana":"カラツシ","town_kana":"チンゼイマチシオヅル","prefecture":"佐賀県","city":"唐津市","town":"鎮西町塩鶴"},{"zip_code":"8470314","prefecture_kana":"サガケン","city_kana":"カラツシ","town_kana":"チンゼイマチショウブ","prefecture":"佐賀県","city":"唐津市","town":"鎮西町菖蒲"},{"zip_code":"8470316","prefecture_kana":"サガケン","city_kana":"カラツシ","town_kana":"チンゼイマチナカノ","prefecture":"佐賀県","city":"唐津市","town":"鎮西町中野"},{"zip_code":"8470401","prefecture_kana":"サガケン","city_kana":"カラツシ","town_kana":"チンゼイマチナゴヤ","prefecture":"佐賀県","city":"唐津市","town":"鎮西町名護屋"},{"zip_code":"8470402","prefecture_kana":"サガケン","city_kana":"カラツシ","town_kana":"チンゼイマチノモト","prefecture":"佐賀県","city":"唐津市","town":"鎮西町野元"},{"zip_code":"8470404","prefecture_kana":"サガケン","city_kana":"カラツシ","town_kana":"チンゼイマチハド","prefecture":"佐賀県","city":"唐津市","town":"鎮西町波戸"},{"zip_code":"8470326","prefecture_kana":"サガケン","city_kana":"カラツシ","town_kana":"チンゼイマチハヤタ","prefecture":"佐賀県","city":"唐津市","town":"鎮西町早田"},{"zip_code":"8470405","prefecture_kana":"サガケン","city_kana":"カラツシ","town_kana":"チンゼイマチマダラシマ","prefecture":"佐賀県","city":"唐津市","town":"鎮西町馬渡島"},{"zip_code":"8470406","prefecture_kana":"サガケン","city_kana":"カラツシ","town_kana":"チンゼイマチマツシマ","prefecture":"佐賀県","city":"唐津市","town":"鎮西町松島"},{"zip_code":"8470311","prefecture_kana":"サガケン","city_kana":"カラツシ","town_kana":"チンゼイマチマルダ","prefecture":"佐賀県","city":"唐津市","town":"鎮西町丸田"},{"zip_code":"8470315","prefecture_kana":"サガケン","city_kana":"カラツシ","town_kana":"チンゼイマチヤトコ","prefecture":"佐賀県","city":"唐津市","town":"鎮西町八床"},{"zip_code":"8470321","prefecture_kana":"サガケン","city_kana":"カラツシ","town_kana":"チンゼイマチヨコタケ","prefecture":"佐賀県","city":"唐津市","town":"鎮西町横竹"},{"zip_code":"8470885","prefecture_kana":"サガケン","city_kana":"カラツシ","town_kana":"トウノカワ","prefecture":"佐賀県","city":"唐津市","town":"唐川"},{"zip_code":"8470122","prefecture_kana":"サガケン","city_kana":"カラツシ","town_kana":"トウボウ","prefecture":"佐賀県","city":"唐津市","town":"唐房"},{"zip_code":"8470134","prefecture_kana":"サガケン","city_kana":"カラツシ","town_kana":"ナカザト","prefecture":"佐賀県","city":"唐津市","town":"中里"},{"zip_code":"8470101","prefecture_kana":"サガケン","city_kana":"カラツシ","town_kana":"ナカノセドオリ","prefecture":"佐賀県","city":"唐津市","town":"中瀬通"},{"zip_code":"8470034","prefecture_kana":"サガケン","city_kana":"カラツシ","town_kana":"ナカバル","prefecture":"佐賀県","city":"唐津市","town":"中原"},{"zip_code":"8470051","prefecture_kana":"サガケン","city_kana":"カラツシ","town_kana":"ナカマチ","prefecture":"佐賀県","city":"唐津市","town":"中町"},{"zip_code":"8470862","prefecture_kana":"サガケン","city_kana":"カラツシ","town_kana":"ナカヤママチ","prefecture":"佐賀県","city":"唐津市","town":"中山町"},{"zip_code":"8470822","prefecture_kana":"サガケン","city_kana":"カラツシ","town_kana":"ナガタニ","prefecture":"佐賀県","city":"唐津市","town":"長谷"},{"zip_code":"8470802","prefecture_kana":"サガケン","city_kana":"カラツシ","town_kana":"ナシガワチ","prefecture":"佐賀県","city":"唐津市","town":"梨川内"},{"zip_code":"8471101","prefecture_kana":"サガケン","city_kana":"カラツシ","town_kana":"ナナヤマアラカワ","prefecture":"佐賀県","city":"唐津市","town":"七山荒川"},{"zip_code":"8471103","prefecture_kana":"サガケン","city_kana":"カラツシ","town_kana":"ナナヤマイケバル","prefecture":"佐賀県","city":"唐津市","town":"七山池原"},{"zip_code":"8471104","prefecture_kana":"サガケン","city_kana":"カラツシ","town_kana":"ナナヤマキウラ","prefecture":"佐賀県","city":"唐津市","town":"七山木浦"},{"zip_code":"8471108","prefecture_kana":"サガケン","city_kana":"カラツシ","town_kana":"ナナヤマシラキ","prefecture":"佐賀県","city":"唐津市","town":"七山白木"},{"zip_code":"8471106","prefecture_kana":"サガケン","city_kana":"カラツシ","town_kana":"ナナヤマタキガワ","prefecture":"佐賀県","city":"唐津市","town":"七山滝川"},{"zip_code":"8471105","prefecture_kana":"サガケン","city_kana":"カラツシ","town_kana":"ナナヤマニブ","prefecture":"佐賀県","city":"唐津市","town":"七山仁部"},{"zip_code":"8471107","prefecture_kana":"サガケン","city_kana":"カラツシ","town_kana":"ナナヤマフジカワ","prefecture":"佐賀県","city":"唐津市","town":"七山藤川"},{"zip_code":"8471102","prefecture_kana":"サガケン","city_kana":"カラツシ","town_kana":"ナナヤママノカワ","prefecture":"佐賀県","city":"唐津市","town":"七山馬川"},{"zip_code":"8470844","prefecture_kana":"サガケン","city_kana":"カラツシ","town_kana":"ナバタケ","prefecture":"佐賀県","city":"唐津市","town":"菜畑"},{"zip_code":"8470872","prefecture_kana":"サガケン","city_kana":"カラツシ","town_kana":"ニシオオシママチ","prefecture":"佐賀県","city":"唐津市","town":"西大島町"},{"zip_code":"8470875","prefecture_kana":"サガケン","city_kana":"カラツシ","town_kana":"ニシカラツ","prefecture":"佐賀県","city":"唐津市","town":"西唐津"},{"zip_code":"8470014","prefecture_kana":"サガケン","city_kana":"カラツシ","town_kana":"ニシジョウナイ","prefecture":"佐賀県","city":"唐津市","town":"西城内"},{"zip_code":"8470815","prefecture_kana":"サガケン","city_kana":"カラツシ","town_kana":"ニシデラマチ","prefecture":"佐賀県","city":"唐津市","town":"西寺町"},{"zip_code":"8470855","prefecture_kana":"サガケン","city_kana":"カラツシ","town_kana":"ニシハママチ","prefecture":"佐賀県","city":"唐津市","town":"西浜町"},{"zip_code":"8470854","prefecture_kana":"サガケン","city_kana":"カラツシ","town_kana":"ニシハタマチ","prefecture":"佐賀県","city":"唐津市","town":"西旗町"},{"zip_code":"8470003","prefecture_kana":"サガケン","city_kana":"カラツシ","town_kana":"ハシモト","prefecture":"佐賀県","city":"唐津市","town":"橋本"},{"zip_code":"8470103","prefecture_kana":"サガケン","city_kana":"カラツシ","town_kana":"ハシモトマチ","prefecture":"佐賀県","city":"唐津市","town":"橋本町"},{"zip_code":"8470833","prefecture_kana":"サガケン","city_kana":"カラツシ","town_kana":"ハタシマ","prefecture":"佐賀県","city":"唐津市","town":"畑島"},{"zip_code":"8470023","prefecture_kana":"サガケン","city_kana":"カラツシ","town_kana":"ハダ","prefecture":"佐賀県","city":"唐津市","town":"半田"},{"zip_code":"8470121","prefecture_kana":"サガケン","city_kana":"カラツシ","town_kana":"ハトガワ","prefecture":"佐賀県","city":"唐津市","town":"鳩川"},{"zip_code":"8495103","prefecture_kana":"サガケン","city_kana":"カラツシ","town_kana":"ハマタママチオオエ","prefecture":"佐賀県","city":"唐津市","town":"浜玉町大江"},{"zip_code":"8495101","prefecture_kana":"サガケン","city_kana":"カラツシ","town_kana":"ハマタママチオカグチ","prefecture":"佐賀県","city":"唐津市","town":"浜玉町岡口"},{"zip_code":"8495102","prefecture_kana":"サガケン","city_kana":"カラツシ","town_kana":"ハマタママチゴタンダ","prefecture":"佐賀県","city":"唐津市","town":"浜玉町五反田"},{"zip_code":"8495105","prefecture_kana":"サガケン","city_kana":"カラツシ","town_kana":"ハマタママチタニグチ","prefecture":"佐賀県","city":"唐津市","town":"浜玉町谷口"},{"zip_code":"8495113","prefecture_kana":"サガケン","city_kana":"カラツシ","town_kana":"ハマタママチトリス","prefecture":"佐賀県","city":"唐津市","town":"浜玉町鳥巣"},{"zip_code":"8495131","prefecture_kana":"サガケン","city_kana":"カラツシ","town_kana":"ハマタママチハマサキ","prefecture":"佐賀県","city":"唐津市","town":"浜玉町浜崎"},{"zip_code":"8495123","prefecture_kana":"サガケン","city_kana":"カラツシ","town_kana":"ハマタママチヒガシヤマダ","prefecture":"佐賀県","city":"唐津市","town":"浜玉町東山田"},{"zip_code":"8495112","prefecture_kana":"サガケン","city_kana":"カラツシ","town_kana":"ハマタママチヒラバル","prefecture":"佐賀県","city":"唐津市","town":"浜玉町平原"},{"zip_code":"8495104","prefecture_kana":"サガケン","city_kana":"カラツシ","town_kana":"ハマタママチフチノウエ","prefecture":"佐賀県","city":"唐津市","town":"浜玉町渕上"},{"zip_code":"8495111","prefecture_kana":"サガケン","city_kana":"カラツシ","town_kana":"ハマタママチミナミヤマ","prefecture":"佐賀県","city":"唐津市","town":"浜玉町南山"},{"zip_code":"8495124","prefecture_kana":"サガケン","city_kana":"カラツシ","town_kana":"ハマタママチヤマセ","prefecture":"佐賀県","city":"唐津市","town":"浜玉町山瀬"},{"zip_code":"8495121","prefecture_kana":"サガケン","city_kana":"カラツシ","town_kana":"ハマタママチヨコタカミ","prefecture":"佐賀県","city":"唐津市","town":"浜玉町横田上"},{"zip_code":"8495122","prefecture_kana":"サガケン","city_kana":"カラツシ","town_kana":"ハマタママチヨコタシモ","prefecture":"佐賀県","city":"唐津市","town":"浜玉町横田下"},{"zip_code":"8470031","prefecture_kana":"サガケン","city_kana":"カラツシ","town_kana":"ハル","prefecture":"佐賀県","city":"唐津市","town":"原"},{"zip_code":"8470024","prefecture_kana":"サガケン","city_kana":"カラツシ","town_kana":"ヒガシウキ","prefecture":"佐賀県","city":"唐津市","town":"東宇木"},{"zip_code":"8470871","prefecture_kana":"サガケン","city_kana":"カラツシ","town_kana":"ヒガシオオシママチ","prefecture":"佐賀県","city":"唐津市","town":"東大島町"},{"zip_code":"8470017","prefecture_kana":"サガケン","city_kana":"カラツシ","town_kana":"ヒガシカラツ","prefecture":"佐賀県","city":"唐津市","town":"東唐津"},{"zip_code":"8470016","prefecture_kana":"サガケン","city_kana":"カラツシ","town_kana":"ヒガシジョウナイ","prefecture":"佐賀県","city":"唐津市","town":"東城内"},{"zip_code":"8470063","prefecture_kana":"サガケン","city_kana":"カラツシ","town_kana":"ヒガシマチ","prefecture":"佐賀県","city":"唐津市","town":"東町"},{"zip_code":"8470801","prefecture_kana":"サガケン","city_kana":"カラツシ","town_kana":"ヒガシヤマ","prefecture":"佐賀県","city":"唐津市","town":"東山"},{"zip_code":"8471502","prefecture_kana":"サガケン","city_kana":"カラツシ","town_kana":"ヒゼンマチアカサカ","prefecture":"佐賀県","city":"唐津市","town":"肥前町赤坂"},{"zip_code":"8471517","prefecture_kana":"サガケン","city_kana":"カラツシ","town_kana":"ヒゼンマチアゲクラ","prefecture":"佐賀県","city":"唐津市","town":"肥前町上ケ倉"},{"zip_code":"8471522","prefecture_kana":"サガケン","city_kana":"カラツシ","town_kana":"ヒゼンマチイヌガシラ","prefecture":"佐賀県","city":"唐津市","town":"肥前町犬頭"},{"zip_code":"8471526","prefecture_kana":"サガケン","city_kana":"カラツシ","town_kana":"ヒゼンマチイリノ","prefecture":"佐賀県","city":"唐津市","town":"肥前町入野"},{"zip_code":"8471512","prefecture_kana":"サガケン","city_kana":"カラツシ","town_kana":"ヒゼンマチウメザキ","prefecture":"佐賀県","city":"唐津市","town":"肥前町梅崎"},{"zip_code":"8471516","prefecture_kana":"サガケン","city_kana":"カラツシ","town_kana":"ヒゼンマチウリガサカ","prefecture":"佐賀県","city":"唐津市","town":"肥前町瓜ケ坂"},{"zip_code":"8471506","prefecture_kana":"サガケン","city_kana":"カラツシ","town_kana":"ヒゼンマチオオウラ","prefecture":"佐賀県","city":"唐津市","town":"肥前町大浦"},{"zip_code":"8471501","prefecture_kana":"サガケン","city_kana":"カラツシ","town_kana":"ヒゼンマチキリゴ","prefecture":"佐賀県","city":"唐津市","town":"肥前町切木"},{"zip_code":"8471505","prefecture_kana":"サガケン","city_kana":"カラツシ","town_kana":"ヒゼンマチスギノウラ","prefecture":"佐賀県","city":"唐津市","town":"肥前町杉野浦"},{"zip_code":"8471521","prefecture_kana":"サガケン","city_kana":"カラツシ","town_kana":"ヒゼンマチタノ","prefecture":"佐賀県","city":"唐津市","town":"肥前町田野"},{"zip_code":"8471527","prefecture_kana":"サガケン","city_kana":"カラツシ","town_kana":"ヒゼンマチツルマキ","prefecture":"佐賀県","city":"唐津市","town":"肥前町鶴牧"},{"zip_code":"8471513","prefecture_kana":"サガケン","city_kana":"カラツシ","town_kana":"ヒゼンマチテラウラ","prefecture":"佐賀県","city":"唐津市","town":"肥前町寺浦"},{"zip_code":"8471504","prefecture_kana":"サガケン","city_kana":"カラツシ","town_kana":"ヒゼンマチナカウラ","prefecture":"佐賀県","city":"唐津市","town":"肥前町中浦"},{"zip_code":"8471511","prefecture_kana":"サガケン","city_kana":"カラツシ","town_kana":"ヒゼンマチニイコバ","prefecture":"佐賀県","city":"唐津市","town":"肥前町新木場"},{"zip_code":"8471514","prefecture_kana":"サガケン","city_kana":"カラツシ","town_kana":"ヒゼンマチニタノオ","prefecture":"佐賀県","city":"唐津市","town":"肥前町仁田野尾"},{"zip_code":"8471525","prefecture_kana":"サガケン","city_kana":"カラツシ","town_kana":"ヒゼンマチノウサ","prefecture":"佐賀県","city":"唐津市","town":"肥前町納所"},{"zip_code":"8471523","prefecture_kana":"サガケン","city_kana":"カラツシ","town_kana":"ヒゼンマチホシカ","prefecture":"佐賀県","city":"唐津市","town":"肥前町星賀"},{"zip_code":"8471515","prefecture_kana":"サガケン","city_kana":"カラツシ","town_kana":"ヒゼンマチマガリカワ","prefecture":"佐賀県","city":"唐津市","town":"肥前町万賀里川"},{"zip_code":"8471507","prefecture_kana":"サガケン","city_kana":"カラツシ","town_kana":"ヒゼンマチミツコシ","prefecture":"佐賀県","city":"唐津市","town":"肥前町満越"},{"zip_code":"8471524","prefecture_kana":"サガケン","city_kana":"カラツシ","town_kana":"ヒゼンマチムクシマ","prefecture":"佐賀県","city":"唐津市","town":"肥前町向島"},{"zip_code":"8471503","prefecture_kana":"サガケン","city_kana":"カラツシ","town_kana":"ヒゼンマチユノウラ","prefecture":"佐賀県","city":"唐津市","town":"肥前町湯野浦"},{"zip_code":"8470812","prefecture_kana":"サガケン","city_kana":"カラツシ","town_kana":"ヒラノマチ","prefecture":"佐賀県","city":"唐津市","town":"平野町"},{"zip_code":"8470874","prefecture_kana":"サガケン","city_kana":"カラツシ","town_kana":"フジサキドオリ","prefecture":"佐賀県","city":"唐津市","town":"藤崎通"},{"zip_code":"8470851","prefecture_kana":"サガケン","city_kana":"カラツシ","town_kana":"フジミマチ","prefecture":"佐賀県","city":"唐津市","town":"富士見町"},{"zip_code":"8470861","prefecture_kana":"サガケン","city_kana":"カラツシ","town_kana":"フタゴ","prefecture":"佐賀県","city":"唐津市","town":"二タ子"},{"zip_code":"8470062","prefecture_kana":"サガケン","city_kana":"カラツシ","town_kana":"フナミヤマチ","prefecture":"佐賀県","city":"唐津市","town":"船宮町"},{"zip_code":"8470056","prefecture_kana":"サガケン","city_kana":"カラツシ","town_kana":"ボウズマチ","prefecture":"佐賀県","city":"唐津市","town":"坊主町"},{"zip_code":"8470047","prefecture_kana":"サガケン","city_kana":"カラツシ","town_kana":"ホンマチ","prefecture":"佐賀県","city":"唐津市","town":"本町"},{"zip_code":"8470133","prefecture_kana":"サガケン","city_kana":"カラツシ","town_kana":"ミナトマチ","prefecture":"佐賀県","city":"唐津市","town":"湊町"},{"zip_code":"8470013","prefecture_kana":"サガケン","city_kana":"カラツシ","town_kana":"ミナミジョウナイ","prefecture":"佐賀県","city":"唐津市","town":"南城内"},{"zip_code":"8470876","prefecture_kana":"サガケン","city_kana":"カラツシ","town_kana":"ミナミフジミチョウ","prefecture":"佐賀県","city":"唐津市","town":"南富士見町"},{"zip_code":"8470863","prefecture_kana":"サガケン","city_kana":"カラツシ","town_kana":"ミョウケンマチ","prefecture":"佐賀県","city":"唐津市","town":"妙見町"},{"zip_code":"8470825","prefecture_kana":"サガケン","city_kana":"カラツシ","town_kana":"ミルカシ","prefecture":"佐賀県","city":"唐津市","town":"見借"},{"zip_code":"8470064","prefecture_kana":"サガケン","city_kana":"カラツシ","town_kana":"モトイシマチ","prefecture":"佐賀県","city":"唐津市","town":"元石町"},{"zip_code":"8470852","prefecture_kana":"サガケン","city_kana":"カラツシ","town_kana":"モトハタマチ","prefecture":"佐賀県","city":"唐津市","town":"元旗町"},{"zip_code":"8470811","prefecture_kana":"サガケン","city_kana":"カラツシ","town_kana":"ヤオヤマチ","prefecture":"佐賀県","city":"唐津市","town":"八百屋町"},{"zip_code":"8470135","prefecture_kana":"サガケン","city_kana":"カラツシ","town_kana":"ヤカタイシ","prefecture":"佐賀県","city":"唐津市","town":"屋形石"},{"zip_code":"8470102","prefecture_kana":"サガケン","city_kana":"カラツシ","town_kana":"ヤハタマチ","prefecture":"佐賀県","city":"唐津市","town":"八幡町"},{"zip_code":"8470004","prefecture_kana":"サガケン","city_kana":"カラツシ","town_kana":"ヤブタ","prefecture":"佐賀県","city":"唐津市","town":"養母田"},{"zip_code":"8470005","prefecture_kana":"サガケン","city_kana":"カラツシ","town_kana":"ヤブタオニヅカ","prefecture":"佐賀県","city":"唐津市","town":"養母田鬼塚"},{"zip_code":"8470842","prefecture_kana":"サガケン","city_kana":"カラツシ","town_kana":"ヤマシタマチ","prefecture":"佐賀県","city":"唐津市","town":"山下町"},{"zip_code":"8470834","prefecture_kana":"サガケン","city_kana":"カラツシ","town_kana":"ヤマダ","prefecture":"佐賀県","city":"唐津市","town":"山田"},{"zip_code":"8470002","prefecture_kana":"サガケン","city_kana":"カラツシ","town_kana":"ヤマモト","prefecture":"佐賀県","city":"唐津市","town":"山本"},{"zip_code":"8470032","prefecture_kana":"サガケン","city_kana":"カラツシ","town_kana":"ユウヒ","prefecture":"佐賀県","city":"唐津市","town":"夕日"},{"zip_code":"8470814","prefecture_kana":"サガケン","city_kana":"カラツシ","town_kana":"ユミタカマチ","prefecture":"佐賀県","city":"唐津市","town":"弓鷹町"},{"zip_code":"8470136","prefecture_kana":"サガケン","city_kana":"カラツシ","town_kana":"ヨコノ","prefecture":"佐賀県","city":"唐津市","town":"横野"},{"zip_code":"8470301","prefecture_kana":"サガケン","city_kana":"カラツシ","town_kana":"ヨブコチョウオオドモ","prefecture":"佐賀県","city":"唐津市","town":"呼子町大友"},{"zip_code":"8470306","prefecture_kana":"サガケン","city_kana":"カラツシ","town_kana":"ヨブコチョウオガワシマ","prefecture":"佐賀県","city":"唐津市","town":"呼子町小川島"},{"zip_code":"8470305","prefecture_kana":"サガケン","city_kana":"カラツシ","town_kana":"ヨブコチョウカベシマ","prefecture":"佐賀県","city":"唐津市","town":"呼子町加部島"},{"zip_code":"8470302","prefecture_kana":"サガケン","city_kana":"カラツシ","town_kana":"ヨブコチョウコドモ","prefecture":"佐賀県","city":"唐津市","town":"呼子町小友"},{"zip_code":"8470304","prefecture_kana":"サガケン","city_kana":"カラツシ","town_kana":"ヨブコチョウトノノウラ","prefecture":"佐賀県","city":"唐津市","town":"呼子町殿ノ浦"},{"zip_code":"8470303","prefecture_kana":"サガケン","city_kana":"カラツシ","town_kana":"ヨブコチョウヨブコ","prefecture":"佐賀県","city":"唐津市","town":"呼子町呼子"},{"zip_code":"8470071","prefecture_kana":"サガケン","city_kana":"カラツシ","town_kana":"ワタダアママチ","prefecture":"佐賀県","city":"唐津市","town":"和多田海士町"},{"zip_code":"8470083","prefecture_kana":"サガケン","city_kana":"カラツシ","town_kana":"ワタダオオドイ","prefecture":"佐賀県","city":"唐津市","town":"和多田大土井"},{"zip_code":"8470074","prefecture_kana":"サガケン","city_kana":"カラツシ","town_kana":"ワタダサキイシ","prefecture":"佐賀県","city":"唐津市","town":"和多田先石"},{"zip_code":"8470082","prefecture_kana":"サガケン","city_kana":"カラツシ","town_kana":"ワタダテンマンチョウ","prefecture":"佐賀県","city":"唐津市","town":"和多田天満町"},{"zip_code":"8470084","prefecture_kana":"サガケン","city_kana":"カラツシ","town_kana":"ワタダニシヤマ","prefecture":"佐賀県","city":"唐津市","town":"和多田西山"},{"zip_code":"8470073","prefecture_kana":"サガケン","city_kana":"カラツシ","town_kana":"ワタダヒガシヒャクニンマチ","prefecture":"佐賀県","city":"唐津市","town":"和多田東百人町"},{"zip_code":"8470072","prefecture_kana":"サガケン","city_kana":"カラツシ","town_kana":"ワタダヒャクニンマチ","prefecture":"佐賀県","city":"唐津市","town":"和多田百人町"},{"zip_code":"8470085","prefecture_kana":"サガケン","city_kana":"カラツシ","town_kana":"ワタダホンムラ","prefecture":"佐賀県","city":"唐津市","town":"和多田本村"},{"zip_code":"8470081","prefecture_kana":"サガケン","city_kana":"カラツシ","town_kana":"ワタダミナミサキイシ","prefecture":"佐賀県","city":"唐津市","town":"和多田南先石"},{"zip_code":"8470075","prefecture_kana":"サガケン","city_kana":"カラツシ","town_kana":"ワタダヨウジャク","prefecture":"佐賀県","city":"唐津市","town":"和多田用尺"},{"zip_code":"8410000","prefecture_kana":"サガケン","city_kana":"トスシ","town_kana":"イカニケイサイガナイバアイ","prefecture":"佐賀県","city":"鳥栖市","town":"以下に掲載がない場合"},{"zip_code":"8410036","prefecture_kana":"サガケン","city_kana":"トスシ","town_kana":"アキバマチ","prefecture":"佐賀県","city":"鳥栖市","town":"秋葉町"},{"zip_code":"8410082","prefecture_kana":"サガケン","city_kana":"トスシ","town_kana":"アサイマチ","prefecture":"佐賀県","city":"鳥栖市","town":"浅井町"},{"zip_code":"8410068","prefecture_kana":"サガケン","city_kana":"トスシ","town_kana":"アサヒシンマチ","prefecture":"佐賀県","city":"鳥栖市","town":"あさひ新町"},{"zip_code":"8410045","prefecture_kana":"サガケン","city_kana":"トスシ","town_kana":"アンラクジマチ","prefecture":"佐賀県","city":"鳥栖市","town":"安楽寺町"},{"zip_code":"8410022","prefecture_kana":"サガケン","city_kana":"トスシ","town_kana":"イイダマチ","prefecture":"佐賀県","city":"鳥栖市","town":"飯田町"},{"zip_code":"8410047","prefecture_kana":"サガケン","city_kana":"トスシ","town_kana":"イマイズミマチ","prefecture":"佐賀県","city":"鳥栖市","town":"今泉町"},{"zip_code":"8410001","prefecture_kana":"サガケン","city_kana":"トスシ","town_kana":"イママチ","prefecture":"佐賀県","city":"鳥栖市","town":"今町"},{"zip_code":"8410086","prefecture_kana":"サガケン","city_kana":"トスシ","town_kana":"ウシワラマチ","prefecture":"佐賀県","city":"鳥栖市","town":"牛原町"},{"zip_code":"8410073","prefecture_kana":"サガケン","city_kana":"トスシ","town_kana":"エジママチ","prefecture":"佐賀県","city":"鳥栖市","town":"江島町"},{"zip_code":"8410003","prefecture_kana":"サガケン","city_kana":"トスシ","town_kana":"カトウダマチ","prefecture":"佐賀県","city":"鳥栖市","town":"加藤田町"},{"zip_code":"8410081","prefecture_kana":"サガケン","city_kana":"トスシ","town_kana":"カヤカタマチ","prefecture":"佐賀県","city":"鳥栖市","town":"萱方町"},{"zip_code":"8410087","prefecture_kana":"サガケン","city_kana":"トスシ","town_kana":"カワチマチ","prefecture":"佐賀県","city":"鳥栖市","town":"河内町"},{"zip_code":"8410066","prefecture_kana":"サガケン","city_kana":"トスシ","town_kana":"ギトクマチ","prefecture":"佐賀県","city":"鳥栖市","town":"儀徳町"},{"zip_code":"8410034","prefecture_kana":"サガケン","city_kana":"トスシ","town_kana":"キョウマチ","prefecture":"佐賀県","city":"鳥栖市","town":"京町"},{"zip_code":"8410056","prefecture_kana":"サガケン","city_kana":"トスシ","town_kana":"クラノウエ","prefecture":"佐賀県","city":"鳥栖市","town":"蔵上"},{"zip_code":"8410054","prefecture_kana":"サガケン","city_kana":"トスシ","town_kana":"クラノウエマチ","prefecture":"佐賀県","city":"鳥栖市","town":"蔵上町"},{"zip_code":"8410004","prefecture_kana":"サガケン","city_kana":"トスシ","town_kana":"コウノエマチ","prefecture":"佐賀県","city":"鳥栖市","town":"神辺町"},{"zip_code":"8410083","prefecture_kana":"サガケン","city_kana":"トスシ","town_kana":"コガマチ","prefecture":"佐賀県","city":"鳥栖市","town":"古賀町"},{"zip_code":"8410062","prefecture_kana":"サガケン","city_kana":"トスシ","town_kana":"サイツマチ","prefecture":"佐賀県","city":"鳥栖市","town":"幸津町"},{"zip_code":"8410041","prefecture_kana":"サガケン","city_kana":"トスシ","town_kana":"サカイヒガシマチ","prefecture":"佐賀県","city":"鳥栖市","town":"酒井東町"},{"zip_code":"8410042","prefecture_kana":"サガケン","city_kana":"トスシ","town_kana":"サカイニシマチ","prefecture":"佐賀県","city":"鳥栖市","town":"酒井西町"},{"zip_code":"8410088","prefecture_kana":"サガケン","city_kana":"トスシ","town_kana":"サクラガオカマチ","prefecture":"佐賀県","city":"鳥栖市","town":"桜ケ丘町"},{"zip_code":"8410014","prefecture_kana":"サガケン","city_kana":"トスシ","town_kana":"サクラマチ","prefecture":"佐賀県","city":"鳥栖市","town":"桜町"},{"zip_code":"8410063","prefecture_kana":"サガケン","city_kana":"トスシ","town_kana":"シモノマチ","prefecture":"佐賀県","city":"鳥栖市","town":"下野町"},{"zip_code":"8410052","prefecture_kana":"サガケン","city_kana":"トスシ","town_kana":"シュクマチ","prefecture":"佐賀県","city":"鳥栖市","town":"宿町"},{"zip_code":"8410025","prefecture_kana":"サガケン","city_kana":"トスシ","town_kana":"ソネザキマチ","prefecture":"佐賀県","city":"鳥栖市","town":"曽根崎町"},{"zip_code":"8410032","prefecture_kana":"サガケン","city_kana":"トスシ","town_kana":"タイショウマチ","prefecture":"佐賀県","city":"鳥栖市","town":"大正町"},{"zip_code":"8410044","prefecture_kana":"サガケン","city_kana":"トスシ","town_kana":"タカタマチ","prefecture":"佐賀県","city":"鳥栖市","town":"高田町"},{"zip_code":"8410015","prefecture_kana":"サガケン","city_kana":"トスシ","town_kana":"タシロカンマチ","prefecture":"佐賀県","city":"鳥栖市","town":"田代上町"},{"zip_code":"8410012","prefecture_kana":"サガケン","city_kana":"トスシ","town_kana":"タシロショウマチ","prefecture":"佐賀県","city":"鳥栖市","town":"田代昌町"},{"zip_code":"8410013","prefecture_kana":"サガケン","city_kana":"トスシ","town_kana":"タシロシンマチ","prefecture":"佐賀県","city":"鳥栖市","town":"田代新町"},{"zip_code":"8410017","prefecture_kana":"サガケン","city_kana":"トスシ","town_kana":"タシロダイカンマチ","prefecture":"佐賀県","city":"鳥栖市","town":"田代大官町"},{"zip_code":"8410016","prefecture_kana":"サガケン","city_kana":"トスシ","town_kana":"タシロホカマチ","prefecture":"佐賀県","city":"鳥栖市","town":"田代外町"},{"zip_code":"8410018","prefecture_kana":"サガケン","city_kana":"トスシ","town_kana":"タシロホンマチ","prefecture":"佐賀県","city":"鳥栖市","town":"田代本町"},{"zip_code":"8410075","prefecture_kana":"サガケン","city_kana":"トスシ","town_kana":"タテイシマチ","prefecture":"佐賀県","city":"鳥栖市","town":"立石町"},{"zip_code":"8410039","prefecture_kana":"サガケン","city_kana":"トスシ","town_kana":"ドイマチ","prefecture":"佐賀県","city":"鳥栖市","town":"土井町"},{"zip_code":"8410061","prefecture_kana":"サガケン","city_kana":"トスシ","town_kana":"トドロキマチ","prefecture":"佐賀県","city":"鳥栖市","town":"轟木町"},{"zip_code":"8410011","prefecture_kana":"サガケン","city_kana":"トスシ","town_kana":"ナガヨシマチ","prefecture":"佐賀県","city":"鳥栖市","town":"永吉町"},{"zip_code":"8410074","prefecture_kana":"サガケン","city_kana":"トスシ","town_kana":"ニシシンマチ","prefecture":"佐賀県","city":"鳥栖市","town":"西新町"},{"zip_code":"8410067","prefecture_kana":"サガケン","city_kana":"トスシ","town_kana":"ニシダマチ","prefecture":"佐賀県","city":"鳥栖市","town":"西田町"},{"zip_code":"8410089","prefecture_kana":"サガケン","city_kana":"トスシ","town_kana":"ニジガオカマチ","prefecture":"佐賀県","city":"鳥栖市","town":"虹ケ丘町"},{"zip_code":"8410021","prefecture_kana":"サガケン","city_kana":"トスシ","town_kana":"ハタザキマチ","prefecture":"佐賀県","city":"鳥栖市","town":"幡崎町"},{"zip_code":"8410071","prefecture_kana":"サガケン","city_kana":"トスシ","town_kana":"ハラコガマチ","prefecture":"佐賀県","city":"鳥栖市","town":"原古賀町"},{"zip_code":"8410024","prefecture_kana":"サガケン","city_kana":"トスシ","town_kana":"ハルマチ","prefecture":"佐賀県","city":"鳥栖市","town":"原町"},{"zip_code":"8410035","prefecture_kana":"サガケン","city_kana":"トスシ","town_kana":"ヒガシマチ","prefecture":"佐賀県","city":"鳥栖市","town":"東町"},{"zip_code":"8410023","prefecture_kana":"サガケン","city_kana":"トスシ","town_kana":"ヒメカタマチ","prefecture":"佐賀県","city":"鳥栖市","town":"姫方町"},{"zip_code":"8410076","prefecture_kana":"サガケン","city_kana":"トスシ","town_kana":"ヒラタマチ","prefecture":"佐賀県","city":"鳥栖市","town":"平田町"},{"zip_code":"8410048","prefecture_kana":"サガケン","city_kana":"トスシ","town_kana":"フジノキマチ","prefecture":"佐賀県","city":"鳥栖市","town":"藤木町"},{"zip_code":"8410053","prefecture_kana":"サガケン","city_kana":"トスシ","town_kana":"フツハラマチ","prefecture":"佐賀県","city":"鳥栖市","town":"布津原町"},{"zip_code":"8410038","prefecture_kana":"サガケン","city_kana":"トスシ","town_kana":"フルノマチ","prefecture":"佐賀県","city":"鳥栖市","town":"古野町"},{"zip_code":"8410033","prefecture_kana":"サガケン","city_kana":"トスシ","town_kana":"ホンドオリマチ","prefecture":"佐賀県","city":"鳥栖市","town":"本通町"},{"zip_code":"8410026","prefecture_kana":"サガケン","city_kana":"トスシ","town_kana":"ホンドスマチ","prefecture":"佐賀県","city":"鳥栖市","town":"本鳥栖町"},{"zip_code":"8410037","prefecture_kana":"サガケン","city_kana":"トスシ","town_kana":"ホンマチ","prefecture":"佐賀県","city":"鳥栖市","town":"本町"},{"zip_code":"8410065","prefecture_kana":"サガケン","city_kana":"トスシ","town_kana":"マエダマチ","prefecture":"佐賀県","city":"鳥栖市","town":"前田町"},{"zip_code":"8410046","prefecture_kana":"サガケン","city_kana":"トスシ","town_kana":"マキマチ","prefecture":"佐賀県","city":"鳥栖市","town":"真木町"},{"zip_code":"8410027","prefecture_kana":"サガケン","city_kana":"トスシ","town_kana":"マツバラマチ","prefecture":"佐賀県","city":"鳥栖市","town":"松原町"},{"zip_code":"8410064","prefecture_kana":"サガケン","city_kana":"トスシ","town_kana":"ミシママチ","prefecture":"佐賀県","city":"鳥栖市","town":"三島町"},{"zip_code":"8410043","prefecture_kana":"サガケン","city_kana":"トスシ","town_kana":"ミズヤマチ","prefecture":"佐賀県","city":"鳥栖市","town":"水屋町"},{"zip_code":"8410072","prefecture_kana":"サガケン","city_kana":"トスシ","town_kana":"ムラタマチ","prefecture":"佐賀県","city":"鳥栖市","town":"村田町"},{"zip_code":"8410051","prefecture_kana":"サガケン","city_kana":"トスシ","town_kana":"モトマチ","prefecture":"佐賀県","city":"鳥栖市","town":"元町"},{"zip_code":"8410055","prefecture_kana":"サガケン","city_kana":"トスシ","town_kana":"ヤブマチ","prefecture":"佐賀県","city":"鳥栖市","town":"養父町"},{"zip_code":"8410084","prefecture_kana":"サガケン","city_kana":"トスシ","town_kana":"ヤマウラマチ","prefecture":"佐賀県","city":"鳥栖市","town":"山浦町"},{"zip_code":"8410085","prefecture_kana":"サガケン","city_kana":"トスシ","town_kana":"ヤマトマチ","prefecture":"佐賀県","city":"鳥栖市","town":"山都町"},{"zip_code":"8410005","prefecture_kana":"サガケン","city_kana":"トスシ","town_kana":"ヤヨイガオカ","prefecture":"佐賀県","city":"鳥栖市","town":"弥生が丘"},{"zip_code":"8410031","prefecture_kana":"サガケン","city_kana":"トスシ","town_kana":"ヤリタマチ","prefecture":"佐賀県","city":"鳥栖市","town":"鎗田町"},{"zip_code":"8410002","prefecture_kana":"サガケン","city_kana":"トスシ","town_kana":"ユビマチ","prefecture":"佐賀県","city":"鳥栖市","town":"柚比町"},{"zip_code":"8460000","prefecture_kana":"サガケン","city_kana":"タクシ","town_kana":"イカニケイサイガナイバアイ","prefecture":"佐賀県","city":"多久市","town":"以下に掲載がない場合"},{"zip_code":"8460001","prefecture_kana":"サガケン","city_kana":"タクシ","town_kana":"キタタクマチ","prefecture":"佐賀県","city":"多久市","town":"北多久町"},{"zip_code":"8460006","prefecture_kana":"サガケン","city_kana":"タクシ","town_kana":"キタタクマチアザミバル","prefecture":"佐賀県","city":"多久市","town":"北多久町莇原"},{"zip_code":"8460002","prefecture_kana":"サガケン","city_kana":"タクシ","town_kana":"キタタクマチコサムライ","prefecture":"佐賀県","city":"多久市","town":"北多久町小侍"},{"zip_code":"8460005","prefecture_kana":"サガケン","city_kana":"タクシ","town_kana":"キタタクマチスナハラ","prefecture":"佐賀県","city":"多久市","town":"北多久町砂原"},{"zip_code":"8460003","prefecture_kana":"サガケン","city_kana":"タクシ","town_kana":"キタタクマチタクバル","prefecture":"佐賀県","city":"多久市","town":"北多久町多久原"},{"zip_code":"8460004","prefecture_kana":"サガケン","city_kana":"タクシ","town_kana":"キタタクマチナカタク","prefecture":"佐賀県","city":"多久市","town":"北多久町中多久"},{"zip_code":"8460007","prefecture_kana":"サガケン","city_kana":"タクシ","town_kana":"キタタクマチメイプルタウン","prefecture":"佐賀県","city":"多久市","town":"北多久町メイプルタウン"},{"zip_code":"8460031","prefecture_kana":"サガケン","city_kana":"タクシ","town_kana":"タクマチ","prefecture":"佐賀県","city":"多久市","town":"多久町"},{"zip_code":"8460041","prefecture_kana":"サガケン","city_kana":"タクシ","town_kana":"ニシタクマチ","prefecture":"佐賀県","city":"多久市","town":"西多久町"},{"zip_code":"8460011","prefecture_kana":"サガケン","city_kana":"タクシ","town_kana":"ヒガシタクマチ","prefecture":"佐賀県","city":"多久市","town":"東多久町"},{"zip_code":"8460013","prefecture_kana":"サガケン","city_kana":"タクシ","town_kana":"ヒガシタクマチコガ","prefecture":"佐賀県","city":"多久市","town":"東多久町古賀"},{"zip_code":"8460014","prefecture_kana":"サガケン","city_kana":"タクシ","town_kana":"ヒガシタクマチノウソ","prefecture":"佐賀県","city":"多久市","town":"東多久町納所"},{"zip_code":"8460012","prefecture_kana":"サガケン","city_kana":"タクシ","town_kana":"ヒガシタクマチベフ","prefecture":"佐賀県","city":"多久市","town":"東多久町別府"},{"zip_code":"8460021","prefecture_kana":"サガケン","city_kana":"タクシ","town_kana":"ミナミタクマチ","prefecture":"佐賀県","city":"多久市","town":"南多久町"},{"zip_code":"8460022","prefecture_kana":"サガケン","city_kana":"タクシ","town_kana":"ミナミタクマチイズミマチ","prefecture":"佐賀県","city":"多久市","town":"南多久町泉町"},{"zip_code":"8460024","prefecture_kana":"サガケン","city_kana":"タクシ","town_kana":"ミナミタクマチシモタク","prefecture":"佐賀県","city":"多久市","town":"南多久町下多久"},{"zip_code":"8460023","prefecture_kana":"サガケン","city_kana":"タクシ","town_kana":"ミナミタクマチナガオ","prefecture":"佐賀県","city":"多久市","town":"南多久町長尾"},{"zip_code":"8460025","prefecture_kana":"サガケン","city_kana":"タクシ","town_kana":"ミナミタクマチハナマツリ","prefecture":"佐賀県","city":"多久市","town":"南多久町花祭"},{"zip_code":"8480000","prefecture_kana":"サガケン","city_kana":"イマリシ","town_kana":"イカニケイサイガナイバアイ","prefecture":"佐賀県","city":"伊万里市","town":"以下に掲載がない場合"},{"zip_code":"8480047","prefecture_kana":"サガケン","city_kana":"イマリシ","town_kana":"イマリチョウコウ","prefecture":"佐賀県","city":"伊万里市","town":"伊万里町甲"},{"zip_code":"8480046","prefecture_kana":"サガケン","city_kana":"イマリシ","town_kana":"イマリチョウオツ","prefecture":"佐賀県","city":"伊万里市","town":"伊万里町乙"},{"zip_code":"8480024","prefecture_kana":"サガケン","city_kana":"イマリシ","town_kana":"オオカワチチョウコウ","prefecture":"佐賀県","city":"伊万里市","town":"大川内町甲"},{"zip_code":"8480025","prefecture_kana":"サガケン","city_kana":"イマリシ","town_kana":"オオカワチチョウオツ","prefecture":"佐賀県","city":"伊万里市","town":"大川内町乙"},{"zip_code":"8480026","prefecture_kana":"サガケン","city_kana":"イマリシ","town_kana":"オオカワチチョウヘイ","prefecture":"佐賀県","city":"伊万里市","town":"大川内町丙"},{"zip_code":"8495251","prefecture_kana":"サガケン","city_kana":"イマリシ","town_kana":"オオカワチョウオオカワノ","prefecture":"佐賀県","city":"伊万里市","town":"大川町大川野"},{"zip_code":"8495257","prefecture_kana":"サガケン","city_kana":"イマリシ","town_kana":"オオカワチョウカワバル","prefecture":"佐賀県","city":"伊万里市","town":"大川町川原"},{"zip_code":"8495252","prefecture_kana":"サガケン","city_kana":"イマリシ","town_kana":"オオカワチョウカワニシ","prefecture":"佐賀県","city":"伊万里市","town":"大川町川西"},{"zip_code":"8495253","prefecture_kana":"サガケン","city_kana":"イマリシ","town_kana":"オオカワチョウコマナキ","prefecture":"佐賀県","city":"伊万里市","town":"大川町駒鳴"},{"zip_code":"8495254","prefecture_kana":"サガケン","city_kana":"イマリシ","town_kana":"オオカワチョウタツガワ","prefecture":"佐賀県","city":"伊万里市","town":"大川町立川"},{"zip_code":"8495256","prefecture_kana":"サガケン","city_kana":"イマリシ","town_kana":"オオカワチョウヒガシタシロ","prefecture":"佐賀県","city":"伊万里市","town":"大川町東田代"},{"zip_code":"8495255","prefecture_kana":"サガケン","city_kana":"イマリシ","town_kana":"オオカワチョウヤマグチ","prefecture":"佐賀県","city":"伊万里市","town":"大川町山口"},{"zip_code":"8480021","prefecture_kana":"サガケン","city_kana":"イマリシ","town_kana":"オオツボチョウコウ","prefecture":"佐賀県","city":"伊万里市","town":"大坪町甲"},{"zip_code":"8480022","prefecture_kana":"サガケン","city_kana":"イマリシ","town_kana":"オオツボチョウオツ","prefecture":"佐賀県","city":"伊万里市","town":"大坪町乙"},{"zip_code":"8480023","prefecture_kana":"サガケン","city_kana":"イマリシ","town_kana":"オオツボチョウヘイ","prefecture":"佐賀県","city":"伊万里市","town":"大坪町丙"},{"zip_code":"8480044","prefecture_kana":"サガケン","city_kana":"イマリシ","town_kana":"キスチョウ","prefecture":"佐賀県","city":"伊万里市","town":"木須町"},{"zip_code":"8480124","prefecture_kana":"サガケン","city_kana":"イマリシ","town_kana":"クロガワチョウ（ナムラダンチ）","prefecture":"佐賀県","city":"伊万里市","town":"黒川町（名村団地）"},{"zip_code":"8480123","prefecture_kana":"サガケン","city_kana":"イマリシ","town_kana":"クロガワチョウオオクロガワ","prefecture":"佐賀県","city":"伊万里市","town":"黒川町大黒川"},{"zip_code":"8480146","prefecture_kana":"サガケン","city_kana":"イマリシ","town_kana":"クロガワチョウクロシオ","prefecture":"佐賀県","city":"伊万里市","town":"黒川町黒塩"},{"zip_code":"8480125","prefecture_kana":"サガケン","city_kana":"イマリシ","town_kana":"クロガワチョウコクロガワ","prefecture":"佐賀県","city":"伊万里市","town":"黒川町小黒川"},{"zip_code":"8480121","prefecture_kana":"サガケン","city_kana":"イマリシ","town_kana":"クロガワチョウシオヤ","prefecture":"佐賀県","city":"伊万里市","town":"黒川町塩屋"},{"zip_code":"8480141","prefecture_kana":"サガケン","city_kana":"イマリシ","town_kana":"クロガワチョウシミズ","prefecture":"佐賀県","city":"伊万里市","town":"黒川町清水"},{"zip_code":"8480142","prefecture_kana":"サガケン","city_kana":"イマリシ","town_kana":"クロガワチョウタチメ","prefecture":"佐賀県","city":"伊万里市","town":"黒川町立目"},{"zip_code":"8480145","prefecture_kana":"サガケン","city_kana":"イマリシ","town_kana":"クロガワチョウツバキハラ","prefecture":"佐賀県","city":"伊万里市","town":"黒川町椿原"},{"zip_code":"8480132","prefecture_kana":"サガケン","city_kana":"イマリシ","town_kana":"クロガワチョウナガオ","prefecture":"佐賀県","city":"伊万里市","town":"黒川町長尾"},{"zip_code":"8480131","prefecture_kana":"サガケン","city_kana":"イマリシ","town_kana":"クロガワチョウハタガワチ","prefecture":"佐賀県","city":"伊万里市","town":"黒川町畑川内"},{"zip_code":"8480134","prefecture_kana":"サガケン","city_kana":"イマリシ","town_kana":"クロガワチョウハナブサ","prefecture":"佐賀県","city":"伊万里市","town":"黒川町花房"},{"zip_code":"8480122","prefecture_kana":"サガケン","city_kana":"イマリシ","town_kana":"クロガワチョウフクダ","prefecture":"佐賀県","city":"伊万里市","town":"黒川町福田"},{"zip_code":"8480133","prefecture_kana":"サガケン","city_kana":"イマリシ","town_kana":"クロガワチョウマテノ","prefecture":"佐賀県","city":"伊万里市","town":"黒川町真手野"},{"zip_code":"8480143","prefecture_kana":"サガケン","city_kana":"イマリシ","town_kana":"クロガワチョウムタ","prefecture":"佐賀県","city":"伊万里市","town":"黒川町牟田"},{"zip_code":"8480144","prefecture_kana":"サガケン","city_kana":"イマリシ","town_kana":"クロガワチョウヨコノ","prefecture":"佐賀県","city":"伊万里市","town":"黒川町横野"},{"zip_code":"8480041","prefecture_kana":"サガケン","city_kana":"イマリシ","town_kana":"シンテンチョウ","prefecture":"佐賀県","city":"伊万里市","town":"新天町"},{"zip_code":"8480043","prefecture_kana":"サガケン","city_kana":"イマリシ","town_kana":"セトチョウ","prefecture":"佐賀県","city":"伊万里市","town":"瀬戸町"},{"zip_code":"8480027","prefecture_kana":"サガケン","city_kana":"イマリシ","town_kana":"タチバナチョウ","prefecture":"佐賀県","city":"伊万里市","town":"立花町"},{"zip_code":"8480032","prefecture_kana":"サガケン","city_kana":"イマリシ","town_kana":"ニリチョウオオザトコウ","prefecture":"佐賀県","city":"伊万里市","town":"二里町大里甲"},{"zip_code":"8480035","prefecture_kana":"サガケン","city_kana":"イマリシ","town_kana":"ニリチョウオオザトオツ","prefecture":"佐賀県","city":"伊万里市","town":"二里町大里乙"},{"zip_code":"8480034","prefecture_kana":"サガケン","city_kana":"イマリシ","town_kana":"ニリチョウナカザトコウ","prefecture":"佐賀県","city":"伊万里市","town":"二里町中里甲"},{"zip_code":"8480033","prefecture_kana":"サガケン","city_kana":"イマリシ","town_kana":"ニリチョウナカザトオツ","prefecture":"佐賀県","city":"伊万里市","town":"二里町中里乙"},{"zip_code":"8480031","prefecture_kana":"サガケン","city_kana":"イマリシ","town_kana":"ニリチョウハチヤガラミ","prefecture":"佐賀県","city":"伊万里市","town":"二里町八谷搦"},{"zip_code":"8480042","prefecture_kana":"サガケン","city_kana":"イマリシ","town_kana":"ハスイケチョウ","prefecture":"佐賀県","city":"伊万里市","town":"蓮池町"},{"zip_code":"8480113","prefecture_kana":"サガケン","city_kana":"イマリシ","town_kana":"ハタツチョウイタギ","prefecture":"佐賀県","city":"伊万里市","town":"波多津町板木"},{"zip_code":"8480116","prefecture_kana":"サガケン","city_kana":"イマリシ","town_kana":"ハタツチョウイノオ","prefecture":"佐賀県","city":"伊万里市","town":"波多津町井野尾"},{"zip_code":"8480103","prefecture_kana":"サガケン","city_kana":"イマリシ","town_kana":"ハタツチョウウチノ","prefecture":"佐賀県","city":"伊万里市","town":"波多津町内野"},{"zip_code":"8480111","prefecture_kana":"サガケン","city_kana":"イマリシ","town_kana":"ハタツチョウコバ","prefecture":"佐賀県","city":"伊万里市","town":"波多津町木場"},{"zip_code":"8480104","prefecture_kana":"サガケン","city_kana":"イマリシ","town_kana":"ハタツチョウススヤ","prefecture":"佐賀県","city":"伊万里市","town":"波多津町煤屋"},{"zip_code":"8480112","prefecture_kana":"サガケン","city_kana":"イマリシ","town_kana":"ハタツチョウタシロ","prefecture":"佐賀県","city":"伊万里市","town":"波多津町田代"},{"zip_code":"8480101","prefecture_kana":"サガケン","city_kana":"イマリシ","town_kana":"ハタツチョウツジ","prefecture":"佐賀県","city":"伊万里市","town":"波多津町辻"},{"zip_code":"8480117","prefecture_kana":"サガケン","city_kana":"イマリシ","town_kana":"ハタツチョウツツイ","prefecture":"佐賀県","city":"伊万里市","town":"波多津町筒井"},{"zip_code":"8480114","prefecture_kana":"サガケン","city_kana":"イマリシ","town_kana":"ハタツチョウツルヌシヤ","prefecture":"佐賀県","city":"伊万里市","town":"波多津町津留主屋"},{"zip_code":"8480115","prefecture_kana":"サガケン","city_kana":"イマリシ","town_kana":"ハタツチョウナカヤマ","prefecture":"佐賀県","city":"伊万里市","town":"波多津町中山"},{"zip_code":"8480102","prefecture_kana":"サガケン","city_kana":"イマリシ","town_kana":"ハタツチョウハタツ","prefecture":"佐賀県","city":"伊万里市","town":"波多津町畑津"},{"zip_code":"8480105","prefecture_kana":"サガケン","city_kana":"イマリシ","town_kana":"ハタツチョウマテガタ","prefecture":"佐賀県","city":"伊万里市","town":"波多津町馬蛤潟"},{"zip_code":"8494284","prefecture_kana":"サガケン","city_kana":"イマリシ","town_kana":"ヒガシヤマシロチョウウラガワチ","prefecture":"佐賀県","city":"伊万里市","town":"東山代町浦川内"},{"zip_code":"8494281","prefecture_kana":"サガケン","city_kana":"イマリシ","town_kana":"ヒガシヤマシロチョウオオクボ","prefecture":"佐賀県","city":"伊万里市","town":"東山代町大久保"},{"zip_code":"8494286","prefecture_kana":"サガケン","city_kana":"イマリシ","town_kana":"ヒガシヤマシロチョウカワチノ","prefecture":"佐賀県","city":"伊万里市","town":"東山代町川内野"},{"zip_code":"8494282","prefecture_kana":"サガケン","city_kana":"イマリシ","town_kana":"ヒガシヤマシロチョウサト","prefecture":"佐賀県","city":"伊万里市","town":"東山代町里"},{"zip_code":"8494285","prefecture_kana":"サガケン","city_kana":"イマリシ","town_kana":"ヒガシヤマシロチョウタキガワチ","prefecture":"佐賀県","city":"伊万里市","town":"東山代町滝川内"},{"zip_code":"8494273","prefecture_kana":"サガケン","city_kana":"イマリシ","town_kana":"ヒガシヤマシロチョウテンジン","prefecture":"佐賀県","city":"伊万里市","town":"東山代町天神"},{"zip_code":"8494271","prefecture_kana":"サガケン","city_kana":"イマリシ","town_kana":"ヒガシヤマシロチョウナガハマ","prefecture":"佐賀県","city":"伊万里市","town":"東山代町長浜"},{"zip_code":"8494272","prefecture_kana":"サガケン","city_kana":"イマリシ","town_kana":"ヒガシヤマシロチョウヒオ","prefecture":"佐賀県","city":"伊万里市","town":"東山代町日尾"},{"zip_code":"8494283","prefecture_kana":"サガケン","city_kana":"イマリシ","town_kana":"ヒガシヤマシロチョウヒガシオオクボ","prefecture":"佐賀県","city":"伊万里市","town":"東山代町東大久保"},{"zip_code":"8494274","prefecture_kana":"サガケン","city_kana":"イマリシ","town_kana":"ヒガシヤマシロチョウワキノ","prefecture":"佐賀県","city":"伊万里市","town":"東山代町脇野"},{"zip_code":"8495264","prefecture_kana":"サガケン","city_kana":"イマリシ","town_kana":"マツウラチョウサゲノカワ","prefecture":"佐賀県","city":"伊万里市","town":"松浦町提川"},{"zip_code":"8495262","prefecture_kana":"サガケン","city_kana":"イマリシ","town_kana":"マツウラチョウナカノハラ","prefecture":"佐賀県","city":"伊万里市","town":"松浦町中野原"},{"zip_code":"8495261","prefecture_kana":"サガケン","city_kana":"イマリシ","town_kana":"マツウラチョウモモノカワ","prefecture":"佐賀県","city":"伊万里市","town":"松浦町桃川"},{"zip_code":"8495263","prefecture_kana":"サガケン","city_kana":"イマリシ","town_kana":"マツウラチョウヤマガタ","prefecture":"佐賀県","city":"伊万里市","town":"松浦町山形"},{"zip_code":"8480045","prefecture_kana":"サガケン","city_kana":"イマリシ","town_kana":"マツシマチョウ","prefecture":"佐賀県","city":"伊万里市","town":"松島町"},{"zip_code":"8480007","prefecture_kana":"サガケン","city_kana":"イマリシ","town_kana":"ミナミハタチョウイデノ","prefecture":"佐賀県","city":"伊万里市","town":"南波多町井手野"},{"zip_code":"8480011","prefecture_kana":"サガケン","city_kana":"イマリシ","town_kana":"ミナミハタチョウオオカワバル","prefecture":"佐賀県","city":"伊万里市","town":"南波多町大川原"},{"zip_code":"8480005","prefecture_kana":"サガケン","city_kana":"イマリシ","town_kana":"ミナミハタチョウオオマガリ","prefecture":"佐賀県","city":"伊万里市","town":"南波多町大曲"},{"zip_code":"8480013","prefecture_kana":"サガケン","city_kana":"イマリシ","town_kana":"ミナミハタチョウカサジ","prefecture":"佐賀県","city":"伊万里市","town":"南波多町笠椎"},{"zip_code":"8480014","prefecture_kana":"サガケン","city_kana":"イマリシ","town_kana":"ミナミハタチョウコムギハル","prefecture":"佐賀県","city":"伊万里市","town":"南波多町小麦原"},{"zip_code":"8480001","prefecture_kana":"サガケン","city_kana":"イマリシ","town_kana":"ミナミハタチョウジュウバシ","prefecture":"佐賀県","city":"伊万里市","town":"南波多町重橋"},{"zip_code":"8480006","prefecture_kana":"サガケン","city_kana":"イマリシ","town_kana":"ミナミハタチョウタカゼ","prefecture":"佐賀県","city":"伊万里市","town":"南波多町高瀬"},{"zip_code":"8480002","prefecture_kana":"サガケン","city_kana":"イマリシ","town_kana":"ミナミハタチョウタニグチ","prefecture":"佐賀県","city":"伊万里市","town":"南波多町谷口"},{"zip_code":"8480004","prefecture_kana":"サガケン","city_kana":"イマリシ","town_kana":"ミナミハタチョウツヅミ","prefecture":"佐賀県","city":"伊万里市","town":"南波多町水留"},{"zip_code":"8480016","prefecture_kana":"サガケン","city_kana":"イマリシ","town_kana":"ミナミハタチョウハラヤシキ","prefecture":"佐賀県","city":"伊万里市","town":"南波多町原屋敷"},{"zip_code":"8480015","prefecture_kana":"サガケン","city_kana":"イマリシ","town_kana":"ミナミハタチョウフマネキ","prefecture":"佐賀県","city":"伊万里市","town":"南波多町府招"},{"zip_code":"8480012","prefecture_kana":"サガケン","city_kana":"イマリシ","town_kana":"ミナミハタチョウフルコ","prefecture":"佐賀県","city":"伊万里市","town":"南波多町古川"},{"zip_code":"8480003","prefecture_kana":"サガケン","city_kana":"イマリシ","town_kana":"ミナミハタチョウフルサト","prefecture":"佐賀県","city":"伊万里市","town":"南波多町古里"},{"zip_code":"8494251","prefecture_kana":"サガケン","city_kana":"イマリシ","town_kana":"ヤマシロチョウクスク","prefecture":"佐賀県","city":"伊万里市","town":"山代町楠久"},{"zip_code":"8494252","prefecture_kana":"サガケン","city_kana":"イマリシ","town_kana":"ヤマシロチョウクスクツ","prefecture":"佐賀県","city":"伊万里市","town":"山代町楠久津"},{"zip_code":"8494256","prefecture_kana":"サガケン","city_kana":"イマリシ","town_kana":"ヤマシロチョウクバラ","prefecture":"佐賀県","city":"伊万里市","town":"山代町久原"},{"zip_code":"8494254","prefecture_kana":"サガケン","city_kana":"イマリシ","town_kana":"ヤマシロチョウジョウ","prefecture":"佐賀県","city":"伊万里市","town":"山代町城"},{"zip_code":"8494261","prefecture_kana":"サガケン","city_kana":"イマリシ","town_kana":"ヤマシロチョウタチイワ","prefecture":"佐賀県","city":"伊万里市","town":"山代町立岩"},{"zip_code":"8494263","prefecture_kana":"サガケン","city_kana":"イマリシ","town_kana":"ヤマシロチョウニシオオクボ","prefecture":"佐賀県","city":"伊万里市","town":"山代町西大久保"},{"zip_code":"8494264","prefecture_kana":"サガケン","city_kana":"イマリシ","town_kana":"ヤマシロチョウヒガシブン","prefecture":"佐賀県","city":"伊万里市","town":"山代町東分"},{"zip_code":"8494262","prefecture_kana":"サガケン","city_kana":"イマリシ","town_kana":"ヤマシロチョウニシブン","prefecture":"佐賀県","city":"伊万里市","town":"山代町西分"},{"zip_code":"8494255","prefecture_kana":"サガケン","city_kana":"イマリシ","town_kana":"ヤマシロチョウフクガワチ","prefecture":"佐賀県","city":"伊万里市","town":"山代町福川内"},{"zip_code":"8494253","prefecture_kana":"サガケン","city_kana":"イマリシ","town_kana":"ヤマシロチョウミネ","prefecture":"佐賀県","city":"伊万里市","town":"山代町峰"},{"zip_code":"8480028","prefecture_kana":"サガケン","city_kana":"イマリシ","town_kana":"ワキダチョウ","prefecture":"佐賀県","city":"伊万里市","town":"脇田町"},{"zip_code":"8430000","prefecture_kana":"サガケン","city_kana":"タケオシ","town_kana":"イカニケイサイガナイバアイ","prefecture":"佐賀県","city":"武雄市","town":"以下に掲載がない場合"},{"zip_code":"8430003","prefecture_kana":"サガケン","city_kana":"タケオシ","town_kana":"アサヒチョウアシハラ","prefecture":"佐賀県","city":"武雄市","town":"朝日町芦原"},{"zip_code":"8430001","prefecture_kana":"サガケン","city_kana":"タケオシ","town_kana":"アサヒチョウアマグ","prefecture":"佐賀県","city":"武雄市","town":"朝日町甘久"},{"zip_code":"8430002","prefecture_kana":"サガケン","city_kana":"タケオシ","town_kana":"アサヒチョウナカノ","prefecture":"佐賀県","city":"武雄市","town":"朝日町中野"},{"zip_code":"8492203","prefecture_kana":"サガケン","city_kana":"タケオシ","town_kana":"キタガタチョウアシハラ","prefecture":"佐賀県","city":"武雄市","town":"北方町芦原"},{"zip_code":"8492204","prefecture_kana":"サガケン","city_kana":"タケオシ","town_kana":"キタガタチョウオオサキ","prefecture":"佐賀県","city":"武雄市","town":"北方町大崎"},{"zip_code":"8492202","prefecture_kana":"サガケン","city_kana":"タケオシ","town_kana":"キタガタチョウオオワタリ","prefecture":"佐賀県","city":"武雄市","town":"北方町大渡"},{"zip_code":"8492201","prefecture_kana":"サガケン","city_kana":"タケオシ","town_kana":"キタガタチョウシク","prefecture":"佐賀県","city":"武雄市","town":"北方町志久"},{"zip_code":"8492341","prefecture_kana":"サガケン","city_kana":"タケオシ","town_kana":"タケウチチョウウメノ","prefecture":"佐賀県","city":"武雄市","town":"武内町梅野"},{"zip_code":"8492342","prefecture_kana":"サガケン","city_kana":"タケオシ","town_kana":"タケウチチョウマテノ","prefecture":"佐賀県","city":"武雄市","town":"武内町真手野"},{"zip_code":"8430023","prefecture_kana":"サガケン","city_kana":"タケオシ","town_kana":"タケオチョウショウワ","prefecture":"佐賀県","city":"武雄市","town":"武雄町昭和"},{"zip_code":"8430022","prefecture_kana":"サガケン","city_kana":"タケオシ","town_kana":"タケオチョウタケオ","prefecture":"佐賀県","city":"武雄市","town":"武雄町武雄"},{"zip_code":"8430024","prefecture_kana":"サガケン","city_kana":"タケオシ","town_kana":"タケオチョウトミオカ","prefecture":"佐賀県","city":"武雄市","town":"武雄町富岡"},{"zip_code":"8430021","prefecture_kana":"サガケン","city_kana":"タケオシ","town_kana":"タケオチョウナガシマ","prefecture":"佐賀県","city":"武雄市","town":"武雄町永島"},{"zip_code":"8430011","prefecture_kana":"サガケン","city_kana":"タケオシ","town_kana":"タチバナチョウアシハラ","prefecture":"佐賀県","city":"武雄市","town":"橘町芦原"},{"zip_code":"8430012","prefecture_kana":"サガケン","city_kana":"タケオシ","town_kana":"タチバナチョウカタジロ","prefecture":"佐賀県","city":"武雄市","town":"橘町片白"},{"zip_code":"8430013","prefecture_kana":"サガケン","city_kana":"タケオシ","town_kana":"タチバナチョウダイニチ","prefecture":"佐賀県","city":"武雄市","town":"橘町大日"},{"zip_code":"8430014","prefecture_kana":"サガケン","city_kana":"タケオシ","town_kana":"タチバナチョウナガシマ","prefecture":"佐賀県","city":"武雄市","town":"橘町永島"},{"zip_code":"8430231","prefecture_kana":"サガケン","city_kana":"タケオシ","town_kana":"ニシカワノボリチョウコタジ","prefecture":"佐賀県","city":"武雄市","town":"西川登町小田志"},{"zip_code":"8430232","prefecture_kana":"サガケン","city_kana":"タケオシ","town_kana":"ニシカワノボリチョウジンロク","prefecture":"佐賀県","city":"武雄市","town":"西川登町神六"},{"zip_code":"8430233","prefecture_kana":"サガケン","city_kana":"タケオシ","town_kana":"ヒガシカワノボリチョウナガノ","prefecture":"佐賀県","city":"武雄市","town":"東川登町永野"},{"zip_code":"8430234","prefecture_kana":"サガケン","city_kana":"タケオシ","town_kana":"ヒガシカワノボリチョウハカマノ","prefecture":"佐賀県","city":"武雄市","town":"東川登町袴野"},{"zip_code":"8492301","prefecture_kana":"サガケン","city_kana":"タケオシ","town_kana":"ヤマウチチョウイヌバシリ","prefecture":"佐賀県","city":"武雄市","town":"山内町犬走"},{"zip_code":"8492304","prefecture_kana":"サガケン","city_kana":"タケオシ","town_kana":"ヤマウチチョウオオノ","prefecture":"佐賀県","city":"武雄市","town":"山内町大野"},{"zip_code":"8492302","prefecture_kana":"サガケン","city_kana":"タケオシ","town_kana":"ヤマウチチョウトノミ","prefecture":"佐賀県","city":"武雄市","town":"山内町鳥海"},{"zip_code":"8492303","prefecture_kana":"サガケン","city_kana":"タケオシ","town_kana":"ヤマウチチョウミマサカ","prefecture":"佐賀県","city":"武雄市","town":"山内町三間坂"},{"zip_code":"8492305","prefecture_kana":"サガケン","city_kana":"タケオシ","town_kana":"ヤマウチチョウミヤノ","prefecture":"佐賀県","city":"武雄市","town":"山内町宮野"},{"zip_code":"8430151","prefecture_kana":"サガケン","city_kana":"タケオシ","town_kana":"ワカキチョウカワゴ","prefecture":"佐賀県","city":"武雄市","town":"若木町川古"},{"zip_code":"8430152","prefecture_kana":"サガケン","city_kana":"タケオシ","town_kana":"ワカキチョウモトベ","prefecture":"佐賀県","city":"武雄市","town":"若木町本部"},{"zip_code":"8430153","prefecture_kana":"サガケン","city_kana":"タケオシ","town_kana":"ワカキチョウモモノカワ","prefecture":"佐賀県","city":"武雄市","town":"若木町桃川"},{"zip_code":"8491300","prefecture_kana":"サガケン","city_kana":"カシマシ","town_kana":"イカニケイサイガナイバアイ","prefecture":"佐賀県","city":"鹿島市","town":"以下に掲載がない場合"},{"zip_code":"8491324","prefecture_kana":"サガケン","city_kana":"カシマシ","town_kana":"イイダ","prefecture":"佐賀県","city":"鹿島市","town":"飯田"},{"zip_code":"8491302","prefecture_kana":"サガケン","city_kana":"カシマシ","town_kana":"イデ","prefecture":"佐賀県","city":"鹿島市","town":"井手"},{"zip_code":"8491323","prefecture_kana":"サガケン","city_kana":"カシマシ","town_kana":"オトナリ","prefecture":"佐賀県","city":"鹿島市","town":"音成"},{"zip_code":"8491313","prefecture_kana":"サガケン","city_kana":"カシマシ","town_kana":"ジュウノキ","prefecture":"佐賀県","city":"鹿島市","town":"重ノ木"},{"zip_code":"8491311","prefecture_kana":"サガケン","city_kana":"カシマシ","town_kana":"タカツハラ","prefecture":"佐賀県","city":"鹿島市","town":"高津原"},{"zip_code":"8491301","prefecture_kana":"サガケン","city_kana":"カシマシ","town_kana":"ツネヒロ","prefecture":"佐賀県","city":"鹿島市","town":"常広"},{"zip_code":"8491304","prefecture_kana":"サガケン","city_kana":"カシマシ","town_kana":"ナカムラ","prefecture":"佐賀県","city":"鹿島市","town":"中村"},{"zip_code":"8491312","prefecture_kana":"サガケン","city_kana":"カシマシ","town_kana":"ノウドミブン","prefecture":"佐賀県","city":"鹿島市","town":"納富分"},{"zip_code":"8491322","prefecture_kana":"サガケン","city_kana":"カシマシ","town_kana":"ハママチ","prefecture":"佐賀県","city":"鹿島市","town":"浜町"},{"zip_code":"8491321","prefecture_kana":"サガケン","city_kana":"カシマシ","town_kana":"フルエダ","prefecture":"佐賀県","city":"鹿島市","town":"古枝"},{"zip_code":"8491315","prefecture_kana":"サガケン","city_kana":"カシマシ","town_kana":"ミカワチ","prefecture":"佐賀県","city":"鹿島市","town":"三河内"},{"zip_code":"8491303","prefecture_kana":"サガケン","city_kana":"カシマシ","town_kana":"モリ","prefecture":"佐賀県","city":"鹿島市","town":"森"},{"zip_code":"8491314","prefecture_kana":"サガケン","city_kana":"カシマシ","town_kana":"ヤマウラ","prefecture":"佐賀県","city":"鹿島市","town":"山浦"},{"zip_code":"8450000","prefecture_kana":"サガケン","city_kana":"オギシ","town_kana":"イカニケイサイガナイバアイ","prefecture":"佐賀県","city":"小城市","town":"以下に掲載がない場合"},{"zip_code":"8490311","prefecture_kana":"サガケン","city_kana":"オギシ","town_kana":"アシカリチョウアシミゾ","prefecture":"佐賀県","city":"小城市","town":"芦刈町芦溝"},{"zip_code":"8490312","prefecture_kana":"サガケン","city_kana":"オギシ","town_kana":"アシカリチョウシモコガ","prefecture":"佐賀県","city":"小城市","town":"芦刈町下古賀"},{"zip_code":"8490316","prefecture_kana":"サガケン","city_kana":"オギシ","town_kana":"アシカリチョウドウメ","prefecture":"佐賀県","city":"小城市","town":"芦刈町道免"},{"zip_code":"8490313","prefecture_kana":"サガケン","city_kana":"オギシ","town_kana":"アシカリチョウナガタ","prefecture":"佐賀県","city":"小城市","town":"芦刈町永田"},{"zip_code":"8490315","prefecture_kana":"サガケン","city_kana":"オギシ","town_kana":"アシカリチョウハマエダガワ","prefecture":"佐賀県","city":"小城市","town":"芦刈町浜枝川"},{"zip_code":"8490314","prefecture_kana":"サガケン","city_kana":"オギシ","town_kana":"アシカリチョウミオウザキ","prefecture":"佐賀県","city":"小城市","town":"芦刈町三王崎"},{"zip_code":"8490303","prefecture_kana":"サガケン","city_kana":"オギシ","town_kana":"ウシヅチョウウシヅ","prefecture":"佐賀県","city":"小城市","town":"牛津町牛津"},{"zip_code":"8490301","prefecture_kana":"サガケン","city_kana":"オギシ","town_kana":"ウシヅチョウオトヤナギ","prefecture":"佐賀県","city":"小城市","town":"牛津町乙柳"},{"zip_code":"8490302","prefecture_kana":"サガケン","city_kana":"オギシ","town_kana":"ウシヅチョウカキヒセ","prefecture":"佐賀県","city":"小城市","town":"牛津町柿樋瀬"},{"zip_code":"8490306","prefecture_kana":"サガケン","city_kana":"オギシ","town_kana":"ウシヅチョウカツ","prefecture":"佐賀県","city":"小城市","town":"牛津町勝"},{"zip_code":"8490305","prefecture_kana":"サガケン","city_kana":"オギシ","town_kana":"ウシヅチョウカミトガワ","prefecture":"佐賀県","city":"小城市","town":"牛津町上砥川"},{"zip_code":"8490304","prefecture_kana":"サガケン","city_kana":"オギシ","town_kana":"ウシヅチョウシモトガワ","prefecture":"佐賀県","city":"小城市","town":"牛津町下砥川"},{"zip_code":"8450001","prefecture_kana":"サガケン","city_kana":"オギシ","town_kana":"オギマチ","prefecture":"佐賀県","city":"小城市","town":"小城町"},{"zip_code":"8450012","prefecture_kana":"サガケン","city_kana":"オギシ","town_kana":"オギマチイケノウエ","prefecture":"佐賀県","city":"小城市","town":"小城町池上"},{"zip_code":"8450003","prefecture_kana":"サガケン","city_kana":"オギシ","town_kana":"オギマチイワクラ","prefecture":"佐賀県","city":"小城市","town":"小城町岩蔵"},{"zip_code":"8450013","prefecture_kana":"サガケン","city_kana":"オギシ","town_kana":"オギマチクリハラ","prefecture":"佐賀県","city":"小城市","town":"小城町栗原"},{"zip_code":"8450002","prefecture_kana":"サガケン","city_kana":"オギシ","town_kana":"オギマチハタケダ","prefecture":"佐賀県","city":"小城市","town":"小城町畑田"},{"zip_code":"8450014","prefecture_kana":"サガケン","city_kana":"オギシ","town_kana":"オギマチハルケ","prefecture":"佐賀県","city":"小城市","town":"小城町晴気"},{"zip_code":"8450005","prefecture_kana":"サガケン","city_kana":"オギシ","town_kana":"オギマチヒガシシンマチ","prefecture":"佐賀県","city":"小城市","town":"小城町東新町"},{"zip_code":"8450011","prefecture_kana":"サガケン","city_kana":"オギシ","town_kana":"オギマチフナダ","prefecture":"佐賀県","city":"小城市","town":"小城町船田"},{"zip_code":"8450004","prefecture_kana":"サガケン","city_kana":"オギシ","town_kana":"オギマチマツオ","prefecture":"佐賀県","city":"小城市","town":"小城町松尾"},{"zip_code":"8450035","prefecture_kana":"サガケン","city_kana":"オギシ","town_kana":"ミカツキチョウイシキ","prefecture":"佐賀県","city":"小城市","town":"三日月町石木"},{"zip_code":"8450023","prefecture_kana":"サガケン","city_kana":"オギシ","town_kana":"ミカツキチョウオリシマ","prefecture":"佐賀県","city":"小城市","town":"三日月町織島"},{"zip_code":"8450032","prefecture_kana":"サガケン","city_kana":"オギシ","town_kana":"ミカツキチョウカナダ","prefecture":"佐賀県","city":"小城市","town":"三日月町金田"},{"zip_code":"8450022","prefecture_kana":"サガケン","city_kana":"オギシ","town_kana":"ミカツキチョウクメ","prefecture":"佐賀県","city":"小城市","town":"三日月町久米"},{"zip_code":"8450034","prefecture_kana":"サガケン","city_kana":"オギシ","town_kana":"ミカツキチョウコウヤナギハラ","prefecture":"佐賀県","city":"小城市","town":"三日月町甲柳原"},{"zip_code":"8450021","prefecture_kana":"サガケン","city_kana":"オギシ","town_kana":"ミカツキチョウチョウカンダ","prefecture":"佐賀県","city":"小城市","town":"三日月町長神田"},{"zip_code":"8450033","prefecture_kana":"サガケン","city_kana":"オギシ","town_kana":"ミカツキチョウヒグチ","prefecture":"佐賀県","city":"小城市","town":"三日月町樋口"},{"zip_code":"8450031","prefecture_kana":"サガケン","city_kana":"オギシ","town_kana":"ミカツキチョウホリエ","prefecture":"佐賀県","city":"小城市","town":"三日月町堀江"},{"zip_code":"8450025","prefecture_kana":"サガケン","city_kana":"オギシ","town_kana":"ミカツキチョウミカシマ","prefecture":"佐賀県","city":"小城市","town":"三日月町三ケ島"},{"zip_code":"8450024","prefecture_kana":"サガケン","city_kana":"オギシ","town_kana":"ミカツキチョウミチベ","prefecture":"佐賀県","city":"小城市","town":"三日月町道辺"},{"zip_code":"8430300","prefecture_kana":"サガケン","city_kana":"ウレシノシ","town_kana":"イカニケイサイガナイバアイ","prefecture":"佐賀県","city":"嬉野市","town":"以下に掲載がない場合"},{"zip_code":"8430304","prefecture_kana":"サガケン","city_kana":"ウレシノシ","town_kana":"ウレシノマチイワヤガワチ","prefecture":"佐賀県","city":"嬉野市","town":"嬉野町岩屋川内"},{"zip_code":"8430301","prefecture_kana":"サガケン","city_kana":"ウレシノシ","town_kana":"ウレシノマチシモジュク","prefecture":"佐賀県","city":"嬉野市","town":"嬉野町下宿"},{"zip_code":"8430302","prefecture_kana":"サガケン","city_kana":"ウレシノシ","town_kana":"ウレシノマチシモノ","prefecture":"佐賀県","city":"嬉野市","town":"嬉野町下野"},{"zip_code":"8430305","prefecture_kana":"サガケン","city_kana":"ウレシノシ","town_kana":"ウレシノマチフドウヤマ","prefecture":"佐賀県","city":"嬉野市","town":"嬉野町不動山"},{"zip_code":"8430303","prefecture_kana":"サガケン","city_kana":"ウレシノシ","town_kana":"ウレシノマチヨシダ","prefecture":"佐賀県","city":"嬉野市","town":"嬉野町吉田"},{"zip_code":"8491416","prefecture_kana":"サガケン","city_kana":"ウレシノシ","town_kana":"シオタチョウオオクサノオツ","prefecture":"佐賀県","city":"嬉野市","town":"塩田町大草野乙"},{"zip_code":"8491414","prefecture_kana":"サガケン","city_kana":"ウレシノシ","town_kana":"シオタチョウオオクサノコウ","prefecture":"佐賀県","city":"嬉野市","town":"塩田町大草野甲"},{"zip_code":"8491415","prefecture_kana":"サガケン","city_kana":"ウレシノシ","town_kana":"シオタチョウオオクサノヘイ","prefecture":"佐賀県","city":"嬉野市","town":"塩田町大草野丙"},{"zip_code":"8491402","prefecture_kana":"サガケン","city_kana":"ウレシノシ","town_kana":"シオタチョウクマオツ","prefecture":"佐賀県","city":"嬉野市","town":"塩田町久間乙"},{"zip_code":"8491401","prefecture_kana":"サガケン","city_kana":"ウレシノシ","town_kana":"シオタチョウクマコウ","prefecture":"佐賀県","city":"嬉野市","town":"塩田町久間甲"},{"zip_code":"8491404","prefecture_kana":"サガケン","city_kana":"ウレシノシ","town_kana":"シオタチョウクマテイ","prefecture":"佐賀県","city":"嬉野市","town":"塩田町久間丁"},{"zip_code":"8491403","prefecture_kana":"サガケン","city_kana":"ウレシノシ","town_kana":"シオタチョウクマヘイ","prefecture":"佐賀県","city":"嬉野市","town":"塩田町久間丙"},{"zip_code":"8491426","prefecture_kana":"サガケン","city_kana":"ウレシノシ","town_kana":"シオタチョウゴチョウダオツ","prefecture":"佐賀県","city":"嬉野市","town":"塩田町五町田乙"},{"zip_code":"8491425","prefecture_kana":"サガケン","city_kana":"ウレシノシ","town_kana":"シオタチョウゴチョウダコウ","prefecture":"佐賀県","city":"嬉野市","town":"塩田町五町田甲"},{"zip_code":"8491423","prefecture_kana":"サガケン","city_kana":"ウレシノシ","town_kana":"シオタチョウタニドコロオツ","prefecture":"佐賀県","city":"嬉野市","town":"塩田町谷所乙"},{"zip_code":"8491422","prefecture_kana":"サガケン","city_kana":"ウレシノシ","town_kana":"シオタチョウタニドコロコウ","prefecture":"佐賀県","city":"嬉野市","town":"塩田町谷所甲"},{"zip_code":"8491424","prefecture_kana":"サガケン","city_kana":"ウレシノシ","town_kana":"シオタチョウタニドコロヘイ","prefecture":"佐賀県","city":"嬉野市","town":"塩田町谷所丙"},{"zip_code":"8491412","prefecture_kana":"サガケン","city_kana":"ウレシノシ","town_kana":"シオタチョウババシタオツ","prefecture":"佐賀県","city":"嬉野市","town":"塩田町馬場下乙"},{"zip_code":"8491411","prefecture_kana":"サガケン","city_kana":"ウレシノシ","town_kana":"シオタチョウババシタコウ","prefecture":"佐賀県","city":"嬉野市","town":"塩田町馬場下甲"},{"zip_code":"8491413","prefecture_kana":"サガケン","city_kana":"ウレシノシ","town_kana":"シオタチョウババシタヘイ","prefecture":"佐賀県","city":"嬉野市","town":"塩田町馬場下丙"},{"zip_code":"8491421","prefecture_kana":"サガケン","city_kana":"ウレシノシ","town_kana":"シオタチョウマツサキ","prefecture":"佐賀県","city":"嬉野市","town":"塩田町真崎"},{"zip_code":"8420000","prefecture_kana":"サガケン","city_kana":"カンザキシ","town_kana":"イカニケイサイガナイバアイ","prefecture":"佐賀県","city":"神埼市","town":"以下に掲載がない場合"},{"zip_code":"8420014","prefecture_kana":"サガケン","city_kana":"カンザキシ","town_kana":"カンザキマチアネガワ","prefecture":"佐賀県","city":"神埼市","town":"神埼町姉川"},{"zip_code":"8420123","prefecture_kana":"サガケン","city_kana":"カンザキシ","town_kana":"カンザキマチイクワ","prefecture":"佐賀県","city":"神埼市","town":"神埼町的"},{"zip_code":"8420006","prefecture_kana":"サガケン","city_kana":"カンザキシ","town_kana":"カンザキマチエダガリ","prefecture":"佐賀県","city":"神埼市","town":"神埼町枝ケ里"},{"zip_code":"8420015","prefecture_kana":"サガケン","city_kana":"カンザキシ","town_kana":"カンザキマチオサキ","prefecture":"佐賀県","city":"神埼市","town":"神埼町尾崎"},{"zip_code":"8420001","prefecture_kana":"サガケン","city_kana":"カンザキシ","town_kana":"カンザキマチカンザキ","prefecture":"佐賀県","city":"神埼市","town":"神埼町神埼"},{"zip_code":"8420122","prefecture_kana":"サガケン","city_kana":"カンザキシ","town_kana":"カンザキマチジョウバル","prefecture":"佐賀県","city":"神埼市","town":"神埼町城原"},{"zip_code":"8420121","prefecture_kana":"サガケン","city_kana":"カンザキシ","town_kana":"カンザキマチシワヤ","prefecture":"佐賀県","city":"神埼市","town":"神埼町志波屋"},{"zip_code":"8420011","prefecture_kana":"サガケン","city_kana":"カンザキシ","town_kana":"カンザキマチタケ","prefecture":"佐賀県","city":"神埼市","town":"神埼町竹"},{"zip_code":"8420002","prefecture_kana":"サガケン","city_kana":"カンザキシ","town_kana":"カンザキマチタミチガリ","prefecture":"佐賀県","city":"神埼市","town":"神埼町田道ケ里"},{"zip_code":"8420107","prefecture_kana":"サガケン","city_kana":"カンザキシ","town_kana":"カンザキマチツル（１−２９９９バンチ）","prefecture":"佐賀県","city":"神埼市","town":"神埼町鶴（１〜２９９９番地）"},{"zip_code":"8420007","prefecture_kana":"サガケン","city_kana":"カンザキシ","town_kana":"カンザキマチツル（３０００バンチイコウ）","prefecture":"佐賀県","city":"神埼市","town":"神埼町鶴（３０００番地以降）"},{"zip_code":"8420004","prefecture_kana":"サガケン","city_kana":"カンザキシ","town_kana":"カンザキマチナガウタ","prefecture":"佐賀県","city":"神埼市","town":"神埼町永歌"},{"zip_code":"8420005","prefecture_kana":"サガケン","city_kana":"カンザキシ","town_kana":"カンザキマチニシオヅガリ","prefecture":"佐賀県","city":"神埼市","town":"神埼町西小津ケ里"},{"zip_code":"8420013","prefecture_kana":"サガケン","city_kana":"カンザキシ","town_kana":"カンザキマチモトオリムタ","prefecture":"佐賀県","city":"神埼市","town":"神埼町本告牟田"},{"zip_code":"8420003","prefecture_kana":"サガケン","city_kana":"カンザキシ","town_kana":"カンザキマチモトホリ","prefecture":"佐賀県","city":"神埼市","town":"神埼町本堀"},{"zip_code":"8420012","prefecture_kana":"サガケン","city_kana":"カンザキシ","town_kana":"カンザキマチヨコタケ","prefecture":"佐賀県","city":"神埼市","town":"神埼町横武"},{"zip_code":"8420203","prefecture_kana":"サガケン","city_kana":"カンザキシ","town_kana":"セフリマチハラマキ","prefecture":"佐賀県","city":"神埼市","town":"脊振町服巻"},{"zip_code":"8420201","prefecture_kana":"サガケン","city_kana":"カンザキシ","town_kana":"セフリマチヒロタキ","prefecture":"佐賀県","city":"神埼市","town":"脊振町広滝"},{"zip_code":"8420202","prefecture_kana":"サガケン","city_kana":"カンザキシ","town_kana":"セフリマチロクロ","prefecture":"佐賀県","city":"神埼市","town":"脊振町鹿路"},{"zip_code":"8420052","prefecture_kana":"サガケン","city_kana":"カンザキシ","town_kana":"チヨダチョウアネ","prefecture":"佐賀県","city":"神埼市","town":"千代田町姉"},{"zip_code":"8420054","prefecture_kana":"サガケン","city_kana":"カンザキシ","town_kana":"チヨダチョウアマリエ","prefecture":"佐賀県","city":"神埼市","town":"千代田町餘江"},{"zip_code":"8420067","prefecture_kana":"サガケン","city_kana":"カンザキシ","town_kana":"チヨダチョウカノウ","prefecture":"佐賀県","city":"神埼市","town":"千代田町嘉納"},{"zip_code":"8420051","prefecture_kana":"サガケン","city_kana":"カンザキシ","town_kana":"チヨダチョウクロイ","prefecture":"佐賀県","city":"神埼市","town":"千代田町黒井"},{"zip_code":"8420056","prefecture_kana":"サガケン","city_kana":"カンザキシ","town_kana":"チヨダチョウサカイバル","prefecture":"佐賀県","city":"神埼市","town":"千代田町境原"},{"zip_code":"8420065","prefecture_kana":"サガケン","city_kana":"カンザキシ","town_kana":"チヨダチョウサキムラ","prefecture":"佐賀県","city":"神埼市","town":"千代田町崎村"},{"zip_code":"8420068","prefecture_kana":"サガケン","city_kana":"カンザキシ","town_kana":"チヨダチョウシモイタ","prefecture":"佐賀県","city":"神埼市","town":"千代田町下板"},{"zip_code":"8420055","prefecture_kana":"サガケン","city_kana":"カンザキシ","town_kana":"チヨダチョウシモサイ","prefecture":"佐賀県","city":"神埼市","town":"千代田町下西"},{"zip_code":"8420061","prefecture_kana":"サガケン","city_kana":"カンザキシ","town_kana":"チヨダチョウタクタ","prefecture":"佐賀県","city":"神埼市","town":"千代田町詫田"},{"zip_code":"8420053","prefecture_kana":"サガケン","city_kana":"カンザキシ","town_kana":"チヨダチョウナオトリ","prefecture":"佐賀県","city":"神埼市","town":"千代田町直鳥"},{"zip_code":"8420063","prefecture_kana":"サガケン","city_kana":"カンザキシ","town_kana":"チヨダチョウムカイシマ","prefecture":"佐賀県","city":"神埼市","town":"千代田町迎島"},{"zip_code":"8420062","prefecture_kana":"サガケン","city_kana":"カンザキシ","town_kana":"チヨダチョウヤナギシマ","prefecture":"佐賀県","city":"神埼市","town":"千代田町柳島"},{"zip_code":"8420066","prefecture_kana":"サガケン","city_kana":"カンザキシ","town_kana":"チヨダチョウヨウサク","prefecture":"佐賀県","city":"神埼市","town":"千代田町用作"},{"zip_code":"8420064","prefecture_kana":"サガケン","city_kana":"カンザキシ","town_kana":"チヨダチョウワタゼ","prefecture":"佐賀県","city":"神埼市","town":"千代田町渡瀬"},{"zip_code":"8420000","prefecture_kana":"サガケン","city_kana":"カンザキグンヨシノガリチョウ","town_kana":"イカニケイサイガナイバアイ","prefecture":"佐賀県","city":"神埼郡吉野ヶ里町","town":"以下に掲載がない場合"},{"zip_code":"8420102","prefecture_kana":"サガケン","city_kana":"カンザキグンヨシノガリチョウ","town_kana":"イシナリ","prefecture":"佐賀県","city":"神埼郡吉野ヶ里町","town":"石動"},{"zip_code":"8420103","prefecture_kana":"サガケン","city_kana":"カンザキグンヨシノガリチョウ","town_kana":"オオマガリ","prefecture":"佐賀県","city":"神埼郡吉野ヶ里町","town":"大曲"},{"zip_code":"8420035","prefecture_kana":"サガケン","city_kana":"カンザキグンヨシノガリチョウ","town_kana":"タデ","prefecture":"佐賀県","city":"神埼郡吉野ヶ里町","town":"田手"},{"zip_code":"8420032","prefecture_kana":"サガケン","city_kana":"カンザキグンヨシノガリチョウ","town_kana":"タテノ","prefecture":"佐賀県","city":"神埼郡吉野ヶ里町","town":"立野"},{"zip_code":"8420034","prefecture_kana":"サガケン","city_kana":"カンザキグンヨシノガリチョウ","town_kana":"ハコガワ","prefecture":"佐賀県","city":"神埼郡吉野ヶ里町","town":"箱川"},{"zip_code":"8420101","prefecture_kana":"サガケン","city_kana":"カンザキグンヨシノガリチョウ","town_kana":"マツグマ","prefecture":"佐賀県","city":"神埼郡吉野ヶ里町","town":"松隈"},{"zip_code":"8420033","prefecture_kana":"サガケン","city_kana":"カンザキグンヨシノガリチョウ","town_kana":"マメダ","prefecture":"佐賀県","city":"神埼郡吉野ヶ里町","town":"豆田"},{"zip_code":"8420104","prefecture_kana":"サガケン","city_kana":"カンザキグンヨシノガリチョウ","town_kana":"ミツ","prefecture":"佐賀県","city":"神埼郡吉野ヶ里町","town":"三津"},{"zip_code":"8420031","prefecture_kana":"サガケン","city_kana":"カンザキグンヨシノガリチョウ","town_kana":"ヨシダ","prefecture":"佐賀県","city":"神埼郡吉野ヶ里町","town":"吉田"},{"zip_code":"8410200","prefecture_kana":"サガケン","city_kana":"ミヤキグンキヤマチョウ","town_kana":"イカニケイサイガナイバアイ","prefecture":"佐賀県","city":"三養基郡基山町","town":"以下に掲載がない場合"},{"zip_code":"8410205","prefecture_kana":"サガケン","city_kana":"ミヤキグンキヤマチョウ","town_kana":"ケヤキダイ","prefecture":"佐賀県","city":"三養基郡基山町","town":"けやき台"},{"zip_code":"8410201","prefecture_kana":"サガケン","city_kana":"ミヤキグンキヤマチョウ","town_kana":"コクラ","prefecture":"佐賀県","city":"三養基郡基山町","town":"小倉"},{"zip_code":"8410203","prefecture_kana":"サガケン","city_kana":"ミヤキグンキヤマチョウ","town_kana":"ソノベ","prefecture":"佐賀県","city":"三養基郡基山町","town":"園部"},{"zip_code":"8410202","prefecture_kana":"サガケン","city_kana":"ミヤキグンキヤマチョウ","town_kana":"ナガノ","prefecture":"佐賀県","city":"三養基郡基山町","town":"長野"},{"zip_code":"8410204","prefecture_kana":"サガケン","city_kana":"ミヤキグンキヤマチョウ","town_kana":"ミヤウラ","prefecture":"佐賀県","city":"三養基郡基山町","town":"宮浦"},{"zip_code":"8490100","prefecture_kana":"サガケン","city_kana":"ミヤキグンカミミネチョウ","town_kana":"イカニケイサイガナイバアイ","prefecture":"佐賀県","city":"三養基郡上峰町","town":"以下に掲載がない場合"},{"zip_code":"8490121","prefecture_kana":"サガケン","city_kana":"ミヤキグンカミミネチョウ","town_kana":"エムカイ","prefecture":"佐賀県","city":"三養基郡上峰町","town":"江迎"},{"zip_code":"8490124","prefecture_kana":"サガケン","city_kana":"ミヤキグンカミミネチョウ","town_kana":"ツツミ","prefecture":"佐賀県","city":"三養基郡上峰町","town":"堤"},{"zip_code":"8490123","prefecture_kana":"サガケン","city_kana":"ミヤキグンカミミネチョウ","town_kana":"ボウジョ","prefecture":"佐賀県","city":"三養基郡上峰町","town":"坊所"},{"zip_code":"8490122","prefecture_kana":"サガケン","city_kana":"ミヤキグンカミミネチョウ","town_kana":"マエムタ","prefecture":"佐賀県","city":"三養基郡上峰町","town":"前牟田"},{"zip_code":"8490100","prefecture_kana":"サガケン","city_kana":"ミヤキグンミヤキチョウ","town_kana":"イカニケイサイガナイバアイ","prefecture":"佐賀県","city":"三養基郡みやき町","town":"以下に掲載がない場合"},{"zip_code":"8401106","prefecture_kana":"サガケン","city_kana":"ミヤキグンミヤキチョウ","town_kana":"イチタケ","prefecture":"佐賀県","city":"三養基郡みやき町","town":"市武"},{"zip_code":"8490112","prefecture_kana":"サガケン","city_kana":"ミヤキグンミヤキチョウ","town_kana":"エグチ","prefecture":"佐賀県","city":"三養基郡みやき町","town":"江口"},{"zip_code":"8401103","prefecture_kana":"サガケン","city_kana":"ミヤキグンミヤキチョウ","town_kana":"サカグチ","prefecture":"佐賀県","city":"三養基郡みやき町","town":"坂口"},{"zip_code":"8490111","prefecture_kana":"サガケン","city_kana":"ミヤキグンミヤキチョウ","town_kana":"シラカベ","prefecture":"佐賀県","city":"三養基郡みやき町","town":"白壁"},{"zip_code":"8401102","prefecture_kana":"サガケン","city_kana":"ミヤキグンミヤキチョウ","town_kana":"テンケンジ","prefecture":"佐賀県","city":"三養基郡みやき町","town":"天建寺"},{"zip_code":"8490114","prefecture_kana":"サガケン","city_kana":"ミヤキグンミヤキチョウ","town_kana":"ナカツクマ","prefecture":"佐賀県","city":"三養基郡みやき町","town":"中津隈"},{"zip_code":"8401101","prefecture_kana":"サガケン","city_kana":"ミヤキグンミヤキチョウ","town_kana":"ニシジマ","prefecture":"佐賀県","city":"三養基郡みやき町","town":"西島"},{"zip_code":"8490101","prefecture_kana":"サガケン","city_kana":"ミヤキグンミヤキチョウ","town_kana":"ハルコガ","prefecture":"佐賀県","city":"三養基郡みやき町","town":"原古賀"},{"zip_code":"8490113","prefecture_kana":"サガケン","city_kana":"ミヤキグンミヤキチョウ","town_kana":"ヒガシオ","prefecture":"佐賀県","city":"三養基郡みやき町","town":"東尾"},{"zip_code":"8401104","prefecture_kana":"サガケン","city_kana":"ミヤキグンミヤキチョウ","town_kana":"ヒガシツ","prefecture":"佐賀県","city":"三養基郡みやき町","town":"東津"},{"zip_code":"8490102","prefecture_kana":"サガケン","city_kana":"ミヤキグンミヤキチョウ","town_kana":"ミノバル","prefecture":"佐賀県","city":"三養基郡みやき町","town":"簑原"},{"zip_code":"8401105","prefecture_kana":"サガケン","city_kana":"ミヤキグンミヤキチョウ","town_kana":"ヨリウト","prefecture":"佐賀県","city":"三養基郡みやき町","town":"寄人"},{"zip_code":"8471400","prefecture_kana":"サガケン","city_kana":"ヒガシマツウラグンゲンカイチョウ","town_kana":"イカニケイサイガナイバアイ","prefecture":"佐賀県","city":"東松浦郡玄海町","town":"以下に掲載がない場合"},{"zip_code":"8471403","prefecture_kana":"サガケン","city_kana":"ヒガシマツウラグンゲンカイチョウ","town_kana":"アリウラカミ","prefecture":"佐賀県","city":"東松浦郡玄海町","town":"有浦上"},{"zip_code":"8471402","prefecture_kana":"サガケン","city_kana":"ヒガシマツウラグンゲンカイチョウ","town_kana":"アリウラシモ","prefecture":"佐賀県","city":"東松浦郡玄海町","town":"有浦下"},{"zip_code":"8471423","prefecture_kana":"サガケン","city_kana":"ヒガシマツウラグンゲンカイチョウ","town_kana":"イシダ","prefecture":"佐賀県","city":"東松浦郡玄海町","town":"石田"},{"zip_code":"8471441","prefecture_kana":"サガケン","city_kana":"ヒガシマツウラグンゲンカイチョウ","town_kana":"イマムラ","prefecture":"佐賀県","city":"東松浦郡玄海町","town":"今村"},{"zip_code":"8471434","prefecture_kana":"サガケン","city_kana":"ヒガシマツウラグンゲンカイチョウ","town_kana":"オオゾノ","prefecture":"佐賀県","city":"東松浦郡玄海町","town":"大薗"},{"zip_code":"8471413","prefecture_kana":"サガケン","city_kana":"ヒガシマツウラグンゲンカイチョウ","town_kana":"オオトリ","prefecture":"佐賀県","city":"東松浦郡玄海町","town":"大鳥"},{"zip_code":"8471443","prefecture_kana":"サガケン","city_kana":"ヒガシマツウラグンゲンカイチョウ","town_kana":"カリダチ","prefecture":"佐賀県","city":"東松浦郡玄海町","town":"仮立"},{"zip_code":"8471435","prefecture_kana":"サガケン","city_kana":"ヒガシマツウラグンゲンカイチョウ","town_kana":"カリヤ","prefecture":"佐賀県","city":"東松浦郡玄海町","town":"仮屋"},{"zip_code":"8471401","prefecture_kana":"サガケン","city_kana":"ヒガシマツウラグンゲンカイチョウ","town_kana":"コガクラ","prefecture":"佐賀県","city":"東松浦郡玄海町","town":"小加倉"},{"zip_code":"8471424","prefecture_kana":"サガケン","city_kana":"ヒガシマツウラグンゲンカイチョウ","town_kana":"サカエ","prefecture":"佐賀県","city":"東松浦郡玄海町","town":"栄"},{"zip_code":"8471445","prefecture_kana":"サガケン","city_kana":"ヒガシマツウラグンゲンカイチョウ","town_kana":"シモミヤ","prefecture":"佐賀県","city":"東松浦郡玄海町","town":"下宮"},{"zip_code":"8471422","prefecture_kana":"サガケン","city_kana":"ヒガシマツウラグンゲンカイチョウ","town_kana":"シンデン","prefecture":"佐賀県","city":"東松浦郡玄海町","town":"新田"},{"zip_code":"8471415","prefecture_kana":"サガケン","city_kana":"ヒガシマツウラグンゲンカイチョウ","town_kana":"ソソロガワチ","prefecture":"佐賀県","city":"東松浦郡玄海町","town":"座川内"},{"zip_code":"8471412","prefecture_kana":"サガケン","city_kana":"ヒガシマツウラグンゲンカイチョウ","town_kana":"タシロ","prefecture":"佐賀県","city":"東松浦郡玄海町","town":"田代"},{"zip_code":"8471442","prefecture_kana":"サガケン","city_kana":"ヒガシマツウラグンゲンカイチョウ","town_kana":"チカガワチ","prefecture":"佐賀県","city":"東松浦郡玄海町","town":"値賀川内"},{"zip_code":"8471411","prefecture_kana":"サガケン","city_kana":"ヒガシマツウラグンゲンカイチョウ","town_kana":"トドロキ","prefecture":"佐賀県","city":"東松浦郡玄海町","town":"轟木"},{"zip_code":"8471444","prefecture_kana":"サガケン","city_kana":"ヒガシマツウラグンゲンカイチョウ","town_kana":"ナカドオリ","prefecture":"佐賀県","city":"東松浦郡玄海町","town":"中通"},{"zip_code":"8471404","prefecture_kana":"サガケン","city_kana":"ヒガシマツウラグンゲンカイチョウ","town_kana":"ナガクラ","prefecture":"佐賀県","city":"東松浦郡玄海町","town":"長倉"},{"zip_code":"8471425","prefecture_kana":"サガケン","city_kana":"ヒガシマツウラグンゲンカイチョウ","town_kana":"ハナノキ","prefecture":"佐賀県","city":"東松浦郡玄海町","town":"花の木"},{"zip_code":"8471433","prefecture_kana":"サガケン","city_kana":"ヒガシマツウラグンゲンカイチョウ","town_kana":"ハマノウラ","prefecture":"佐賀県","city":"東松浦郡玄海町","town":"浜野浦"},{"zip_code":"8471432","prefecture_kana":"サガケン","city_kana":"ヒガシマツウラグンゲンカイチョウ","town_kana":"ヒラオ","prefecture":"佐賀県","city":"東松浦郡玄海町","town":"平尾"},{"zip_code":"8471431","prefecture_kana":"サガケン","city_kana":"ヒガシマツウラグンゲンカイチョウ","town_kana":"フオンジ","prefecture":"佐賀県","city":"東松浦郡玄海町","town":"普恩寺"},{"zip_code":"8471405","prefecture_kana":"サガケン","city_kana":"ヒガシマツウラグンゲンカイチョウ","town_kana":"フジヒラ","prefecture":"佐賀県","city":"東松浦郡玄海町","town":"藤平"},{"zip_code":"8471446","prefecture_kana":"サガケン","city_kana":"ヒガシマツウラグンゲンカイチョウ","town_kana":"ホカワヅ","prefecture":"佐賀県","city":"東松浦郡玄海町","town":"外津"},{"zip_code":"8471416","prefecture_kana":"サガケン","city_kana":"ヒガシマツウラグンゲンカイチョウ","town_kana":"ムカタ","prefecture":"佐賀県","city":"東松浦郡玄海町","town":"牟形"},{"zip_code":"8471421","prefecture_kana":"サガケン","city_kana":"ヒガシマツウラグンゲンカイチョウ","town_kana":"モロウラ","prefecture":"佐賀県","city":"東松浦郡玄海町","town":"諸浦"},{"zip_code":"8471414","prefecture_kana":"サガケン","city_kana":"ヒガシマツウラグンゲンカイチョウ","town_kana":"ユノオ","prefecture":"佐賀県","city":"東松浦郡玄海町","town":"湯野尾"},{"zip_code":"8440000","prefecture_kana":"サガケン","city_kana":"ニシマツウラグンアリタチョウ","town_kana":"イカニケイサイガナイバアイ","prefecture":"佐賀県","city":"西松浦郡有田町","town":"以下に掲載がない場合"},{"zip_code":"8440006","prefecture_kana":"サガケン","city_kana":"ニシマツウラグンアリタチョウ","town_kana":"アカエマチ","prefecture":"佐賀県","city":"西松浦郡有田町","town":"赤絵町"},{"zip_code":"8440024","prefecture_kana":"サガケン","city_kana":"ニシマツウラグンアリタチョウ","town_kana":"アカサカ","prefecture":"佐賀県","city":"西松浦郡有田町","town":"赤坂"},{"zip_code":"8440001","prefecture_kana":"サガケン","city_kana":"ニシマツウラグンアリタチョウ","town_kana":"イズミヤマ","prefecture":"佐賀県","city":"西松浦郡有田町","town":"泉山"},{"zip_code":"8440011","prefecture_kana":"サガケン","city_kana":"ニシマツウラグンアリタチョウ","town_kana":"イワタニガワチ","prefecture":"佐賀県","city":"西松浦郡有田町","town":"岩谷川内"},{"zip_code":"8440021","prefecture_kana":"サガケン","city_kana":"ニシマツウラグンアリタチョウ","town_kana":"オウボウ","prefecture":"佐賀県","city":"西松浦郡有田町","town":"応法"},{"zip_code":"8494154","prefecture_kana":"サガケン","city_kana":"ニシマツウラグンアリタチョウ","town_kana":"オオギシュク","prefecture":"佐賀県","city":"西松浦郡有田町","town":"大木宿"},{"zip_code":"8440004","prefecture_kana":"サガケン","city_kana":"ニシマツウラグンアリタチョウ","town_kana":"オオダル","prefecture":"佐賀県","city":"西松浦郡有田町","town":"大樽"},{"zip_code":"8440013","prefecture_kana":"サガケン","city_kana":"ニシマツウラグンアリタチョウ","town_kana":"オオノ","prefecture":"佐賀県","city":"西松浦郡有田町","town":"大野"},{"zip_code":"8494162","prefecture_kana":"サガケン","city_kana":"ニシマツウラグンアリタチョウ","town_kana":"カミウチノ","prefecture":"佐賀県","city":"西松浦郡有田町","town":"上内野"},{"zip_code":"8440003","prefecture_kana":"サガケン","city_kana":"ニシマツウラグンアリタチョウ","town_kana":"カミコウヒラ","prefecture":"佐賀県","city":"西松浦郡有田町","town":"上幸平"},{"zip_code":"8494174","prefecture_kana":"サガケン","city_kana":"ニシマツウラグンアリタチョウ","town_kana":"カミホン","prefecture":"佐賀県","city":"西松浦郡有田町","town":"上本"},{"zip_code":"8494144","prefecture_kana":"サガケン","city_kana":"ニシマツウラグンアリタチョウ","town_kana":"カミヤマダニ","prefecture":"佐賀県","city":"西松浦郡有田町","town":"上山谷"},{"zip_code":"8494166","prefecture_kana":"サガケン","city_kana":"ニシマツウラグンアリタチョウ","town_kana":"キタノカワチ","prefecture":"佐賀県","city":"西松浦郡有田町","town":"北ノ川内"},{"zip_code":"8494175","prefecture_kana":"サガケン","city_kana":"ニシマツウラグンアリタチョウ","town_kana":"クスノキバル","prefecture":"佐賀県","city":"西松浦郡有田町","town":"楠木原"},{"zip_code":"8494165","prefecture_kana":"サガケン","city_kana":"ニシマツウラグンアリタチョウ","town_kana":"クロゴウ","prefecture":"佐賀県","city":"西松浦郡有田町","town":"黒川"},{"zip_code":"8440022","prefecture_kana":"サガケン","city_kana":"ニシマツウラグンアリタチョウ","town_kana":"クロムタ","prefecture":"佐賀県","city":"西松浦郡有田町","town":"黒牟田"},{"zip_code":"8440012","prefecture_kana":"サガケン","city_kana":"ニシマツウラグンアリタチョウ","town_kana":"クワコバ","prefecture":"佐賀県","city":"西松浦郡有田町","town":"桑古場"},{"zip_code":"8494156","prefecture_kana":"サガケン","city_kana":"ニシマツウラグンアリタチョウ","town_kana":"クワノキバル","prefecture":"佐賀県","city":"西松浦郡有田町","town":"桑木原"},{"zip_code":"8440005","prefecture_kana":"サガケン","city_kana":"ニシマツウラグンアリタチョウ","town_kana":"コウビラ","prefecture":"佐賀県","city":"西松浦郡有田町","town":"幸平"},{"zip_code":"8440016","prefecture_kana":"サガケン","city_kana":"ニシマツウラグンアリタチョウ","town_kana":"サカイノ","prefecture":"佐賀県","city":"西松浦郡有田町","town":"境野"},{"zip_code":"8494163","prefecture_kana":"サガケン","city_kana":"ニシマツウラグンアリタチョウ","town_kana":"シモウチノ","prefecture":"佐賀県","city":"西松浦郡有田町","town":"下内野"},{"zip_code":"8494172","prefecture_kana":"サガケン","city_kana":"ニシマツウラグンアリタチョウ","town_kana":"シモホン","prefecture":"佐賀県","city":"西松浦郡有田町","town":"下本"},{"zip_code":"8494143","prefecture_kana":"サガケン","city_kana":"ニシマツウラグンアリタチョウ","town_kana":"シモヤマダニ","prefecture":"佐賀県","city":"西松浦郡有田町","town":"下山谷"},{"zip_code":"8440007","prefecture_kana":"サガケン","city_kana":"ニシマツウラグンアリタチョウ","town_kana":"シラカワ","prefecture":"佐賀県","city":"西松浦郡有田町","town":"白川"},{"zip_code":"8494161","prefecture_kana":"サガケン","city_kana":"ニシマツウラグンアリタチョウ","town_kana":"ゾウシュク","prefecture":"佐賀県","city":"西松浦郡有田町","town":"蔵宿"},{"zip_code":"8494146","prefecture_kana":"サガケン","city_kana":"ニシマツウラグンアリタチョウ","town_kana":"タケ","prefecture":"佐賀県","city":"西松浦郡有田町","town":"岳"},{"zip_code":"8494153","prefecture_kana":"サガケン","city_kana":"ニシマツウラグンアリタチョウ","town_kana":"タチベ","prefecture":"佐賀県","city":"西松浦郡有田町","town":"立部"},{"zip_code":"8440017","prefecture_kana":"サガケン","city_kana":"ニシマツウラグンアリタチョウ","town_kana":"トシャク","prefecture":"佐賀県","city":"西松浦郡有田町","town":"戸杓"},{"zip_code":"8440014","prefecture_kana":"サガケン","city_kana":"ニシマツウラグンアリタチョウ","town_kana":"トヤ","prefecture":"佐賀県","city":"西松浦郡有田町","town":"戸矢"},{"zip_code":"8440002","prefecture_kana":"サガケン","city_kana":"ニシマツウラグンアリタチョウ","town_kana":"ナカダル","prefecture":"佐賀県","city":"西松浦郡有田町","town":"中樽"},{"zip_code":"8440009","prefecture_kana":"サガケン","city_kana":"ニシマツウラグンアリタチョウ","town_kana":"ナカノハラ","prefecture":"佐賀県","city":"西松浦郡有田町","town":"中の原"},{"zip_code":"8440028","prefecture_kana":"サガケン","city_kana":"ニシマツウラグンアリタチョウ","town_kana":"ナンザン","prefecture":"佐賀県","city":"西松浦郡有田町","town":"南山"},{"zip_code":"8440027","prefecture_kana":"サガケン","city_kana":"ニシマツウラグンアリタチョウ","town_kana":"ナンバル","prefecture":"佐賀県","city":"西松浦郡有田町","town":"南原"},{"zip_code":"8494141","prefecture_kana":"サガケン","city_kana":"ニシマツウラグンアリタチョウ","town_kana":"ニノセ","prefecture":"佐賀県","city":"西松浦郡有田町","town":"二ノ瀬"},{"zip_code":"8494176","prefecture_kana":"サガケン","city_kana":"ニシマツウラグンアリタチョウ","town_kana":"ハラアケ","prefecture":"佐賀県","city":"西松浦郡有田町","town":"原明"},{"zip_code":"8440008","prefecture_kana":"サガケン","city_kana":"ニシマツウラグンアリタチョウ","town_kana":"ヒエコバ","prefecture":"佐賀県","city":"西松浦郡有田町","town":"稗古場"},{"zip_code":"8494152","prefecture_kana":"サガケン","city_kana":"ニシマツウラグンアリタチョウ","town_kana":"ヒロセ","prefecture":"佐賀県","city":"西松浦郡有田町","town":"広瀬"},{"zip_code":"8494151","prefecture_kana":"サガケン","city_kana":"ニシマツウラグンアリタチョウ","town_kana":"ヒロセヤマ","prefecture":"佐賀県","city":"西松浦郡有田町","town":"広瀬山"},{"zip_code":"8440015","prefecture_kana":"サガケン","city_kana":"ニシマツウラグンアリタチョウ","town_kana":"フルコバ","prefecture":"佐賀県","city":"西松浦郡有田町","town":"古木場"},{"zip_code":"8440026","prefecture_kana":"サガケン","city_kana":"ニシマツウラグンアリタチョウ","town_kana":"ホカオマチ","prefecture":"佐賀県","city":"西松浦郡有田町","town":"外尾町"},{"zip_code":"8440025","prefecture_kana":"サガケン","city_kana":"ニシマツウラグンアリタチョウ","town_kana":"ホカオヤマ","prefecture":"佐賀県","city":"西松浦郡有田町","town":"外尾山"},{"zip_code":"8494164","prefecture_kana":"サガケン","city_kana":"ニシマツウラグンアリタチョウ","town_kana":"ホトケノハラ","prefecture":"佐賀県","city":"西松浦郡有田町","town":"仏ノ原"},{"zip_code":"8440018","prefecture_kana":"サガケン","city_kana":"ニシマツウラグンアリタチョウ","town_kana":"ホンマチ","prefecture":"佐賀県","city":"西松浦郡有田町","town":"本町"},{"zip_code":"8494173","prefecture_kana":"サガケン","city_kana":"ニシマツウラグンアリタチョウ","town_kana":"マイバル","prefecture":"佐賀県","city":"西松浦郡有田町","town":"舞原"},{"zip_code":"8440023","prefecture_kana":"サガケン","city_kana":"ニシマツウラグンアリタチョウ","town_kana":"マルオ","prefecture":"佐賀県","city":"西松浦郡有田町","town":"丸尾"},{"zip_code":"8494145","prefecture_kana":"サガケン","city_kana":"ニシマツウラグンアリタチョウ","town_kana":"ヤマダニキリグチ","prefecture":"佐賀県","city":"西松浦郡有田町","town":"山谷切口"},{"zip_code":"8494142","prefecture_kana":"サガケン","city_kana":"ニシマツウラグンアリタチョウ","town_kana":"ヤマダニマキ","prefecture":"佐賀県","city":"西松浦郡有田町","town":"山谷牧"},{"zip_code":"8494155","prefecture_kana":"サガケン","city_kana":"ニシマツウラグンアリタチョウ","town_kana":"ヤマモト","prefecture":"佐賀県","city":"西松浦郡有田町","town":"山本"},{"zip_code":"8494171","prefecture_kana":"サガケン","city_kana":"ニシマツウラグンアリタチョウ","town_kana":"ヨヨギ","prefecture":"佐賀県","city":"西松浦郡有田町","town":"代々木"},{"zip_code":"8492100","prefecture_kana":"サガケン","city_kana":"キシマグンオオマチチョウ","town_kana":"イカニケイサイガナイバアイ","prefecture":"佐賀県","city":"杵島郡大町町","town":"以下に掲載がない場合"},{"zip_code":"8492101","prefecture_kana":"サガケン","city_kana":"キシマグンオオマチチョウ","town_kana":"オオマチ","prefecture":"佐賀県","city":"杵島郡大町町","town":"大町"},{"zip_code":"8492102","prefecture_kana":"サガケン","city_kana":"キシマグンオオマチチョウ","town_kana":"フクモ","prefecture":"佐賀県","city":"杵島郡大町町","town":"福母"},{"zip_code":"8490500","prefecture_kana":"サガケン","city_kana":"キシマグンコウホクマチ","town_kana":"イカニケイサイガナイバアイ","prefecture":"佐賀県","city":"杵島郡江北町","town":"以下に掲載がない場合"},{"zip_code":"8490506","prefecture_kana":"サガケン","city_kana":"キシマグンコウホクマチ","town_kana":"カミオダ","prefecture":"佐賀県","city":"杵島郡江北町","town":"上小田"},{"zip_code":"8490502","prefecture_kana":"サガケン","city_kana":"キシマグンコウホクマチ","town_kana":"サルシ","prefecture":"佐賀県","city":"杵島郡江北町","town":"佐留志"},{"zip_code":"8490505","prefecture_kana":"サガケン","city_kana":"キシマグンコウホクマチ","town_kana":"シモオダ","prefecture":"佐賀県","city":"杵島郡江北町","town":"下小田"},{"zip_code":"8490503","prefecture_kana":"サガケン","city_kana":"キシマグンコウホクマチ","town_kana":"ソウリョウブン","prefecture":"佐賀県","city":"杵島郡江北町","town":"惣領分"},{"zip_code":"8490504","prefecture_kana":"サガケン","city_kana":"キシマグンコウホクマチ","town_kana":"ハッチョウ","prefecture":"佐賀県","city":"杵島郡江北町","town":"八町"},{"zip_code":"8490501","prefecture_kana":"サガケン","city_kana":"キシマグンコウホクマチ","town_kana":"ヤマグチ","prefecture":"佐賀県","city":"杵島郡江北町","town":"山口"},{"zip_code":"8491100","prefecture_kana":"サガケン","city_kana":"キシマグンシロイシチョウ","town_kana":"イカニケイサイガナイバアイ","prefecture":"佐賀県","city":"杵島郡白石町","town":"以下に掲載がない場合"},{"zip_code":"8491101","prefecture_kana":"サガケン","city_kana":"キシマグンシロイシチョウ","town_kana":"イマイズミ","prefecture":"佐賀県","city":"杵島郡白石町","town":"今泉"},{"zip_code":"8491201","prefecture_kana":"サガケン","city_kana":"キシマグンシロイシチョウ","town_kana":"ウシヤ","prefecture":"佐賀県","city":"杵島郡白石町","town":"牛屋"},{"zip_code":"8491102","prefecture_kana":"サガケン","city_kana":"キシマグンシロイシチョウ","town_kana":"オオワタリ","prefecture":"佐賀県","city":"杵島郡白石町","town":"大渡"},{"zip_code":"8491204","prefecture_kana":"サガケン","city_kana":"キシマグンシロイシチョウ","town_kana":"サカタ","prefecture":"佐賀県","city":"杵島郡白石町","town":"坂田"},{"zip_code":"8491208","prefecture_kana":"サガケン","city_kana":"キシマグンシロイシチョウ","town_kana":"シンカイ","prefecture":"佐賀県","city":"杵島郡白石町","town":"新開"},{"zip_code":"8491221","prefecture_kana":"サガケン","city_kana":"キシマグンシロイシチョウ","town_kana":"シンタク","prefecture":"佐賀県","city":"杵島郡白石町","town":"新拓"},{"zip_code":"8491202","prefecture_kana":"サガケン","city_kana":"キシマグンシロイシチョウ","town_kana":"シンメイ","prefecture":"佐賀県","city":"杵島郡白石町","town":"新明"},{"zip_code":"8491205","prefecture_kana":"サガケン","city_kana":"キシマグンシロイシチョウ","town_kana":"タノウエ","prefecture":"佐賀県","city":"杵島郡白石町","town":"田野上"},{"zip_code":"8491103","prefecture_kana":"サガケン","city_kana":"キシマグンシロイシチョウ","town_kana":"ツイキリ","prefecture":"佐賀県","city":"杵島郡白石町","town":"築切"},{"zip_code":"8491104","prefecture_kana":"サガケン","city_kana":"キシマグンシロイシチョウ","town_kana":"ツツミ","prefecture":"佐賀県","city":"杵島郡白石町","town":"堤"},{"zip_code":"8491105","prefecture_kana":"サガケン","city_kana":"キシマグンシロイシチョウ","town_kana":"トオノエ","prefecture":"佐賀県","city":"杵島郡白石町","town":"遠江"},{"zip_code":"8491203","prefecture_kana":"サガケン","city_kana":"キシマグンシロイシチョウ","town_kana":"トガリ","prefecture":"佐賀県","city":"杵島郡白石町","town":"戸ケ里"},{"zip_code":"8491106","prefecture_kana":"サガケン","city_kana":"キシマグンシロイシチョウ","town_kana":"ハタチ","prefecture":"佐賀県","city":"杵島郡白石町","town":"廿治"},{"zip_code":"8490403","prefecture_kana":"サガケン","city_kana":"キシマグンシロイシチョウ","town_kana":"ハチヘイ","prefecture":"佐賀県","city":"杵島郡白石町","town":"八平"},{"zip_code":"8491111","prefecture_kana":"サガケン","city_kana":"キシマグンシロイシチョウ","town_kana":"ヒガシゴウ","prefecture":"佐賀県","city":"杵島郡白石町","town":"東郷"},{"zip_code":"8491207","prefecture_kana":"サガケン","city_kana":"キシマグンシロイシチョウ","town_kana":"フカウラ","prefecture":"佐賀県","city":"杵島郡白石町","town":"深浦"},{"zip_code":"8491112","prefecture_kana":"サガケン","city_kana":"キシマグンシロイシチョウ","town_kana":"フクタ","prefecture":"佐賀県","city":"杵島郡白石町","town":"福田"},{"zip_code":"8490401","prefecture_kana":"サガケン","city_kana":"キシマグンシロイシチョウ","town_kana":"フクドミ","prefecture":"佐賀県","city":"杵島郡白石町","town":"福富"},{"zip_code":"8490402","prefecture_kana":"サガケン","city_kana":"キシマグンシロイシチョウ","town_kana":"フクドミシモブン","prefecture":"佐賀県","city":"杵島郡白石町","town":"福富下分"},{"zip_code":"8491113","prefecture_kana":"サガケン","city_kana":"キシマグンシロイシチョウ","town_kana":"フクヨシ","prefecture":"佐賀県","city":"杵島郡白石町","town":"福吉"},{"zip_code":"8491206","prefecture_kana":"サガケン","city_kana":"キシマグンシロイシチョウ","town_kana":"ヘタ","prefecture":"佐賀県","city":"杵島郡白石町","town":"辺田"},{"zip_code":"8491114","prefecture_kana":"サガケン","city_kana":"キシマグンシロイシチョウ","town_kana":"モウライ","prefecture":"佐賀県","city":"杵島郡白石町","town":"馬洗"},{"zip_code":"8491115","prefecture_kana":"サガケン","city_kana":"キシマグンシロイシチョウ","town_kana":"ユザキ","prefecture":"佐賀県","city":"杵島郡白石町","town":"湯崎"},{"zip_code":"8491116","prefecture_kana":"サガケン","city_kana":"キシマグンシロイシチョウ","town_kana":"ヨコテ","prefecture":"佐賀県","city":"杵島郡白石町","town":"横手"},{"zip_code":"8491600","prefecture_kana":"サガケン","city_kana":"フジツグンタラチョウ","town_kana":"イカニケイサイガナイバアイ","prefecture":"佐賀県","city":"藤津郡太良町","town":"以下に掲載がない場合"},{"zip_code":"8491603","prefecture_kana":"サガケン","city_kana":"フジツグンタラチョウ","town_kana":"イトキ","prefecture":"佐賀県","city":"藤津郡太良町","town":"糸岐"},{"zip_code":"8491601","prefecture_kana":"サガケン","city_kana":"フジツグンタラチョウ","town_kana":"イフクコウ","prefecture":"佐賀県","city":"藤津郡太良町","town":"伊福甲"},{"zip_code":"8491614","prefecture_kana":"サガケン","city_kana":"フジツグンタラチョウ","town_kana":"オオウラコウ","prefecture":"佐賀県","city":"藤津郡太良町","town":"大浦甲"},{"zip_code":"8491615","prefecture_kana":"サガケン","city_kana":"フジツグンタラチョウ","town_kana":"オオウラオツ","prefecture":"佐賀県","city":"藤津郡太良町","town":"大浦乙"},{"zip_code":"8491613","prefecture_kana":"サガケン","city_kana":"フジツグンタラチョウ","town_kana":"オオウラヘイ","prefecture":"佐賀県","city":"藤津郡太良町","town":"大浦丙"},{"zip_code":"8491612","prefecture_kana":"サガケン","city_kana":"フジツグンタラチョウ","town_kana":"オオウラテイ","prefecture":"佐賀県","city":"藤津郡太良町","town":"大浦丁"},{"zip_code":"8491611","prefecture_kana":"サガケン","city_kana":"フジツグンタラチョウ","town_kana":"オオウラボ","prefecture":"佐賀県","city":"藤津郡太良町","town":"大浦戊"},{"zip_code":"8491616","prefecture_kana":"サガケン","city_kana":"フジツグンタラチョウ","town_kana":"オオウラキ","prefecture":"佐賀県","city":"藤津郡太良町","town":"大浦己"},{"zip_code":"8491602","prefecture_kana":"サガケン","city_kana":"フジツグンタラチョウ","town_kana":"タラ","prefecture":"佐賀県","city":"藤津郡太良町","town":"多良"}]