[{"zip_code":"6900000","prefecture_kana":"シマネケン","city_kana":"マツエシ","town_kana":"イカニケイサイガナイバアイ","prefecture":"島根県","city":"松江市","town":"以下に掲載がない場合"},{"zip_code":"6900261","prefecture_kana":"シマネケン","city_kana":"マツエシ","town_kana":"アイカチョウ","prefecture":"島根県","city":"松江市","town":"秋鹿町"},{"zip_code":"6900022","prefecture_kana":"シマネケン","city_kana":"マツエシ","town_kana":"アオバダイ","prefecture":"島根県","city":"松江市","town":"青葉台"},{"zip_code":"6900015","prefecture_kana":"シマネケン","city_kana":"マツエシ","town_kana":"アゲノギ","prefecture":"島根県","city":"松江市","town":"上乃木"},{"zip_code":"6900834","prefecture_kana":"シマネケン","city_kana":"マツエシ","town_kana":"アサクミチョウ","prefecture":"島根県","city":"松江市","town":"朝酌町"},{"zip_code":"6900003","prefecture_kana":"シマネケン","city_kana":"マツエシ","town_kana":"アサヒマチ","prefecture":"島根県","city":"松江市","town":"朝日町"},{"zip_code":"6900027","prefecture_kana":"シマネケン","city_kana":"マツエシ","town_kana":"イウチョウ","prefecture":"島根県","city":"松江市","town":"意宇町"},{"zip_code":"6900881","prefecture_kana":"シマネケン","city_kana":"マツエシ","town_kana":"イシバシチョウ","prefecture":"島根県","city":"松江市","town":"石橋町"},{"zip_code":"6900006","prefecture_kana":"シマネケン","city_kana":"マツエシ","town_kana":"イセミヤチョウ","prefecture":"島根県","city":"松江市","town":"伊勢宮町"},{"zip_code":"6900034","prefecture_kana":"シマネケン","city_kana":"マツエシ","town_kana":"イチノタニチョウ","prefecture":"島根県","city":"松江市","town":"一の谷町"},{"zip_code":"6900062","prefecture_kana":"シマネケン","city_kana":"マツエシ","town_kana":"ウオマチ","prefecture":"島根県","city":"松江市","town":"魚町"},{"zip_code":"6900869","prefecture_kana":"シマネケン","city_kana":"マツエシ","town_kana":"ウグイスダイ","prefecture":"島根県","city":"松江市","town":"うぐいす台"},{"zip_code":"6900131","prefecture_kana":"シマネケン","city_kana":"マツエシ","town_kana":"ウチデチョウ","prefecture":"島根県","city":"松江市","town":"打出町"},{"zip_code":"6900873","prefecture_kana":"シマネケン","city_kana":"マツエシ","town_kana":"ウチナカバラチョウ","prefecture":"島根県","city":"松江市","town":"内中原町"},{"zip_code":"6901115","prefecture_kana":"シマネケン","city_kana":"マツエシ","town_kana":"オウチョウ","prefecture":"島根県","city":"松江市","town":"邑生町"},{"zip_code":"6900832","prefecture_kana":"シマネケン","city_kana":"マツエシ","town_kana":"オオイチョウ","prefecture":"島根県","city":"松江市","town":"大井町"},{"zip_code":"6900263","prefecture_kana":"シマネケン","city_kana":"マツエシ","town_kana":"オオガキチョウ","prefecture":"島根県","city":"松江市","town":"大垣町"},{"zip_code":"6900032","prefecture_kana":"シマネケン","city_kana":"マツエシ","town_kana":"オオクサチョウ","prefecture":"島根県","city":"松江市","town":"大草町"},{"zip_code":"6900264","prefecture_kana":"シマネケン","city_kana":"マツエシ","town_kana":"オオノチョウ","prefecture":"島根県","city":"松江市","town":"大野町"},{"zip_code":"6900033","prefecture_kana":"シマネケン","city_kana":"マツエシ","town_kana":"オオバチョウ","prefecture":"島根県","city":"松江市","town":"大庭町"},{"zip_code":"6900831","prefecture_kana":"シマネケン","city_kana":"マツエシ","town_kana":"オオミサキチョウ","prefecture":"島根県","city":"松江市","town":"大海崎町"},{"zip_code":"6900262","prefecture_kana":"シマネケン","city_kana":"マツエシ","town_kana":"オカモトチョウ","prefecture":"島根県","city":"松江市","town":"岡本町"},{"zip_code":"6900872","prefecture_kana":"シマネケン","city_kana":"マツエシ","town_kana":"オクダニチョウ","prefecture":"島根県","city":"松江市","town":"奥谷町"},{"zip_code":"6900007","prefecture_kana":"シマネケン","city_kana":"マツエシ","town_kana":"オテセンバチョウ","prefecture":"島根県","city":"松江市","town":"御手船場町"},{"zip_code":"6900266","prefecture_kana":"シマネケン","city_kana":"マツエシ","town_kana":"オノゼチョウ","prefecture":"島根県","city":"松江市","town":"魚瀬町"},{"zip_code":"6900848","prefecture_kana":"シマネケン","city_kana":"マツエシ","town_kana":"オマチ","prefecture":"島根県","city":"松江市","town":"苧町"},{"zip_code":"6900825","prefecture_kana":"シマネケン","city_kana":"マツエシ","town_kana":"ガクエン","prefecture":"島根県","city":"松江市","town":"学園"},{"zip_code":"6900826","prefecture_kana":"シマネケン","city_kana":"マツエシ","town_kana":"ガクエンミナミ","prefecture":"島根県","city":"松江市","town":"学園南"},{"zip_code":"6900322","prefecture_kana":"シマネケン","city_kana":"マツエシ","town_kana":"カシマチョウエトモ","prefecture":"島根県","city":"松江市","town":"鹿島町恵曇"},{"zip_code":"6900324","prefecture_kana":"シマネケン","city_kana":"マツエシ","town_kana":"カシマチョウカタク","prefecture":"島根県","city":"松江市","town":"鹿島町片句"},{"zip_code":"6900801","prefecture_kana":"シマネケン","city_kana":"マツエシ","town_kana":"カシマチョウカミコウブ","prefecture":"島根県","city":"松江市","town":"鹿島町上講武"},{"zip_code":"6900804","prefecture_kana":"シマネケン","city_kana":"マツエシ","town_kana":"カシマチョウキタコウブ","prefecture":"島根県","city":"松江市","town":"鹿島町北講武"},{"zip_code":"6900333","prefecture_kana":"シマネケン","city_kana":"マツエシ","town_kana":"カシマチョウコウラ","prefecture":"島根県","city":"松江市","town":"鹿島町古浦"},{"zip_code":"6900332","prefecture_kana":"シマネケン","city_kana":"マツエシ","town_kana":"カシマチョウサダホンゴウ","prefecture":"島根県","city":"松江市","town":"鹿島町佐陀本郷"},{"zip_code":"6900331","prefecture_kana":"シマネケン","city_kana":"マツエシ","town_kana":"カシマチョウサダミヤウチ","prefecture":"島根県","city":"松江市","town":"鹿島町佐陀宮内"},{"zip_code":"6900321","prefecture_kana":"シマネケン","city_kana":"マツエシ","town_kana":"カシマチョウタケダイ","prefecture":"島根県","city":"松江市","town":"鹿島町武代"},{"zip_code":"6900323","prefecture_kana":"シマネケン","city_kana":"マツエシ","town_kana":"カシマチョウタユ","prefecture":"島根県","city":"松江市","town":"鹿島町手結"},{"zip_code":"6900411","prefecture_kana":"シマネケン","city_kana":"マツエシ","town_kana":"カシマチョウミツ","prefecture":"島根県","city":"松江市","town":"鹿島町御津"},{"zip_code":"6900802","prefecture_kana":"シマネケン","city_kana":"マツエシ","town_kana":"カシマチョウミナミコウブ","prefecture":"島根県","city":"松江市","town":"鹿島町南講武"},{"zip_code":"6900803","prefecture_kana":"シマネケン","city_kana":"マツエシ","town_kana":"カシマチョウミョウブン","prefecture":"島根県","city":"松江市","town":"鹿島町名分"},{"zip_code":"6900877","prefecture_kana":"シマネケン","city_kana":"マツエシ","town_kana":"カスガチョウ","prefecture":"島根県","city":"松江市","town":"春日町"},{"zip_code":"6900847","prefecture_kana":"シマネケン","city_kana":"マツエシ","town_kana":"カタハラチョウ","prefecture":"島根県","city":"松江市","town":"片原町"},{"zip_code":"6901104","prefecture_kana":"シマネケン","city_kana":"マツエシ","town_kana":"カミウベオチョウ","prefecture":"島根県","city":"松江市","town":"上宇部尾町"},{"zip_code":"6900265","prefecture_kana":"シマネケン","city_kana":"マツエシ","town_kana":"カミオオノチョウ","prefecture":"島根県","city":"松江市","town":"上大野町"},{"zip_code":"6900867","prefecture_kana":"シマネケン","city_kana":"マツエシ","town_kana":"カミサダチョウ","prefecture":"島根県","city":"松江市","town":"上佐陀町"},{"zip_code":"6900821","prefecture_kana":"シマネケン","city_kana":"マツエシ","town_kana":"カミヒガシカワツチョウ","prefecture":"島根県","city":"松江市","town":"上東川津町"},{"zip_code":"6901102","prefecture_kana":"シマネケン","city_kana":"マツエシ","town_kana":"カミホンジョウチョウ","prefecture":"島根県","city":"松江市","town":"上本庄町"},{"zip_code":"6900812","prefecture_kana":"シマネケン","city_kana":"マツエシ","town_kana":"カワハラチョウ","prefecture":"島根県","city":"松江市","town":"川原町"},{"zip_code":"6900883","prefecture_kana":"シマネケン","city_kana":"マツエシ","town_kana":"キタタマチ","prefecture":"島根県","city":"松江市","town":"北田町"},{"zip_code":"6900888","prefecture_kana":"シマネケン","city_kana":"マツエシ","town_kana":"キタホリチョウ","prefecture":"島根県","city":"松江市","town":"北堀町"},{"zip_code":"6900859","prefecture_kana":"シマネケン","city_kana":"マツエシ","town_kana":"クヤチョウ","prefecture":"島根県","city":"松江市","town":"国屋町"},{"zip_code":"6900876","prefecture_kana":"シマネケン","city_kana":"マツエシ","town_kana":"クロダチョウ","prefecture":"島根県","city":"松江市","town":"黒田町"},{"zip_code":"6900121","prefecture_kana":"シマネケン","city_kana":"マツエシ","town_kana":"コシチョウ","prefecture":"島根県","city":"松江市","town":"古志町"},{"zip_code":"6900012","prefecture_kana":"シマネケン","city_kana":"マツエシ","town_kana":"コシバラ","prefecture":"島根県","city":"松江市","town":"古志原"},{"zip_code":"6900013","prefecture_kana":"シマネケン","city_kana":"マツエシ","town_kana":"コシバラチョウ","prefecture":"島根県","city":"松江市","town":"古志原町"},{"zip_code":"6900151","prefecture_kana":"シマネケン","city_kana":"マツエシ","town_kana":"コソシチョウ","prefecture":"島根県","city":"松江市","town":"古曽志町"},{"zip_code":"6900856","prefecture_kana":"シマネケン","city_kana":"マツエシ","town_kana":"コモヅチョウ","prefecture":"島根県","city":"松江市","town":"薦津町"},{"zip_code":"6900056","prefecture_kana":"シマネケン","city_kana":"マツエシ","town_kana":"サイカマチ","prefecture":"島根県","city":"松江市","town":"雑賀町"},{"zip_code":"6900041","prefecture_kana":"シマネケン","city_kana":"マツエシ","town_kana":"サイワイマチ","prefecture":"島根県","city":"松江市","town":"幸町"},{"zip_code":"6900042","prefecture_kana":"シマネケン","city_kana":"マツエシ","town_kana":"サカエマチ","prefecture":"島根県","city":"松江市","town":"栄町"},{"zip_code":"6900813","prefecture_kana":"シマネケン","city_kana":"マツエシ","town_kana":"サカモトチョウ","prefecture":"島根県","city":"松江市","town":"坂本町"},{"zip_code":"6900035","prefecture_kana":"シマネケン","city_kana":"マツエシ","town_kana":"サクサチョウ","prefecture":"島根県","city":"松江市","town":"佐草町"},{"zip_code":"6900402","prefecture_kana":"シマネケン","city_kana":"マツエシ","town_kana":"シマネチョウオワシ","prefecture":"島根県","city":"松江市","town":"島根町大芦"},{"zip_code":"6900401","prefecture_kana":"シマネケン","city_kana":"マツエシ","town_kana":"シマネチョウカカ","prefecture":"島根県","city":"松江市","town":"島根町加賀"},{"zip_code":"6901213","prefecture_kana":"シマネケン","city_kana":"マツエシ","town_kana":"シマネチョウタコ","prefecture":"島根県","city":"松江市","town":"島根町多古"},{"zip_code":"6901211","prefecture_kana":"シマネケン","city_kana":"マツエシ","town_kana":"シマネチョウノイ","prefecture":"島根県","city":"松江市","town":"島根町野井"},{"zip_code":"6901212","prefecture_kana":"シマネケン","city_kana":"マツエシ","town_kana":"シマネチョウノナミ","prefecture":"島根県","city":"松江市","town":"島根町野波"},{"zip_code":"6900866","prefecture_kana":"シマネケン","city_kana":"マツエシ","town_kana":"シモサダチョウ","prefecture":"島根県","city":"松江市","town":"下佐陀町"},{"zip_code":"6900822","prefecture_kana":"シマネケン","city_kana":"マツエシ","town_kana":"シモヒガシカワツチョウ","prefecture":"島根県","city":"松江市","town":"下東川津町"},{"zip_code":"6900141","prefecture_kana":"シマネケン","city_kana":"マツエシ","town_kana":"ショウジョウチョウ","prefecture":"島根県","city":"松江市","town":"荘成町"},{"zip_code":"6900868","prefecture_kana":"シマネケン","city_kana":"マツエシ","town_kana":"ショウホクダイ","prefecture":"島根県","city":"松江市","town":"淞北台"},{"zip_code":"6900061","prefecture_kana":"シマネケン","city_kana":"マツエシ","town_kana":"シラカタホンマチ","prefecture":"島根県","city":"松江市","town":"白瀉本町"},{"zip_code":"6900054","prefecture_kana":"シマネケン","city_kana":"マツエシ","town_kana":"シンサイカマチ","prefecture":"島根県","city":"松江市","town":"新雑賀町"},{"zip_code":"6990407","prefecture_kana":"シマネケン","city_kana":"マツエシ","town_kana":"シンジチョウイジミ","prefecture":"島根県","city":"松江市","town":"宍道町伊志見"},{"zip_code":"6990405","prefecture_kana":"シマネケン","city_kana":"マツエシ","town_kana":"シンジチョウカミキマチ","prefecture":"島根県","city":"松江市","town":"宍道町上来待"},{"zip_code":"6990406","prefecture_kana":"シマネケン","city_kana":"マツエシ","town_kana":"シンジチョウサソウ","prefecture":"島根県","city":"松江市","town":"宍道町佐々布"},{"zip_code":"6990408","prefecture_kana":"シマネケン","city_kana":"マツエシ","town_kana":"シンジチョウショウワ","prefecture":"島根県","city":"松江市","town":"宍道町昭和"},{"zip_code":"6990401","prefecture_kana":"シマネケン","city_kana":"マツエシ","town_kana":"シンジチョウシンジ","prefecture":"島根県","city":"松江市","town":"宍道町宍道"},{"zip_code":"6990403","prefecture_kana":"シマネケン","city_kana":"マツエシ","town_kana":"シンジチョウニシキマチ","prefecture":"島根県","city":"松江市","town":"宍道町西来待"},{"zip_code":"6990402","prefecture_kana":"シマネケン","city_kana":"マツエシ","town_kana":"シンジチョウハクイシ","prefecture":"島根県","city":"松江市","town":"宍道町白石"},{"zip_code":"6990404","prefecture_kana":"シマネケン","city_kana":"マツエシ","town_kana":"シンジチョウヒガシキマチ","prefecture":"島根県","city":"松江市","town":"宍道町東来待"},{"zip_code":"6901103","prefecture_kana":"シマネケン","city_kana":"マツエシ","town_kana":"シンジョウチョウ","prefecture":"島根県","city":"松江市","town":"新庄町"},{"zip_code":"6900057","prefecture_kana":"シマネケン","city_kana":"マツエシ","town_kana":"シンマチ","prefecture":"島根県","city":"松江市","town":"新町"},{"zip_code":"6900846","prefecture_kana":"シマネケン","city_kana":"マツエシ","town_kana":"スエツグチョウ","prefecture":"島根県","city":"松江市","town":"末次町"},{"zip_code":"6900843","prefecture_kana":"シマネケン","city_kana":"マツエシ","town_kana":"スエツグホンマチ","prefecture":"島根県","city":"松江市","town":"末次本町"},{"zip_code":"6900824","prefecture_kana":"シマネケン","city_kana":"マツエシ","town_kana":"スガタチョウ","prefecture":"島根県","city":"松江市","town":"菅田町"},{"zip_code":"6900878","prefecture_kana":"シマネケン","city_kana":"マツエシ","town_kana":"スナゴチョウ","prefecture":"島根県","city":"松江市","town":"砂子町"},{"zip_code":"6900049","prefecture_kana":"シマネケン","city_kana":"マツエシ","town_kana":"ソデシチョウ","prefecture":"島根県","city":"松江市","town":"袖師町"},{"zip_code":"6900875","prefecture_kana":"シマネケン","city_kana":"マツエシ","town_kana":"ソトナカバラチョウ","prefecture":"島根県","city":"松江市","town":"外中原町"},{"zip_code":"6900002","prefecture_kana":"シマネケン","city_kana":"マツエシ","town_kana":"タイショウマチ","prefecture":"島根県","city":"松江市","town":"大正町"},{"zip_code":"6900882","prefecture_kana":"シマネケン","city_kana":"マツエシ","town_kana":"ダイリンチョウ","prefecture":"島根県","city":"松江市","town":"大輪町"},{"zip_code":"6901113","prefecture_kana":"シマネケン","city_kana":"マツエシ","town_kana":"タスミチョウ","prefecture":"島根県","city":"松江市","town":"手角町"},{"zip_code":"6900052","prefecture_kana":"シマネケン","city_kana":"マツエシ","town_kana":"タテマチ","prefecture":"島根県","city":"松江市","town":"竪町"},{"zip_code":"6990205","prefecture_kana":"シマネケン","city_kana":"マツエシ","town_kana":"タマユチョウオオダニ","prefecture":"島根県","city":"松江市","town":"玉湯町大谷"},{"zip_code":"6990201","prefecture_kana":"シマネケン","city_kana":"マツエシ","town_kana":"タマユチョウタマツクリ","prefecture":"島根県","city":"松江市","town":"玉湯町玉造"},{"zip_code":"6990204","prefecture_kana":"シマネケン","city_kana":"マツエシ","town_kana":"タマユチョウハヤシ","prefecture":"島根県","city":"松江市","town":"玉湯町林"},{"zip_code":"6990203","prefecture_kana":"シマネケン","city_kana":"マツエシ","town_kana":"タマユチョウフジナ","prefecture":"島根県","city":"松江市","town":"玉湯町布志名"},{"zip_code":"6990202","prefecture_kana":"シマネケン","city_kana":"マツエシ","town_kana":"タマユチョウユマチ","prefecture":"島根県","city":"松江市","town":"玉湯町湯町"},{"zip_code":"6900058","prefecture_kana":"シマネケン","city_kana":"マツエシ","town_kana":"タワヤマチョウ","prefecture":"島根県","city":"松江市","town":"田和山町"},{"zip_code":"6900023","prefecture_kana":"シマネケン","city_kana":"マツエシ","town_kana":"チクヤチョウ","prefecture":"島根県","city":"松江市","town":"竹矢町"},{"zip_code":"6900852","prefecture_kana":"シマネケン","city_kana":"マツエシ","town_kana":"チドリチョウ","prefecture":"島根県","city":"松江市","town":"千鳥町"},{"zip_code":"6900055","prefecture_kana":"シマネケン","city_kana":"マツエシ","town_kana":"ツダマチ","prefecture":"島根県","city":"松江市","town":"津田町"},{"zip_code":"6900063","prefecture_kana":"シマネケン","city_kana":"マツエシ","town_kana":"テラマチ","prefecture":"島根県","city":"松江市","town":"寺町"},{"zip_code":"6900064","prefecture_kana":"シマネケン","city_kana":"マツエシ","town_kana":"テンジンマチ","prefecture":"島根県","city":"松江市","town":"天神町"},{"zip_code":"6900851","prefecture_kana":"シマネケン","city_kana":"マツエシ","town_kana":"ドウガタチョウ","prefecture":"島根県","city":"松江市","town":"堂形町"},{"zip_code":"6900887","prefecture_kana":"シマネケン","city_kana":"マツエシ","town_kana":"トノマチ","prefecture":"島根県","city":"松江市","town":"殿町"},{"zip_code":"6900874","prefecture_kana":"シマネケン","city_kana":"マツエシ","town_kana":"ナカハラチョウ","prefecture":"島根県","city":"松江市","town":"中原町"},{"zip_code":"6901112","prefecture_kana":"シマネケン","city_kana":"マツエシ","town_kana":"ナガミチョウ","prefecture":"島根県","city":"松江市","town":"長海町"},{"zip_code":"6900065","prefecture_kana":"シマネケン","city_kana":"マツエシ","town_kana":"ナダマチ","prefecture":"島根県","city":"松江市","town":"灘町"},{"zip_code":"6900854","prefecture_kana":"シマネケン","city_kana":"マツエシ","town_kana":"ナンペイダイ","prefecture":"島根県","city":"松江市","town":"南平台"},{"zip_code":"6900865","prefecture_kana":"シマネケン","city_kana":"マツエシ","town_kana":"ニシイクマチョウ","prefecture":"島根県","city":"松江市","town":"西生馬町"},{"zip_code":"6900037","prefecture_kana":"シマネケン","city_kana":"マツエシ","town_kana":"ニシインベチョウ","prefecture":"島根県","city":"松江市","town":"西忌部町"},{"zip_code":"6900835","prefecture_kana":"シマネケン","city_kana":"マツエシ","town_kana":"ニシオチョウ","prefecture":"島根県","city":"松江市","town":"西尾町"},{"zip_code":"6900823","prefecture_kana":"シマネケン","city_kana":"マツエシ","town_kana":"ニシカワツチョウ","prefecture":"島根県","city":"松江市","town":"西川津町"},{"zip_code":"6900142","prefecture_kana":"シマネケン","city_kana":"マツエシ","town_kana":"ニシダニチョウ","prefecture":"島根県","city":"松江市","town":"西谷町"},{"zip_code":"6900845","prefecture_kana":"シマネケン","city_kana":"マツエシ","town_kana":"ニシチャマチ","prefecture":"島根県","city":"松江市","town":"西茶町"},{"zip_code":"6900017","prefecture_kana":"シマネケン","city_kana":"マツエシ","town_kana":"ニシツダ","prefecture":"島根県","city":"松江市","town":"西津田"},{"zip_code":"6900132","prefecture_kana":"シマネケン","city_kana":"マツエシ","town_kana":"ニシナガエチョウ","prefecture":"島根県","city":"松江市","town":"西長江町"},{"zip_code":"6900122","prefecture_kana":"シマネケン","city_kana":"マツエシ","town_kana":"ニシハマサダチョウ","prefecture":"島根県","city":"松江市","town":"西浜佐陀町"},{"zip_code":"6900860","prefecture_kana":"シマネケン","city_kana":"マツエシ","town_kana":"ニシホッキチョウ","prefecture":"島根県","city":"松江市","town":"西法吉町"},{"zip_code":"6900815","prefecture_kana":"シマネケン","city_kana":"マツエシ","town_kana":"ニシモチダチョウ","prefecture":"島根県","city":"松江市","town":"西持田町"},{"zip_code":"6900048","prefecture_kana":"シマネケン","city_kana":"マツエシ","town_kana":"ニシヨメシマ","prefecture":"島根県","city":"松江市","town":"西嫁島"},{"zip_code":"6900046","prefecture_kana":"シマネケン","city_kana":"マツエシ","town_kana":"ノギフクトミチョウ","prefecture":"島根県","city":"松江市","town":"乃木福富町"},{"zip_code":"6900045","prefecture_kana":"シマネケン","city_kana":"マツエシ","town_kana":"ノシラチョウ","prefecture":"島根県","city":"松江市","town":"乃白町"},{"zip_code":"6901114","prefecture_kana":"シマネケン","city_kana":"マツエシ","town_kana":"ノバラチョウ","prefecture":"島根県","city":"松江市","town":"野原町"},{"zip_code":"6900004","prefecture_kana":"シマネケン","city_kana":"マツエシ","town_kana":"ハチケンヤマチ","prefecture":"島根県","city":"松江市","town":"八軒屋町"},{"zip_code":"6900855","prefecture_kana":"シマネケン","city_kana":"マツエシ","town_kana":"ハマサダチョウ","prefecture":"島根県","city":"松江市","town":"浜佐田町"},{"zip_code":"6900044","prefecture_kana":"シマネケン","city_kana":"マツエシ","town_kana":"ハマノギ","prefecture":"島根県","city":"松江市","town":"浜乃木"},{"zip_code":"6900001","prefecture_kana":"シマネケン","city_kana":"マツエシ","town_kana":"ヒガシアサヒマチ","prefecture":"島根県","city":"松江市","town":"東朝日町"},{"zip_code":"6900864","prefecture_kana":"シマネケン","city_kana":"マツエシ","town_kana":"ヒガシイクマチョウ","prefecture":"島根県","city":"松江市","town":"東生馬町"},{"zip_code":"6990108","prefecture_kana":"シマネケン","city_kana":"マツエシ","town_kana":"ヒガシイズモチョウアダカエ","prefecture":"島根県","city":"松江市","town":"東出雲町出雲郷"},{"zip_code":"6990111","prefecture_kana":"シマネケン","city_kana":"マツエシ","town_kana":"ヒガシイズモチョウイウナン","prefecture":"島根県","city":"松江市","town":"東出雲町意宇南"},{"zip_code":"6990112","prefecture_kana":"シマネケン","city_kana":"マツエシ","town_kana":"ヒガシイズモチョウイウヒガシ","prefecture":"島根県","city":"松江市","town":"東出雲町意宇東"},{"zip_code":"6990107","prefecture_kana":"シマネケン","city_kana":"マツエシ","town_kana":"ヒガシイズモチョウイマミヤ","prefecture":"島根県","city":"松江市","town":"東出雲町今宮"},{"zip_code":"6990101","prefecture_kana":"シマネケン","city_kana":"マツエシ","town_kana":"ヒガシイズモチョウイヤ","prefecture":"島根県","city":"松江市","town":"東出雲町揖屋"},{"zip_code":"6990105","prefecture_kana":"シマネケン","city_kana":"マツエシ","town_kana":"ヒガシイズモチョウウチウマ","prefecture":"島根県","city":"松江市","town":"東出雲町内馬"},{"zip_code":"6990106","prefecture_kana":"シマネケン","city_kana":"マツエシ","town_kana":"ヒガシイズモチョウカスガ","prefecture":"島根県","city":"松江市","town":"東出雲町春日"},{"zip_code":"6990103","prefecture_kana":"シマネケン","city_kana":"マツエシ","town_kana":"ヒガシイズモチョウカミイトウ","prefecture":"島根県","city":"松江市","town":"東出雲町上意東"},{"zip_code":"6990102","prefecture_kana":"シマネケン","city_kana":"マツエシ","town_kana":"ヒガシイズモチョウシモイトウ","prefecture":"島根県","city":"松江市","town":"東出雲町下意東"},{"zip_code":"6990104","prefecture_kana":"シマネケン","city_kana":"マツエシ","town_kana":"ヒガシイズモチョウスタ","prefecture":"島根県","city":"松江市","town":"東出雲町須田"},{"zip_code":"6990110","prefecture_kana":"シマネケン","city_kana":"マツエシ","town_kana":"ヒガシイズモチョウニシキシンマチ","prefecture":"島根県","city":"松江市","town":"東出雲町錦新町"},{"zip_code":"6990109","prefecture_kana":"シマネケン","city_kana":"マツエシ","town_kana":"ヒガシイズモチョウニシキハマ","prefecture":"島根県","city":"松江市","town":"東出雲町錦浜"},{"zip_code":"6900036","prefecture_kana":"シマネケン","city_kana":"マツエシ","town_kana":"ヒガシインベチョウ","prefecture":"島根県","city":"松江市","town":"東忌部町"},{"zip_code":"6900871","prefecture_kana":"シマネケン","city_kana":"マツエシ","town_kana":"ヒガシオクダニチョウ","prefecture":"島根県","city":"松江市","town":"東奥谷町"},{"zip_code":"6900844","prefecture_kana":"シマネケン","city_kana":"マツエシ","town_kana":"ヒガシチャマチ","prefecture":"島根県","city":"松江市","town":"東茶町"},{"zip_code":"6900011","prefecture_kana":"シマネケン","city_kana":"マツエシ","town_kana":"ヒガシツダチョウ","prefecture":"島根県","city":"松江市","town":"東津田町"},{"zip_code":"6900133","prefecture_kana":"シマネケン","city_kana":"マツエシ","town_kana":"ヒガシナガエチョウ","prefecture":"島根県","city":"松江市","town":"東長江町"},{"zip_code":"6900842","prefecture_kana":"シマネケン","city_kana":"マツエシ","town_kana":"ヒガシホンマチ","prefecture":"島根県","city":"松江市","town":"東本町"},{"zip_code":"6900814","prefecture_kana":"シマネケン","city_kana":"マツエシ","town_kana":"ヒガシモチダチョウ","prefecture":"島根県","city":"松江市","town":"東持田町"},{"zip_code":"6900862","prefecture_kana":"シマネケン","city_kana":"マツエシ","town_kana":"ヒツガオカ","prefecture":"島根県","city":"松江市","town":"比津が丘"},{"zip_code":"6900863","prefecture_kana":"シマネケン","city_kana":"マツエシ","town_kana":"ヒツチョウ","prefecture":"島根県","city":"松江市","town":"比津町"},{"zip_code":"6900833","prefecture_kana":"シマネケン","city_kana":"マツエシ","town_kana":"フクトミチョウ","prefecture":"島根県","city":"松江市","town":"福富町"},{"zip_code":"6900811","prefecture_kana":"シマネケン","city_kana":"マツエシ","town_kana":"フクハラチョウ","prefecture":"島根県","city":"松江市","town":"福原町"},{"zip_code":"6900026","prefecture_kana":"シマネケン","city_kana":"マツエシ","town_kana":"フジミチョウ","prefecture":"島根県","city":"松江市","town":"富士見町"},{"zip_code":"6900038","prefecture_kana":"シマネケン","city_kana":"マツエシ","town_kana":"ヘイセイチョウ","prefecture":"島根県","city":"松江市","town":"平成町"},{"zip_code":"6900816","prefecture_kana":"シマネケン","city_kana":"マツエシ","town_kana":"ホクリョウチョウ","prefecture":"島根県","city":"松江市","town":"北陵町"},{"zip_code":"6900861","prefecture_kana":"シマネケン","city_kana":"マツエシ","town_kana":"ホッキチョウ","prefecture":"島根県","city":"松江市","town":"法吉町"},{"zip_code":"6900886","prefecture_kana":"シマネケン","city_kana":"マツエシ","town_kana":"ホロマチ","prefecture":"島根県","city":"松江市","town":"母衣町"},{"zip_code":"6900053","prefecture_kana":"シマネケン","city_kana":"マツエシ","town_kana":"ホンゴウチョウ","prefecture":"島根県","city":"松江市","town":"本郷町"},{"zip_code":"6901101","prefecture_kana":"シマネケン","city_kana":"マツエシ","town_kana":"ホンジョウチョウ","prefecture":"島根県","city":"松江市","town":"本庄町"},{"zip_code":"6900024","prefecture_kana":"シマネケン","city_kana":"マツエシ","town_kana":"マカタチョウ","prefecture":"島根県","city":"松江市","town":"馬潟町"},{"zip_code":"6901111","prefecture_kana":"シマネケン","city_kana":"マツエシ","town_kana":"マクラギチョウ","prefecture":"島根県","city":"松江市","town":"枕木町"},{"zip_code":"6900043","prefecture_kana":"シマネケン","city_kana":"マツエシ","town_kana":"マツオチョウ","prefecture":"島根県","city":"松江市","town":"松尾町"},{"zip_code":"6900884","prefecture_kana":"シマネケン","city_kana":"マツエシ","town_kana":"ミナミタマチ","prefecture":"島根県","city":"松江市","town":"南田町"},{"zip_code":"6901223","prefecture_kana":"シマネケン","city_kana":"マツエシ","town_kana":"ミホノセキチョウカサウラ","prefecture":"島根県","city":"松江市","town":"美保関町笠浦"},{"zip_code":"6901315","prefecture_kana":"シマネケン","city_kana":"マツエシ","town_kana":"ミホノセキチョウカタエ","prefecture":"島根県","city":"松江市","town":"美保関町片江"},{"zip_code":"6901221","prefecture_kana":"シマネケン","city_kana":"マツエシ","town_kana":"ミホノセキチョウキタウラ","prefecture":"島根県","city":"松江市","town":"美保関町北浦"},{"zip_code":"6901502","prefecture_kana":"シマネケン","city_kana":"マツエシ","town_kana":"ミホノセキチョウクモヅ","prefecture":"島根県","city":"松江市","town":"美保関町雲津"},{"zip_code":"6901311","prefecture_kana":"シマネケン","city_kana":"マツエシ","town_kana":"ミホノセキチョウシチルイ","prefecture":"島根県","city":"松江市","town":"美保関町七類"},{"zip_code":"6901313","prefecture_kana":"シマネケン","city_kana":"マツエシ","town_kana":"ミホノセキチョウシモウベオ","prefecture":"島根県","city":"松江市","town":"美保関町下宇部尾"},{"zip_code":"6901314","prefecture_kana":"シマネケン","city_kana":"マツエシ","town_kana":"ミホノセキチョウスゲウラ","prefecture":"島根県","city":"松江市","town":"美保関町菅浦"},{"zip_code":"6901222","prefecture_kana":"シマネケン","city_kana":"マツエシ","town_kana":"ミホノセキチョウチクミ","prefecture":"島根県","city":"松江市","town":"美保関町千酌"},{"zip_code":"6901504","prefecture_kana":"シマネケン","city_kana":"マツエシ","town_kana":"ミホノセキチョウフクウラ","prefecture":"島根県","city":"松江市","town":"美保関町福浦"},{"zip_code":"6901501","prefecture_kana":"シマネケン","city_kana":"マツエシ","town_kana":"ミホノセキチョウミホノセキ","prefecture":"島根県","city":"松江市","town":"美保関町美保関"},{"zip_code":"6901505","prefecture_kana":"シマネケン","city_kana":"マツエシ","town_kana":"ミホノセキチョウモリヤマ（コガネザキ）","prefecture":"島根県","city":"松江市","town":"美保関町森山（古金崎）"},{"zip_code":"6901312","prefecture_kana":"シマネケン","city_kana":"マツエシ","town_kana":"ミホノセキチョウモリヤマ（ソノタ）","prefecture":"島根県","city":"松江市","town":"美保関町森山（その他）"},{"zip_code":"6901503","prefecture_kana":"シマネケン","city_kana":"マツエシ","town_kana":"ミホノセキチョウモロクイ","prefecture":"島根県","city":"松江市","town":"美保関町諸喰"},{"zip_code":"6900841","prefecture_kana":"シマネケン","city_kana":"マツエシ","town_kana":"ムコウジマチョウ","prefecture":"島根県","city":"松江市","town":"向島町"},{"zip_code":"6900014","prefecture_kana":"シマネケン","city_kana":"マツエシ","town_kana":"ヤクモダイ","prefecture":"島根県","city":"松江市","town":"八雲台"},{"zip_code":"6902104","prefecture_kana":"シマネケン","city_kana":"マツエシ","town_kana":"ヤクモチョウクマノ","prefecture":"島根県","city":"松江市","town":"八雲町熊野"},{"zip_code":"6902103","prefecture_kana":"シマネケン","city_kana":"マツエシ","town_kana":"ヤクモチョウニシイワサカ","prefecture":"島根県","city":"松江市","town":"八雲町西岩坂"},{"zip_code":"6902102","prefecture_kana":"シマネケン","city_kana":"マツエシ","town_kana":"ヤクモチョウヒガシイワサカ","prefecture":"島根県","city":"松江市","town":"八雲町東岩坂"},{"zip_code":"6902101","prefecture_kana":"シマネケン","city_kana":"マツエシ","town_kana":"ヤクモチョウヒヨシ","prefecture":"島根県","city":"松江市","town":"八雲町日吉"},{"zip_code":"6902105","prefecture_kana":"シマネケン","city_kana":"マツエシ","town_kana":"ヤクモチョウヒラハラ","prefecture":"島根県","city":"松江市","town":"八雲町平原"},{"zip_code":"6900021","prefecture_kana":"シマネケン","city_kana":"マツエシ","town_kana":"ヤダチョウ","prefecture":"島根県","city":"松江市","town":"矢田町"},{"zip_code":"6901401","prefecture_kana":"シマネケン","city_kana":"マツエシ","town_kana":"ヤツカチョウエシマ","prefecture":"島根県","city":"松江市","town":"八束町江島"},{"zip_code":"6901403","prefecture_kana":"シマネケン","city_kana":"マツエシ","town_kana":"ヤツカチョウオソエ","prefecture":"島根県","city":"松江市","town":"八束町遅江"},{"zip_code":"6901408","prefecture_kana":"シマネケン","city_kana":"マツエシ","town_kana":"ヤツカチョウカメシリ","prefecture":"島根県","city":"松江市","town":"八束町亀尻"},{"zip_code":"6901407","prefecture_kana":"シマネケン","city_kana":"マツエシ","town_kana":"ヤツカチョウテラヅ","prefecture":"島根県","city":"松江市","town":"八束町寺津"},{"zip_code":"6901405","prefecture_kana":"シマネケン","city_kana":"マツエシ","town_kana":"ヤツカチョウニュウコウ","prefecture":"島根県","city":"松江市","town":"八束町入江"},{"zip_code":"6901404","prefecture_kana":"シマネケン","city_kana":"マツエシ","town_kana":"ヤツカチョウハニュウ","prefecture":"島根県","city":"松江市","town":"八束町波入"},{"zip_code":"6901406","prefecture_kana":"シマネケン","city_kana":"マツエシ","town_kana":"ヤツカチョウフタゴ","prefecture":"島根県","city":"松江市","town":"八束町二子"},{"zip_code":"6901402","prefecture_kana":"シマネケン","city_kana":"マツエシ","town_kana":"ヤツカチョウマワタシ","prefecture":"島根県","city":"松江市","town":"八束町馬渡"},{"zip_code":"6900031","prefecture_kana":"シマネケン","city_kana":"マツエシ","town_kana":"ヤマシロチョウ","prefecture":"島根県","city":"松江市","town":"山代町"},{"zip_code":"6900025","prefecture_kana":"シマネケン","city_kana":"マツエシ","town_kana":"ヤワタチョウ","prefecture":"島根県","city":"松江市","town":"八幡町"},{"zip_code":"6900051","prefecture_kana":"シマネケン","city_kana":"マツエシ","town_kana":"ヨコバマチョウ","prefecture":"島根県","city":"松江市","town":"横浜町"},{"zip_code":"6900885","prefecture_kana":"シマネケン","city_kana":"マツエシ","town_kana":"ヨナゴマチ","prefecture":"島根県","city":"松江市","town":"米子町"},{"zip_code":"6900047","prefecture_kana":"シマネケン","city_kana":"マツエシ","town_kana":"ヨメシマチョウ","prefecture":"島根県","city":"松江市","town":"嫁島町"},{"zip_code":"6900005","prefecture_kana":"シマネケン","city_kana":"マツエシ","town_kana":"ワダミチョウ","prefecture":"島根県","city":"松江市","town":"和多見町"},{"zip_code":"6970000","prefecture_kana":"シマネケン","city_kana":"ハマダシ","town_kana":"イカニケイサイガナイバアイ","prefecture":"島根県","city":"浜田市","town":"以下に掲載がない場合"},{"zip_code":"6970034","prefecture_kana":"シマネケン","city_kana":"ハマダシ","town_kana":"アイオイチョウ","prefecture":"島根県","city":"浜田市","town":"相生町"},{"zip_code":"6970022","prefecture_kana":"シマネケン","city_kana":"ハマダシ","town_kana":"アサイチョウ","prefecture":"島根県","city":"浜田市","town":"浅井町"},{"zip_code":"6970514","prefecture_kana":"シマネケン","city_kana":"ハマダシ","town_kana":"アサヒチョウイチギ","prefecture":"島根県","city":"浜田市","town":"旭町市木"},{"zip_code":"6970425","prefecture_kana":"シマネケン","city_kana":"ハマダシ","town_kana":"アサヒチョウイマイチ","prefecture":"島根県","city":"浜田市","town":"旭町今市"},{"zip_code":"6970427","prefecture_kana":"シマネケン","city_kana":"ハマダシ","town_kana":"アサヒチョウキタ","prefecture":"島根県","city":"浜田市","town":"旭町木田"},{"zip_code":"6970512","prefecture_kana":"シマネケン","city_kana":"ハマダシ","town_kana":"アサヒチョウキタオ","prefecture":"島根県","city":"浜田市","town":"旭町来尾"},{"zip_code":"6970513","prefecture_kana":"シマネケン","city_kana":"ハマダシ","town_kana":"アサヒチョウサカモト（ヤツギ）","prefecture":"島根県","city":"浜田市","town":"旭町坂本（八ツ木）"},{"zip_code":"6970431","prefecture_kana":"シマネケン","city_kana":"ハマダシ","town_kana":"アサヒチョウサカモト（ソノタ）","prefecture":"島根県","city":"浜田市","town":"旭町坂本（その他）"},{"zip_code":"6970423","prefecture_kana":"シマネケン","city_kana":"ハマダシ","town_kana":"アサヒチョウシゲトミ","prefecture":"島根県","city":"浜田市","town":"旭町重富"},{"zip_code":"6970511","prefecture_kana":"シマネケン","city_kana":"ハマダシ","town_kana":"アサヒチョウツカワ","prefecture":"島根県","city":"浜田市","town":"旭町都川"},{"zip_code":"6970422","prefecture_kana":"シマネケン","city_kana":"ハマダシ","town_kana":"アサヒチョウホンゴウ","prefecture":"島根県","city":"浜田市","town":"旭町本郷"},{"zip_code":"6970426","prefecture_kana":"シマネケン","city_kana":"ハマダシ","town_kana":"アサヒチョウマルバラ","prefecture":"島根県","city":"浜田市","town":"旭町丸原"},{"zip_code":"6970421","prefecture_kana":"シマネケン","city_kana":"ハマダシ","town_kana":"アサヒチョウヤマノウチ","prefecture":"島根県","city":"浜田市","town":"旭町山ノ内"},{"zip_code":"6970424","prefecture_kana":"シマネケン","city_kana":"ハマダシ","town_kana":"アサヒチョウワダ","prefecture":"島根県","city":"浜田市","town":"旭町和田"},{"zip_code":"6970033","prefecture_kana":"シマネケン","city_kana":"ハマダシ","town_kana":"アサヒマチ","prefecture":"島根県","city":"浜田市","town":"朝日町"},{"zip_code":"6970062","prefecture_kana":"シマネケン","city_kana":"ハマダシ","town_kana":"アツタチョウ","prefecture":"島根県","city":"浜田市","town":"熱田町"},{"zip_code":"6971334","prefecture_kana":"シマネケン","city_kana":"ハマダシ","town_kana":"イチイタバラチョウ","prefecture":"島根県","city":"浜田市","town":"櫟田原町"},{"zip_code":"6971335","prefecture_kana":"シマネケン","city_kana":"ハマダシ","town_kana":"イノチョウ","prefecture":"島根県","city":"浜田市","town":"井野町"},{"zip_code":"6970032","prefecture_kana":"シマネケン","city_kana":"ハマダシ","town_kana":"ウシイチチョウ","prefecture":"島根県","city":"浜田市","town":"牛市町"},{"zip_code":"6970011","prefecture_kana":"シマネケン","city_kana":"ハマダシ","town_kana":"ウシロノチョウ","prefecture":"島根県","city":"浜田市","town":"後野町"},{"zip_code":"6970064","prefecture_kana":"シマネケン","city_kana":"ハマダシ","town_kana":"ウチダチョウ（ヒャクマンキ）","prefecture":"島根県","city":"浜田市","town":"内田町（百万騎）"},{"zip_code":"6971323","prefecture_kana":"シマネケン","city_kana":"ハマダシ","town_kana":"ウチダチョウ（ソノタ）","prefecture":"島根県","city":"浜田市","town":"内田町（その他）"},{"zip_code":"6970312","prefecture_kana":"シマネケン","city_kana":"ハマダシ","town_kana":"ウツイチョウ","prefecture":"島根県","city":"浜田市","town":"宇津井町"},{"zip_code":"6950102","prefecture_kana":"シマネケン","city_kana":"ハマダシ","town_kana":"ウノチョウ","prefecture":"島根県","city":"浜田市","town":"宇野町"},{"zip_code":"6970002","prefecture_kana":"シマネケン","city_kana":"ハマダシ","town_kana":"ウブユチョウ","prefecture":"島根県","city":"浜田市","town":"生湯町"},{"zip_code":"6970044","prefecture_kana":"シマネケン","city_kana":"ハマダシ","town_kana":"エビスチョウ","prefecture":"島根県","city":"浜田市","town":"蛭子町"},{"zip_code":"6950103","prefecture_kana":"シマネケン","city_kana":"ハマダシ","town_kana":"オオガネチョウ","prefecture":"島根県","city":"浜田市","town":"大金町"},{"zip_code":"6970053","prefecture_kana":"シマネケン","city_kana":"ハマダシ","town_kana":"オオツジチョウ","prefecture":"島根県","city":"浜田市","town":"大辻町"},{"zip_code":"6971338","prefecture_kana":"シマネケン","city_kana":"ハマダシ","town_kana":"オリイチョウ","prefecture":"島根県","city":"浜田市","town":"折居町"},{"zip_code":"6970061","prefecture_kana":"シマネケン","city_kana":"ハマダシ","town_kana":"カサガラチョウ","prefecture":"島根県","city":"浜田市","town":"笠柄町"},{"zip_code":"6970041","prefecture_kana":"シマネケン","city_kana":"ハマダシ","town_kana":"カタニワチョウ","prefecture":"島根県","city":"浜田市","town":"片庭町"},{"zip_code":"6970302","prefecture_kana":"シマネケン","city_kana":"ハマダシ","town_kana":"カナギチョウイマフク","prefecture":"島根県","city":"浜田市","town":"金城町今福"},{"zip_code":"6970305","prefecture_kana":"シマネケン","city_kana":"ハマダシ","town_kana":"カナギチョウイリノ","prefecture":"島根県","city":"浜田市","town":"金城町入野"},{"zip_code":"6970304","prefecture_kana":"シマネケン","city_kana":"ハマダシ","town_kana":"カナギチョウウツイ","prefecture":"島根県","city":"浜田市","town":"金城町宇津井"},{"zip_code":"6970301","prefecture_kana":"シマネケン","city_kana":"ハマダシ","town_kana":"カナギチョウオイバラ","prefecture":"島根県","city":"浜田市","town":"金城町追原"},{"zip_code":"6970213","prefecture_kana":"シマネケン","city_kana":"ハマダシ","town_kana":"カナギチョウオグニ","prefecture":"島根県","city":"浜田市","town":"金城町小国"},{"zip_code":"6970122","prefecture_kana":"シマネケン","city_kana":"ハマダシ","town_kana":"カナギチョウカミクルバラ","prefecture":"島根県","city":"浜田市","town":"金城町上来原"},{"zip_code":"6970303","prefecture_kana":"シマネケン","city_kana":"ハマダシ","town_kana":"カナギチョウクザ","prefecture":"島根県","city":"浜田市","town":"金城町久佐"},{"zip_code":"6970123","prefecture_kana":"シマネケン","city_kana":"ハマダシ","town_kana":"カナギチョウシチジョウ","prefecture":"島根県","city":"浜田市","town":"金城町七条"},{"zip_code":"6970121","prefecture_kana":"シマネケン","city_kana":"ハマダシ","town_kana":"カナギチョウシモクルバラ","prefecture":"島根県","city":"浜田市","town":"金城町下来原"},{"zip_code":"6970212","prefecture_kana":"シマネケン","city_kana":"ハマダシ","town_kana":"カナギチョウナガタ","prefecture":"島根県","city":"浜田市","town":"金城町長田"},{"zip_code":"6970211","prefecture_kana":"シマネケン","city_kana":"ハマダシ","town_kana":"カナギチョウハザ","prefecture":"島根県","city":"浜田市","town":"金城町波佐"},{"zip_code":"6970005","prefecture_kana":"シマネケン","city_kana":"ハマダシ","town_kana":"カミコウチョウ","prefecture":"島根県","city":"浜田市","town":"上府町"},{"zip_code":"6970045","prefecture_kana":"シマネケン","city_kana":"ハマダシ","town_kana":"キョウマチ","prefecture":"島根県","city":"浜田市","town":"京町"},{"zip_code":"6970004","prefecture_kana":"シマネケン","city_kana":"ハマダシ","town_kana":"クシロチョウ","prefecture":"島根県","city":"浜田市","town":"久代町"},{"zip_code":"6970024","prefecture_kana":"シマネケン","city_kana":"ハマダシ","town_kana":"クロカワチョウ","prefecture":"島根県","city":"浜田市","town":"黒川町"},{"zip_code":"6970007","prefecture_kana":"シマネケン","city_kana":"ハマダシ","town_kana":"コウサチョウ","prefecture":"島根県","city":"浜田市","town":"高佐町"},{"zip_code":"6970012","prefecture_kana":"シマネケン","city_kana":"ハマダシ","town_kana":"コウチチョウ","prefecture":"島根県","city":"浜田市","town":"河内町"},{"zip_code":"6970003","prefecture_kana":"シマネケン","city_kana":"ハマダシ","town_kana":"コクブチョウ","prefecture":"島根県","city":"浜田市","town":"国分町"},{"zip_code":"6970031","prefecture_kana":"シマネケン","city_kana":"ハマダシ","town_kana":"コンヤマチ","prefecture":"島根県","city":"浜田市","town":"紺屋町"},{"zip_code":"6970043","prefecture_kana":"シマネケン","city_kana":"ハマダシ","town_kana":"サカエマチ","prefecture":"島根県","city":"浜田市","town":"栄町"},{"zip_code":"6970311","prefecture_kana":"シマネケン","city_kana":"ハマダシ","town_kana":"サノチョウ","prefecture":"島根県","city":"浜田市","town":"佐野町"},{"zip_code":"6970013","prefecture_kana":"シマネケン","city_kana":"ハマダシ","town_kana":"サンガイチョウ","prefecture":"島根県","city":"浜田市","town":"三階町"},{"zip_code":"6970047","prefecture_kana":"シマネケン","city_kana":"ハマダシ","town_kana":"シミズチョウ","prefecture":"島根県","city":"浜田市","town":"清水町"},{"zip_code":"6950101","prefecture_kana":"シマネケン","city_kana":"ハマダシ","town_kana":"シモアリフクチョウ","prefecture":"島根県","city":"浜田市","town":"下有福町"},{"zip_code":"6970006","prefecture_kana":"シマネケン","city_kana":"ハマダシ","town_kana":"シモコウチョウ","prefecture":"島根県","city":"浜田市","town":"下府町"},{"zip_code":"6970046","prefecture_kana":"シマネケン","city_kana":"ハマダシ","town_kana":"シンコウチョウ","prefecture":"島根県","city":"浜田市","town":"真光町"},{"zip_code":"6970037","prefecture_kana":"シマネケン","city_kana":"ハマダシ","town_kana":"シンマチ","prefecture":"島根県","city":"浜田市","town":"新町"},{"zip_code":"6970035","prefecture_kana":"シマネケン","city_kana":"ハマダシ","town_kana":"スギドチョウ","prefecture":"島根県","city":"浜田市","town":"杉戸町"},{"zip_code":"6971321","prefecture_kana":"シマネケン","city_kana":"ハマダシ","town_kana":"スフチョウ","prefecture":"島根県","city":"浜田市","town":"周布町"},{"zip_code":"6970051","prefecture_kana":"シマネケン","city_kana":"ハマダシ","town_kana":"セトガシマチョウ","prefecture":"島根県","city":"浜田市","town":"瀬戸ケ島町"},{"zip_code":"6970057","prefecture_kana":"シマネケン","city_kana":"ハマダシ","town_kana":"セトミチョウ","prefecture":"島根県","city":"浜田市","town":"瀬戸見町"},{"zip_code":"6970054","prefecture_kana":"シマネケン","city_kana":"ハマダシ","town_kana":"タカタチョウ","prefecture":"島根県","city":"浜田市","town":"高田町"},{"zip_code":"6970015","prefecture_kana":"シマネケン","city_kana":"ハマダシ","town_kana":"タケザコチョウ","prefecture":"島根県","city":"浜田市","town":"竹迫町"},{"zip_code":"6971332","prefecture_kana":"シマネケン","city_kana":"ハマダシ","town_kana":"タバセチョウ","prefecture":"島根県","city":"浜田市","town":"田橋町"},{"zip_code":"6970026","prefecture_kana":"シマネケン","city_kana":"ハマダシ","town_kana":"タマチ","prefecture":"島根県","city":"浜田市","town":"田町"},{"zip_code":"6971326","prefecture_kana":"シマネケン","city_kana":"ハマダシ","town_kana":"チワチョウ","prefecture":"島根県","city":"浜田市","town":"治和町"},{"zip_code":"6971327","prefecture_kana":"シマネケン","city_kana":"ハマダシ","town_kana":"ツマチョウ","prefecture":"島根県","city":"浜田市","town":"津摩町"},{"zip_code":"6970036","prefecture_kana":"シマネケン","city_kana":"ハマダシ","town_kana":"テンマチョウ","prefecture":"島根県","city":"浜田市","town":"天満町"},{"zip_code":"6970001","prefecture_kana":"シマネケン","city_kana":"ハマダシ","town_kana":"トノウラチョウ","prefecture":"島根県","city":"浜田市","town":"外ノ浦町"},{"zip_code":"6970027","prefecture_kana":"シマネケン","city_kana":"ハマダシ","town_kana":"トノマチ","prefecture":"島根県","city":"浜田市","town":"殿町"},{"zip_code":"6970065","prefecture_kana":"シマネケン","city_kana":"ハマダシ","town_kana":"ナイムラチョウ（ジュウモンジバラ）","prefecture":"島根県","city":"浜田市","town":"内村町（十文字原）"},{"zip_code":"6971331","prefecture_kana":"シマネケン","city_kana":"ハマダシ","town_kana":"ナイムラチョウ（ソノタ）","prefecture":"島根県","city":"浜田市","town":"内村町（その他）"},{"zip_code":"6970023","prefecture_kana":"シマネケン","city_kana":"ハマダシ","town_kana":"ナガサワチョウ","prefecture":"島根県","city":"浜田市","town":"長沢町"},{"zip_code":"6970063","prefecture_kana":"シマネケン","city_kana":"ハマダシ","town_kana":"ナガハマチョウ","prefecture":"島根県","city":"浜田市","town":"長浜町"},{"zip_code":"6970014","prefecture_kana":"シマネケン","city_kana":"ハマダシ","town_kana":"ナガミチョウ","prefecture":"島根県","city":"浜田市","town":"長見町"},{"zip_code":"6971333","prefecture_kana":"シマネケン","city_kana":"ハマダシ","town_kana":"ナベイシチョウ","prefecture":"島根県","city":"浜田市","town":"鍋石町"},{"zip_code":"6970042","prefecture_kana":"シマネケン","city_kana":"ハマダシ","town_kana":"ニシキマチ","prefecture":"島根県","city":"浜田市","town":"錦町"},{"zip_code":"6971337","prefecture_kana":"シマネケン","city_kana":"ハマダシ","town_kana":"ニシムラチョウ","prefecture":"島根県","city":"浜田市","town":"西村町"},{"zip_code":"6970016","prefecture_kana":"シマネケン","city_kana":"ハマダシ","town_kana":"ノバラチョウ","prefecture":"島根県","city":"浜田市","town":"野原町"},{"zip_code":"6970017","prefecture_kana":"シマネケン","city_kana":"ハマダシ","town_kana":"ハライチョウ","prefecture":"島根県","city":"浜田市","town":"原井町"},{"zip_code":"6970056","prefecture_kana":"シマネケン","city_kana":"ハマダシ","town_kana":"ハラチョウ","prefecture":"島根県","city":"浜田市","town":"原町"},{"zip_code":"6971322","prefecture_kana":"シマネケン","city_kana":"ハマダシ","town_kana":"ヒナシチョウ","prefecture":"島根県","city":"浜田市","town":"日脚町"},{"zip_code":"6970025","prefecture_kana":"シマネケン","city_kana":"ハマダシ","town_kana":"ビワマチ","prefecture":"島根県","city":"浜田市","town":"琵琶町"},{"zip_code":"6971324","prefecture_kana":"シマネケン","city_kana":"ハマダシ","town_kana":"ホノデチョウ","prefecture":"島根県","city":"浜田市","town":"穂出町"},{"zip_code":"6970021","prefecture_kana":"シマネケン","city_kana":"ハマダシ","town_kana":"マツバラチョウ","prefecture":"島根県","city":"浜田市","town":"松原町"},{"zip_code":"6993302","prefecture_kana":"シマネケン","city_kana":"ハマダシ","town_kana":"ミスミチョウアシダニ","prefecture":"島根県","city":"浜田市","town":"三隅町芦谷"},{"zip_code":"6993215","prefecture_kana":"シマネケン","city_kana":"ハマダシ","town_kana":"ミスミチョウイガワ","prefecture":"島根県","city":"浜田市","town":"三隅町井川"},{"zip_code":"6993301","prefecture_kana":"シマネケン","city_kana":"ハマダシ","town_kana":"ミスミチョウイノ","prefecture":"島根県","city":"浜田市","town":"三隅町井野"},{"zip_code":"6993226","prefecture_kana":"シマネケン","city_kana":"ハマダシ","town_kana":"ミスミチョウオカミ","prefecture":"島根県","city":"浜田市","town":"三隅町岡見"},{"zip_code":"6993222","prefecture_kana":"シマネケン","city_kana":"ハマダシ","town_kana":"ミスミチョウオリイ","prefecture":"島根県","city":"浜田市","town":"三隅町折居"},{"zip_code":"6993216","prefecture_kana":"シマネケン","city_kana":"ハマダシ","town_kana":"ミスミチョウカミコワ","prefecture":"島根県","city":"浜田市","town":"三隅町上古和"},{"zip_code":"6993217","prefecture_kana":"シマネケン","city_kana":"ハマダシ","town_kana":"ミスミチョウクロサワ","prefecture":"島根県","city":"浜田市","town":"三隅町黒沢"},{"zip_code":"6993213","prefecture_kana":"シマネケン","city_kana":"ハマダシ","town_kana":"ミスミチョウコウチ","prefecture":"島根県","city":"浜田市","town":"三隅町河内"},{"zip_code":"6993223","prefecture_kana":"シマネケン","city_kana":"ハマダシ","town_kana":"ミスミチョウサイゴウチ","prefecture":"島根県","city":"浜田市","town":"三隅町西河内"},{"zip_code":"6993215","prefecture_kana":"シマネケン","city_kana":"ハマダシ","town_kana":"ミスミチョウシモコワ","prefecture":"島根県","city":"浜田市","town":"三隅町下古和"},{"zip_code":"6993221","prefecture_kana":"シマネケン","city_kana":"ハマダシ","town_kana":"ミスミチョウヒガシヒラバラ","prefecture":"島根県","city":"浜田市","town":"三隅町東平原"},{"zip_code":"6993225","prefecture_kana":"シマネケン","city_kana":"ハマダシ","town_kana":"ミスミチョウフルイチバ","prefecture":"島根県","city":"浜田市","town":"三隅町古市場"},{"zip_code":"6993211","prefecture_kana":"シマネケン","city_kana":"ハマダシ","town_kana":"ミスミチョウミスミ","prefecture":"島根県","city":"浜田市","town":"三隅町三隅"},{"zip_code":"6993224","prefecture_kana":"シマネケン","city_kana":"ハマダシ","town_kana":"ミスミチョウミナトウラ","prefecture":"島根県","city":"浜田市","town":"三隅町湊浦"},{"zip_code":"6993212","prefecture_kana":"シマネケン","city_kana":"ハマダシ","town_kana":"ミスミチョウムカイノタ","prefecture":"島根県","city":"浜田市","town":"三隅町向野田"},{"zip_code":"6993303","prefecture_kana":"シマネケン","city_kana":"ハマダシ","town_kana":"ミスミチョウムロダニ","prefecture":"島根県","city":"浜田市","town":"三隅町室谷"},{"zip_code":"6993214","prefecture_kana":"シマネケン","city_kana":"ハマダシ","town_kana":"ミスミチョウヤバラ","prefecture":"島根県","city":"浜田市","town":"三隅町矢原"},{"zip_code":"6970052","prefecture_kana":"シマネケン","city_kana":"ハマダシ","town_kana":"ミナトマチ","prefecture":"島根県","city":"浜田市","town":"港町"},{"zip_code":"6970055","prefecture_kana":"シマネケン","city_kana":"ハマダシ","town_kana":"モトハマチョウ","prefecture":"島根県","city":"浜田市","town":"元浜町"},{"zip_code":"6971215","prefecture_kana":"シマネケン","city_kana":"ハマダシ","town_kana":"ヤサカチョウイナシロ","prefecture":"島根県","city":"浜田市","town":"弥栄町稲代"},{"zip_code":"6971214","prefecture_kana":"シマネケン","city_kana":"ハマダシ","town_kana":"ヤサカチョウオオツボ","prefecture":"島根県","city":"浜田市","town":"弥栄町大坪"},{"zip_code":"6971202","prefecture_kana":"シマネケン","city_kana":"ハマダシ","town_kana":"ヤサカチョウオサカ","prefecture":"島根県","city":"浜田市","town":"弥栄町小坂"},{"zip_code":"6971204","prefecture_kana":"シマネケン","city_kana":"ハマダシ","town_kana":"ヤサカチョウカドタ","prefecture":"島根県","city":"浜田市","town":"弥栄町門田"},{"zip_code":"6971122","prefecture_kana":"シマネケン","city_kana":"ハマダシ","town_kana":"ヤサカチョウキツカ","prefecture":"島根県","city":"浜田市","town":"弥栄町木都賀"},{"zip_code":"6971203","prefecture_kana":"シマネケン","city_kana":"ハマダシ","town_kana":"ヤサカチョウタカウチ","prefecture":"島根県","city":"浜田市","town":"弥栄町高内"},{"zip_code":"6971123","prefecture_kana":"シマネケン","city_kana":"ハマダシ","town_kana":"ヤサカチョウタノハラ","prefecture":"島根県","city":"浜田市","town":"弥栄町田野原"},{"zip_code":"6971201","prefecture_kana":"シマネケン","city_kana":"ハマダシ","town_kana":"ヤサカチョウトチギ","prefecture":"島根県","city":"浜田市","town":"弥栄町栃木"},{"zip_code":"6971211","prefecture_kana":"シマネケン","city_kana":"ハマダシ","town_kana":"ヤサカチョウナガヤスホンゴウ","prefecture":"島根県","city":"浜田市","town":"弥栄町長安本郷"},{"zip_code":"6971121","prefecture_kana":"シマネケン","city_kana":"ハマダシ","town_kana":"ヤサカチョウノサカ","prefecture":"島根県","city":"浜田市","town":"弥栄町野坂"},{"zip_code":"6971213","prefecture_kana":"シマネケン","city_kana":"ハマダシ","town_kana":"ヤサカチョウホドハラ","prefecture":"島根県","city":"浜田市","town":"弥栄町程原"},{"zip_code":"6971212","prefecture_kana":"シマネケン","city_kana":"ハマダシ","town_kana":"ヤサカチョウミサト","prefecture":"島根県","city":"浜田市","town":"弥栄町三里"},{"zip_code":"6971336","prefecture_kana":"シマネケン","city_kana":"ハマダシ","town_kana":"ヨコヤマチョウ","prefecture":"島根県","city":"浜田市","town":"横山町"},{"zip_code":"6971325","prefecture_kana":"シマネケン","city_kana":"ハマダシ","town_kana":"ヨシジチョウ","prefecture":"島根県","city":"浜田市","town":"吉地町"},{"zip_code":"6930000","prefecture_kana":"シマネケン","city_kana":"イズモシ","town_kana":"イカニケイサイガナイバアイ","prefecture":"島根県","city":"出雲市","town":"以下に掲載がない場合"},{"zip_code":"6930213","prefecture_kana":"シマネケン","city_kana":"イズモシ","town_kana":"アサヤマチョウ","prefecture":"島根県","city":"出雲市","town":"朝山町"},{"zip_code":"6930035","prefecture_kana":"シマネケン","city_kana":"イズモシ","town_kana":"アシワタチョウ","prefecture":"島根県","city":"出雲市","town":"芦渡町"},{"zip_code":"6930044","prefecture_kana":"シマネケン","city_kana":"イズモシ","town_kana":"アラカヤチョウ","prefecture":"島根県","city":"出雲市","town":"荒茅町"},{"zip_code":"6930027","prefecture_kana":"シマネケン","city_kana":"イズモシ","town_kana":"イダイミナミマチ","prefecture":"島根県","city":"出雲市","town":"医大南町"},{"zip_code":"6930071","prefecture_kana":"シマネケン","city_kana":"イズモシ","town_kana":"イナオカチョウ","prefecture":"島根県","city":"出雲市","town":"稲岡町"},{"zip_code":"6910024","prefecture_kana":"シマネケン","city_kana":"イズモシ","town_kana":"イノメチョウ","prefecture":"島根県","city":"出雲市","town":"猪目町"},{"zip_code":"6930001","prefecture_kana":"シマネケン","city_kana":"イズモシ","town_kana":"イマイチチョウ","prefecture":"島根県","city":"出雲市","town":"今市町"},{"zip_code":"6930002","prefecture_kana":"シマネケン","city_kana":"イズモシ","town_kana":"イマイチチョウキタホンマチ","prefecture":"島根県","city":"出雲市","town":"今市町北本町"},{"zip_code":"6930003","prefecture_kana":"シマネケン","city_kana":"イズモシ","town_kana":"イマイチチョウミナミホンマチ","prefecture":"島根県","city":"出雲市","town":"今市町南本町"},{"zip_code":"6910042","prefecture_kana":"シマネケン","city_kana":"イズモシ","town_kana":"ウップルイチョウ","prefecture":"島根県","city":"出雲市","town":"十六島町"},{"zip_code":"6930105","prefecture_kana":"シマネケン","city_kana":"イズモシ","town_kana":"ウナテチョウ","prefecture":"島根県","city":"出雲市","town":"宇那手町"},{"zip_code":"6930007","prefecture_kana":"シマネケン","city_kana":"イズモシ","town_kana":"エキキタマチ","prefecture":"島根県","city":"出雲市","town":"駅北町"},{"zip_code":"6930008","prefecture_kana":"シマネケン","city_kana":"イズモシ","town_kana":"エキミナミマチ","prefecture":"島根県","city":"出雲市","town":"駅南町"},{"zip_code":"6930017","prefecture_kana":"シマネケン","city_kana":"イズモシ","town_kana":"エダオオツチョウ","prefecture":"島根県","city":"出雲市","town":"枝大津町"},{"zip_code":"6930056","prefecture_kana":"シマネケン","city_kana":"イズモシ","town_kana":"エタチョウ","prefecture":"島根県","city":"出雲市","town":"江田町"},{"zip_code":"6930023","prefecture_kana":"シマネケン","city_kana":"イズモシ","town_kana":"エンヤアリハラチョウ","prefecture":"島根県","city":"出雲市","town":"塩冶有原町"},{"zip_code":"6930024","prefecture_kana":"シマネケン","city_kana":"イズモシ","town_kana":"エンヤカンマエ","prefecture":"島根県","city":"出雲市","town":"塩冶神前"},{"zip_code":"6930028","prefecture_kana":"シマネケン","city_kana":"イズモシ","town_kana":"エンヤゼンコウチョウ","prefecture":"島根県","city":"出雲市","town":"塩冶善行町"},{"zip_code":"6930021","prefecture_kana":"シマネケン","city_kana":"イズモシ","town_kana":"エンヤチョウ","prefecture":"島根県","city":"出雲市","town":"塩冶町"},{"zip_code":"6930025","prefecture_kana":"シマネケン","city_kana":"イズモシ","town_kana":"エンヤチョウミナミマチ","prefecture":"島根県","city":"出雲市","town":"塩冶町南町"},{"zip_code":"6930026","prefecture_kana":"シマネケン","city_kana":"イズモシ","town_kana":"エンヤハラマチ","prefecture":"島根県","city":"出雲市","town":"塩冶原町"},{"zip_code":"6990821","prefecture_kana":"シマネケン","city_kana":"イズモシ","town_kana":"オオジマチョウ","prefecture":"島根県","city":"出雲市","town":"大島町"},{"zip_code":"6930015","prefecture_kana":"シマネケン","city_kana":"イズモシ","town_kana":"オオツアサクラ","prefecture":"島根県","city":"出雲市","town":"大津朝倉"},{"zip_code":"6930063","prefecture_kana":"シマネケン","city_kana":"イズモシ","town_kana":"オオツカチョウ","prefecture":"島根県","city":"出雲市","town":"大塚町"},{"zip_code":"6930012","prefecture_kana":"シマネケン","city_kana":"イズモシ","town_kana":"オオツシンザキチョウ","prefecture":"島根県","city":"出雲市","town":"大津新崎町"},{"zip_code":"6930011","prefecture_kana":"シマネケン","city_kana":"イズモシ","town_kana":"オオツチョウ","prefecture":"島根県","city":"出雲市","town":"大津町"},{"zip_code":"6910063","prefecture_kana":"シマネケン","city_kana":"イズモシ","town_kana":"オカダチョウ","prefecture":"島根県","city":"出雲市","town":"岡田町"},{"zip_code":"6930013","prefecture_kana":"シマネケン","city_kana":"イズモシ","town_kana":"オギトチチョウ","prefecture":"島根県","city":"出雲市","town":"荻杼町"},{"zip_code":"6910021","prefecture_kana":"シマネケン","city_kana":"イズモシ","town_kana":"オクウガチョウ","prefecture":"島根県","city":"出雲市","town":"奥宇賀町"},{"zip_code":"6930216","prefecture_kana":"シマネケン","city_kana":"イズモシ","town_kana":"オッタチチョウ","prefecture":"島根県","city":"出雲市","town":"乙立町"},{"zip_code":"6930051","prefecture_kana":"シマネケン","city_kana":"イズモシ","town_kana":"オヤマチョウ","prefecture":"島根県","city":"出雲市","town":"小山町"},{"zip_code":"6910043","prefecture_kana":"シマネケン","city_kana":"イズモシ","town_kana":"カマウラチョウ","prefecture":"島根県","city":"出雲市","town":"釜浦町"},{"zip_code":"6930022","prefecture_kana":"シマネケン","city_kana":"イズモシ","town_kana":"カミエンヤチョウ","prefecture":"島根県","city":"出雲市","town":"上塩冶町"},{"zip_code":"6910064","prefecture_kana":"シマネケン","city_kana":"イズモシ","town_kana":"カミオカダチョウ","prefecture":"島根県","city":"出雲市","town":"上岡田町"},{"zip_code":"6930101","prefecture_kana":"シマネケン","city_kana":"イズモシ","town_kana":"カミシマチョウ","prefecture":"島根県","city":"出雲市","town":"上島町"},{"zip_code":"6910023","prefecture_kana":"シマネケン","city_kana":"イズモシ","town_kana":"カラカワチョウ","prefecture":"島根県","city":"出雲市","town":"唐川町"},{"zip_code":"6910025","prefecture_kana":"シマネケン","city_kana":"イズモシ","town_kana":"カワシモチョウ","prefecture":"島根県","city":"出雲市","town":"河下町"},{"zip_code":"6930034","prefecture_kana":"シマネケン","city_kana":"イズモシ","town_kana":"カンドチョウ","prefecture":"島根県","city":"出雲市","town":"神門町"},{"zip_code":"6930072","prefecture_kana":"シマネケン","city_kana":"イズモシ","town_kana":"クサカチョウ","prefecture":"島根県","city":"出雲市","town":"日下町"},{"zip_code":"6910034","prefecture_kana":"シマネケン","city_kana":"イズモシ","town_kana":"クタミチョウ","prefecture":"島根県","city":"出雲市","town":"久多見町"},{"zip_code":"6910014","prefecture_kana":"シマネケン","city_kana":"イズモシ","town_kana":"クチウガチョウ","prefecture":"島根県","city":"出雲市","town":"口宇賀町"},{"zip_code":"6910011","prefecture_kana":"シマネケン","city_kana":"イズモシ","town_kana":"クニドミチョウ","prefecture":"島根県","city":"出雲市","town":"国富町"},{"zip_code":"6910052","prefecture_kana":"シマネケン","city_kana":"イズモシ","town_kana":"コイヅチョウ","prefecture":"島根県","city":"出雲市","town":"小伊津町"},{"zip_code":"6910074","prefecture_kana":"シマネケン","city_kana":"イズモシ","town_kana":"コザカイチョウ","prefecture":"島根県","city":"出雲市","town":"小境町"},{"zip_code":"6930031","prefecture_kana":"シマネケン","city_kana":"イズモシ","town_kana":"コシチョウ","prefecture":"島根県","city":"出雲市","town":"古志町"},{"zip_code":"6910041","prefecture_kana":"シマネケン","city_kana":"イズモシ","town_kana":"コヅチョウ","prefecture":"島根県","city":"出雲市","town":"小津町"},{"zip_code":"6990817","prefecture_kana":"シマネケン","city_kana":"イズモシ","town_kana":"コリョウチョウイタヅ","prefecture":"島根県","city":"出雲市","town":"湖陵町板津"},{"zip_code":"6990816","prefecture_kana":"シマネケン","city_kana":"イズモシ","town_kana":"コリョウチョウオオイケ","prefecture":"島根県","city":"出雲市","town":"湖陵町大池"},{"zip_code":"6990811","prefecture_kana":"シマネケン","city_kana":"イズモシ","town_kana":"コリョウチョウサシウミ","prefecture":"島根県","city":"出雲市","town":"湖陵町差海"},{"zip_code":"6990813","prefecture_kana":"シマネケン","city_kana":"イズモシ","town_kana":"コリョウチョウサンブ","prefecture":"島根県","city":"出雲市","town":"湖陵町三部"},{"zip_code":"6990814","prefecture_kana":"シマネケン","city_kana":"イズモシ","town_kana":"コリョウチョウジョウラクジ","prefecture":"島根県","city":"出雲市","town":"湖陵町常楽寺"},{"zip_code":"6990812","prefecture_kana":"シマネケン","city_kana":"イズモシ","town_kana":"コリョウチョウニブ","prefecture":"島根県","city":"出雲市","town":"湖陵町二部"},{"zip_code":"6990815","prefecture_kana":"シマネケン","city_kana":"イズモシ","town_kana":"コリョウチョウハタムラ","prefecture":"島根県","city":"出雲市","town":"湖陵町畑村"},{"zip_code":"6910015","prefecture_kana":"シマネケン","city_kana":"イズモシ","town_kana":"サイゴウチョウ","prefecture":"島根県","city":"出雲市","town":"西郷町"},{"zip_code":"6910051","prefecture_kana":"シマネケン","city_kana":"イズモシ","town_kana":"サカウラチョウ","prefecture":"島根県","city":"出雲市","town":"坂浦町"},{"zip_code":"6930501","prefecture_kana":"シマネケン","city_kana":"イズモシ","town_kana":"サダチョウアザバラ","prefecture":"島根県","city":"出雲市","town":"佐田町朝原"},{"zip_code":"6930504","prefecture_kana":"シマネケン","city_kana":"イズモシ","town_kana":"サダチョウオオロ","prefecture":"島根県","city":"出雲市","town":"佐田町大呂"},{"zip_code":"6930526","prefecture_kana":"シマネケン","city_kana":"イズモシ","town_kana":"サダチョウカミハシナミ","prefecture":"島根県","city":"出雲市","town":"佐田町上橋波"},{"zip_code":"6930521","prefecture_kana":"シマネケン","city_kana":"イズモシ","town_kana":"サダチョウケヅ","prefecture":"島根県","city":"出雲市","town":"佐田町毛津"},{"zip_code":"6930523","prefecture_kana":"シマネケン","city_kana":"イズモシ","town_kana":"サダチョウサツメ","prefecture":"島根県","city":"出雲市","town":"佐田町佐津目"},{"zip_code":"6930525","prefecture_kana":"シマネケン","city_kana":"イズモシ","town_kana":"サダチョウシモハシナミ","prefecture":"島根県","city":"出雲市","town":"佐田町下橋波"},{"zip_code":"6930503","prefecture_kana":"シマネケン","city_kana":"イズモシ","town_kana":"サダチョウスサ","prefecture":"島根県","city":"出雲市","town":"佐田町須佐"},{"zip_code":"6930524","prefecture_kana":"シマネケン","city_kana":"イズモシ","town_kana":"サダチョウタカツヤ","prefecture":"島根県","city":"出雲市","town":"佐田町高津屋"},{"zip_code":"6930506","prefecture_kana":"シマネケン","city_kana":"イズモシ","town_kana":"サダチョウタンベ","prefecture":"島根県","city":"出雲市","town":"佐田町反辺"},{"zip_code":"6930502","prefecture_kana":"シマネケン","city_kana":"イズモシ","town_kana":"サダチョウハラダ","prefecture":"島根県","city":"出雲市","town":"佐田町原田"},{"zip_code":"6930512","prefecture_kana":"シマネケン","city_kana":"イズモシ","town_kana":"サダチョウヒガシムラ","prefecture":"島根県","city":"出雲市","town":"佐田町東村"},{"zip_code":"6930522","prefecture_kana":"シマネケン","city_kana":"イズモシ","town_kana":"サダチョウヒトクボタ","prefecture":"島根県","city":"出雲市","town":"佐田町一窪田"},{"zip_code":"6930511","prefecture_kana":"シマネケン","city_kana":"イズモシ","town_kana":"サダチョウヤワタバラ","prefecture":"島根県","city":"出雲市","town":"佐田町八幡原"},{"zip_code":"6930505","prefecture_kana":"シマネケン","city_kana":"イズモシ","town_kana":"サダチョウヨシノ","prefecture":"島根県","city":"出雲市","town":"佐田町吉野"},{"zip_code":"6930064","prefecture_kana":"シマネケン","city_kana":"イズモシ","town_kana":"サトカタチョウ","prefecture":"島根県","city":"出雲市","town":"里方町"},{"zip_code":"6910044","prefecture_kana":"シマネケン","city_kana":"イズモシ","town_kana":"シオツチョウ","prefecture":"島根県","city":"出雲市","town":"塩津町"},{"zip_code":"6910004","prefecture_kana":"シマネケン","city_kana":"イズモシ","town_kana":"シマムラチョウ","prefecture":"島根県","city":"出雲市","town":"島村町"},{"zip_code":"6930032","prefecture_kana":"シマネケン","city_kana":"イズモシ","town_kana":"シモコシチョウ","prefecture":"島根県","city":"出雲市","town":"下古志町"},{"zip_code":"6930046","prefecture_kana":"シマネケン","city_kana":"イズモシ","town_kana":"シモヨコチョウ","prefecture":"島根県","city":"出雲市","town":"下横町"},{"zip_code":"6930006","prefecture_kana":"シマネケン","city_kana":"イズモシ","town_kana":"シロエダチョウ","prefecture":"島根県","city":"出雲市","town":"白枝町"},{"zip_code":"6990822","prefecture_kana":"シマネケン","city_kana":"イズモシ","town_kana":"ジンザイオキチョウ","prefecture":"島根県","city":"出雲市","town":"神西沖町"},{"zip_code":"6990825","prefecture_kana":"シマネケン","city_kana":"イズモシ","town_kana":"ジンザイシンマチ","prefecture":"島根県","city":"出雲市","town":"神西新町"},{"zip_code":"6930042","prefecture_kana":"シマネケン","city_kana":"イズモシ","town_kana":"ソトゾノチョウ","prefecture":"島根県","city":"出雲市","town":"外園町"},{"zip_code":"6910076","prefecture_kana":"シマネケン","city_kana":"イズモシ","town_kana":"ソノチョウ","prefecture":"島根県","city":"出雲市","town":"園町"},{"zip_code":"6990762","prefecture_kana":"シマネケン","city_kana":"イズモシ","town_kana":"タイシャチョウウド","prefecture":"島根県","city":"出雲市","town":"大社町鵜峠"},{"zip_code":"6990764","prefecture_kana":"シマネケン","city_kana":"イズモシ","town_kana":"タイシャチョウウリュウ","prefecture":"島根県","city":"出雲市","town":"大社町宇龍"},{"zip_code":"6990722","prefecture_kana":"シマネケン","city_kana":"イズモシ","town_kana":"タイシャチョウキタアラキ","prefecture":"島根県","city":"出雲市","town":"大社町北荒木"},{"zip_code":"6990702","prefecture_kana":"シマネケン","city_kana":"イズモシ","town_kana":"タイシャチョウキヅキキタ","prefecture":"島根県","city":"出雲市","town":"大社町杵築北"},{"zip_code":"6990751","prefecture_kana":"シマネケン","city_kana":"イズモシ","town_kana":"タイシャチョウキヅキニシ","prefecture":"島根県","city":"出雲市","town":"大社町杵築西"},{"zip_code":"6990701","prefecture_kana":"シマネケン","city_kana":"イズモシ","town_kana":"タイシャチョウキヅキヒガシ","prefecture":"島根県","city":"出雲市","town":"大社町杵築東"},{"zip_code":"6990711","prefecture_kana":"シマネケン","city_kana":"イズモシ","town_kana":"タイシャチョウキヅキミナミ","prefecture":"島根県","city":"出雲市","town":"大社町杵築南"},{"zip_code":"6990761","prefecture_kana":"シマネケン","city_kana":"イズモシ","town_kana":"タイシャチョウサギウラ","prefecture":"島根県","city":"出雲市","town":"大社町鷺浦"},{"zip_code":"6990721","prefecture_kana":"シマネケン","city_kana":"イズモシ","town_kana":"タイシャチョウシュウリメン","prefecture":"島根県","city":"出雲市","town":"大社町修理免"},{"zip_code":"6990741","prefecture_kana":"シマネケン","city_kana":"イズモシ","town_kana":"タイシャチョウナカアラキ","prefecture":"島根県","city":"出雲市","town":"大社町中荒木"},{"zip_code":"6990732","prefecture_kana":"シマネケン","city_kana":"イズモシ","town_kana":"タイシャチョウニュウナン","prefecture":"島根県","city":"出雲市","town":"大社町入南"},{"zip_code":"6990733","prefecture_kana":"シマネケン","city_kana":"イズモシ","town_kana":"タイシャチョウヒシネ","prefecture":"島根県","city":"出雲市","town":"大社町菱根"},{"zip_code":"6990763","prefecture_kana":"シマネケン","city_kana":"イズモシ","town_kana":"タイシャチョウヒノミサキ","prefecture":"島根県","city":"出雲市","town":"大社町日御碕"},{"zip_code":"6990731","prefecture_kana":"シマネケン","city_kana":"イズモシ","town_kana":"タイシャチョウヨウカン","prefecture":"島根県","city":"出雲市","town":"大社町遙堪"},{"zip_code":"6930066","prefecture_kana":"シマネケン","city_kana":"イズモシ","town_kana":"タカオカチョウ","prefecture":"島根県","city":"出雲市","town":"高岡町"},{"zip_code":"6930053","prefecture_kana":"シマネケン","city_kana":"イズモシ","town_kana":"タカマツチョウ","prefecture":"島根県","city":"出雲市","town":"高松町"},{"zip_code":"6990905","prefecture_kana":"シマネケン","city_kana":"イズモシ","town_kana":"タキチョウオクタギ","prefecture":"島根県","city":"出雲市","town":"多伎町奥田儀"},{"zip_code":"6990903","prefecture_kana":"シマネケン","city_kana":"イズモシ","town_kana":"タキチョウオダ","prefecture":"島根県","city":"出雲市","town":"多伎町小田"},{"zip_code":"6990906","prefecture_kana":"シマネケン","city_kana":"イズモシ","town_kana":"タキチョウカンバラ","prefecture":"島根県","city":"出雲市","town":"多伎町神原"},{"zip_code":"6990904","prefecture_kana":"シマネケン","city_kana":"イズモシ","town_kana":"タキチョウクチタギ","prefecture":"島根県","city":"出雲市","town":"多伎町口田儀"},{"zip_code":"6990901","prefecture_kana":"シマネケン","city_kana":"イズモシ","town_kana":"タキチョウクムラ","prefecture":"島根県","city":"出雲市","town":"多伎町久村"},{"zip_code":"6990902","prefecture_kana":"シマネケン","city_kana":"イズモシ","town_kana":"タキチョウタキ","prefecture":"島根県","city":"出雲市","town":"多伎町多岐"},{"zip_code":"6910062","prefecture_kana":"シマネケン","city_kana":"イズモシ","town_kana":"タクダニチョウ","prefecture":"島根県","city":"出雲市","town":"多久谷町"},{"zip_code":"6910061","prefecture_kana":"シマネケン","city_kana":"イズモシ","town_kana":"タクチョウ","prefecture":"島根県","city":"出雲市","town":"多久町"},{"zip_code":"6930014","prefecture_kana":"シマネケン","city_kana":"イズモシ","town_kana":"タケシチョウ","prefecture":"島根県","city":"出雲市","town":"武志町"},{"zip_code":"6930033","prefecture_kana":"シマネケン","city_kana":"イズモシ","town_kana":"チイミヤチョウ","prefecture":"島根県","city":"出雲市","town":"知井宮町"},{"zip_code":"6910071","prefecture_kana":"シマネケン","city_kana":"イズモシ","town_kana":"チゴウチョウ","prefecture":"島根県","city":"出雲市","town":"地合町"},{"zip_code":"6930029","prefecture_kana":"シマネケン","city_kana":"イズモシ","town_kana":"ツキヤマシンマチ","prefecture":"島根県","city":"出雲市","town":"築山新町"},{"zip_code":"6930057","prefecture_kana":"シマネケン","city_kana":"イズモシ","town_kana":"ツネマツチョウ","prefecture":"島根県","city":"出雲市","town":"常松町"},{"zip_code":"6930005","prefecture_kana":"シマネケン","city_kana":"イズモシ","town_kana":"テンジンチョウ","prefecture":"島根県","city":"出雲市","town":"天神町"},{"zip_code":"6910065","prefecture_kana":"シマネケン","city_kana":"イズモシ","town_kana":"トウゴウチョウ","prefecture":"島根県","city":"出雲市","town":"東郷町"},{"zip_code":"6910031","prefecture_kana":"シマネケン","city_kana":"イズモシ","town_kana":"トウフクチョウ","prefecture":"島根県","city":"出雲市","town":"東福町"},{"zip_code":"6930214","prefecture_kana":"シマネケン","city_kana":"イズモシ","town_kana":"トコロハラチョウ","prefecture":"島根県","city":"出雲市","town":"所原町"},{"zip_code":"6930062","prefecture_kana":"シマネケン","city_kana":"イズモシ","town_kana":"ナカノチョウ","prefecture":"島根県","city":"出雲市","town":"中野町"},{"zip_code":"6930081","prefecture_kana":"シマネケン","city_kana":"イズモシ","town_kana":"ナカノミホキタ","prefecture":"島根県","city":"出雲市","town":"中野美保北"},{"zip_code":"6930082","prefecture_kana":"シマネケン","city_kana":"イズモシ","town_kana":"ナカノミホミナミ","prefecture":"島根県","city":"出雲市","town":"中野美保南"},{"zip_code":"6930043","prefecture_kana":"シマネケン","city_kana":"イズモシ","town_kana":"ナガハマチョウ","prefecture":"島根県","city":"出雲市","town":"長浜町"},{"zip_code":"6910003","prefecture_kana":"シマネケン","city_kana":"イズモシ","town_kana":"ナダブンチョウ","prefecture":"島根県","city":"出雲市","town":"灘分町"},{"zip_code":"6990824","prefecture_kana":"シマネケン","city_kana":"イズモシ","town_kana":"ニシジンザイチョウ","prefecture":"島根県","city":"出雲市","town":"西神西町"},{"zip_code":"6930037","prefecture_kana":"シマネケン","city_kana":"イズモシ","town_kana":"ニシシンマチ","prefecture":"島根県","city":"出雲市","town":"西新町"},{"zip_code":"6930041","prefecture_kana":"シマネケン","city_kana":"イズモシ","town_kana":"ニシゾノチョウ","prefecture":"島根県","city":"出雲市","town":"西園町"},{"zip_code":"6910012","prefecture_kana":"シマネケン","city_kana":"イズモシ","town_kana":"ニシダイチョウ","prefecture":"島根県","city":"出雲市","town":"西代町"},{"zip_code":"6930102","prefecture_kana":"シマネケン","city_kana":"イズモシ","town_kana":"ニシダニチョウ","prefecture":"島根県","city":"出雲市","town":"西谷町"},{"zip_code":"6930073","prefecture_kana":"シマネケン","city_kana":"イズモシ","town_kana":"ニシハヤシギチョウ","prefecture":"島根県","city":"出雲市","town":"西林木町"},{"zip_code":"6910002","prefecture_kana":"シマネケン","city_kana":"イズモシ","town_kana":"ニシヒラタチョウ","prefecture":"島根県","city":"出雲市","town":"西平田町"},{"zip_code":"6910066","prefecture_kana":"シマネケン","city_kana":"イズモシ","town_kana":"ノイシダニチョウ","prefecture":"島根県","city":"出雲市","town":"野石谷町"},{"zip_code":"6910072","prefecture_kana":"シマネケン","city_kana":"イズモシ","town_kana":"ノザトチョウ","prefecture":"島根県","city":"出雲市","town":"野郷町"},{"zip_code":"6930103","prefecture_kana":"シマネケン","city_kana":"イズモシ","town_kana":"ノジリチョウ","prefecture":"島根県","city":"出雲市","town":"野尻町"},{"zip_code":"6930054","prefecture_kana":"シマネケン","city_kana":"イズモシ","town_kana":"ハマチョウ","prefecture":"島根県","city":"出雲市","town":"浜町"},{"zip_code":"6930104","prefecture_kana":"シマネケン","city_kana":"イズモシ","town_kana":"ヒエバラチョウ","prefecture":"島根県","city":"出雲市","town":"稗原町"},{"zip_code":"6990823","prefecture_kana":"シマネケン","city_kana":"イズモシ","town_kana":"ヒガシジンザイチョウ","prefecture":"島根県","city":"出雲市","town":"東神西町"},{"zip_code":"6930045","prefecture_kana":"シマネケン","city_kana":"イズモシ","town_kana":"ヒガシゾノチョウ","prefecture":"島根県","city":"出雲市","town":"東園町"},{"zip_code":"6930074","prefecture_kana":"シマネケン","city_kana":"イズモシ","town_kana":"ヒガシハヤシギチョウ","prefecture":"島根県","city":"出雲市","town":"東林木町"},{"zip_code":"6990615","prefecture_kana":"シマネケン","city_kana":"イズモシ","town_kana":"ヒカワチョウアイカワ","prefecture":"島根県","city":"出雲市","town":"斐川町併川"},{"zip_code":"6990611","prefecture_kana":"シマネケン","city_kana":"イズモシ","town_kana":"ヒカワチョウアグ","prefecture":"島根県","city":"出雲市","town":"斐川町阿宮"},{"zip_code":"6990644","prefecture_kana":"シマネケン","city_kana":"イズモシ","town_kana":"ヒカワチョウイマザイケ","prefecture":"島根県","city":"出雲市","town":"斐川町今在家"},{"zip_code":"6990551","prefecture_kana":"シマネケン","city_kana":"イズモシ","town_kana":"ヒカワチョウオキノス","prefecture":"島根県","city":"出雲市","town":"斐川町沖洲"},{"zip_code":"6990501","prefecture_kana":"シマネケン","city_kana":"イズモシ","town_kana":"ヒカワチョウガクトウ","prefecture":"島根県","city":"出雲市","town":"斐川町学頭"},{"zip_code":"6990505","prefecture_kana":"シマネケン","city_kana":"イズモシ","town_kana":"ヒカワチョウカミショウバラ","prefecture":"島根県","city":"出雲市","town":"斐川町上庄原"},{"zip_code":"6990624","prefecture_kana":"シマネケン","city_kana":"イズモシ","town_kana":"ヒカワチョウカミナオエ","prefecture":"島根県","city":"出雲市","town":"斐川町上直江"},{"zip_code":"6990503","prefecture_kana":"シマネケン","city_kana":"イズモシ","town_kana":"ヒカワチョウカンバ","prefecture":"島根県","city":"出雲市","town":"斐川町神庭"},{"zip_code":"6990613","prefecture_kana":"シマネケン","city_kana":"イズモシ","town_kana":"ヒカワチョウカンピ","prefecture":"島根県","city":"出雲市","town":"斐川町神氷"},{"zip_code":"6990614","prefecture_kana":"シマネケン","city_kana":"イズモシ","town_kana":"ヒカワチョウグイ","prefecture":"島根県","city":"出雲市","town":"斐川町求院"},{"zip_code":"6990553","prefecture_kana":"シマネケン","city_kana":"イズモシ","town_kana":"ヒカワチョウクロメ","prefecture":"島根県","city":"出雲市","town":"斐川町黒目"},{"zip_code":"6990555","prefecture_kana":"シマネケン","city_kana":"イズモシ","town_kana":"ヒカワチョウサカダ","prefecture":"島根県","city":"出雲市","town":"斐川町坂田"},{"zip_code":"6990554","prefecture_kana":"シマネケン","city_kana":"イズモシ","town_kana":"ヒカワチョウサンブイチ","prefecture":"島根県","city":"出雲市","town":"斐川町三分市"},{"zip_code":"6990612","prefecture_kana":"シマネケン","city_kana":"イズモシ","town_kana":"ヒカワチョウシュッサイ","prefecture":"島根県","city":"出雲市","town":"斐川町出西"},{"zip_code":"6990502","prefecture_kana":"シマネケン","city_kana":"イズモシ","town_kana":"ヒカワチョウショウバラ","prefecture":"島根県","city":"出雲市","town":"斐川町荘原"},{"zip_code":"6990621","prefecture_kana":"シマネケン","city_kana":"イズモシ","town_kana":"ヒカワチョウトビムラ","prefecture":"島根県","city":"出雲市","town":"斐川町富村"},{"zip_code":"6990623","prefecture_kana":"シマネケン","city_kana":"イズモシ","town_kana":"ヒカワチョウトリイ","prefecture":"島根県","city":"出雲市","town":"斐川町鳥井"},{"zip_code":"6990631","prefecture_kana":"シマネケン","city_kana":"イズモシ","town_kana":"ヒカワチョウナオエ","prefecture":"島根県","city":"出雲市","town":"斐川町直江"},{"zip_code":"6990552","prefecture_kana":"シマネケン","city_kana":"イズモシ","town_kana":"ヒカワチョウナカノス","prefecture":"島根県","city":"出雲市","town":"斐川町中洲"},{"zip_code":"6990622","prefecture_kana":"シマネケン","city_kana":"イズモシ","town_kana":"ヒカワチョウナシマ","prefecture":"島根県","city":"出雲市","town":"斐川町名島"},{"zip_code":"6990643","prefecture_kana":"シマネケン","city_kana":"イズモシ","town_kana":"ヒカワチョウハラシカ","prefecture":"島根県","city":"出雲市","town":"斐川町原鹿"},{"zip_code":"6990642","prefecture_kana":"シマネケン","city_kana":"イズモシ","town_kana":"ヒカワチョウフクドミ","prefecture":"島根県","city":"出雲市","town":"斐川町福富"},{"zip_code":"6990504","prefecture_kana":"シマネケン","city_kana":"イズモシ","town_kana":"ヒカワチョウミツガネ","prefecture":"島根県","city":"出雲市","town":"斐川町三絡"},{"zip_code":"6990641","prefecture_kana":"シマネケン","city_kana":"イズモシ","town_kana":"ヒカワチョウミナミ","prefecture":"島根県","city":"出雲市","town":"斐川町美南"},{"zip_code":"6930068","prefecture_kana":"シマネケン","city_kana":"イズモシ","town_kana":"ヒメバラ（１−４チョウメ）","prefecture":"島根県","city":"出雲市","town":"姫原（１〜４丁目）"},{"zip_code":"6930061","prefecture_kana":"シマネケン","city_kana":"イズモシ","town_kana":"ヒメバラチョウ","prefecture":"島根県","city":"出雲市","town":"姫原町"},{"zip_code":"6910001","prefecture_kana":"シマネケン","city_kana":"イズモシ","town_kana":"ヒラタチョウ","prefecture":"島根県","city":"出雲市","town":"平田町"},{"zip_code":"6930065","prefecture_kana":"シマネケン","city_kana":"イズモシ","town_kana":"ヒラノチョウ","prefecture":"島根県","city":"出雲市","town":"平野町"},{"zip_code":"6930106","prefecture_kana":"シマネケン","city_kana":"イズモシ","town_kana":"フナツチョウ","prefecture":"島根県","city":"出雲市","town":"船津町"},{"zip_code":"6930036","prefecture_kana":"シマネケン","city_kana":"イズモシ","town_kana":"ヘイセイチョウ","prefecture":"島根県","city":"出雲市","town":"平成町"},{"zip_code":"6910022","prefecture_kana":"シマネケン","city_kana":"イズモシ","town_kana":"ベッシヨチョウ","prefecture":"島根県","city":"出雲市","town":"別所町"},{"zip_code":"6910032","prefecture_kana":"シマネケン","city_kana":"イズモシ","town_kana":"ホンジョウチョウ","prefecture":"島根県","city":"出雲市","town":"本庄町"},{"zip_code":"6930211","prefecture_kana":"シマネケン","city_kana":"イズモシ","town_kana":"マキキタマチ","prefecture":"島根県","city":"出雲市","town":"馬木北町"},{"zip_code":"6930212","prefecture_kana":"シマネケン","city_kana":"イズモシ","town_kana":"マキチョウ","prefecture":"島根県","city":"出雲市","town":"馬木町"},{"zip_code":"6930052","prefecture_kana":"シマネケン","city_kana":"イズモシ","town_kana":"マツヨリシモチョウ","prefecture":"島根県","city":"出雲市","town":"松寄下町"},{"zip_code":"6910033","prefecture_kana":"シマネケン","city_kana":"イズモシ","town_kana":"マンダチョウ","prefecture":"島根県","city":"出雲市","town":"万田町"},{"zip_code":"6910013","prefecture_kana":"シマネケン","city_kana":"イズモシ","town_kana":"ミダミチョウ","prefecture":"島根県","city":"出雲市","town":"美談町"},{"zip_code":"6910053","prefecture_kana":"シマネケン","city_kana":"イズモシ","town_kana":"ミツチョウ","prefecture":"島根県","city":"出雲市","town":"三津町"},{"zip_code":"6910045","prefecture_kana":"シマネケン","city_kana":"イズモシ","town_kana":"ミホチョウ","prefecture":"島根県","city":"出雲市","town":"美保町"},{"zip_code":"6930215","prefecture_kana":"シマネケン","city_kana":"イズモシ","town_kana":"ミミクチョウ","prefecture":"島根県","city":"出雲市","town":"見々久町"},{"zip_code":"6930055","prefecture_kana":"シマネケン","city_kana":"イズモシ","town_kana":"ヤシマチョウ","prefecture":"島根県","city":"出雲市","town":"八島町"},{"zip_code":"6930058","prefecture_kana":"シマネケン","city_kana":"イズモシ","town_kana":"ヤノチョウ","prefecture":"島根県","city":"出雲市","town":"矢野町"},{"zip_code":"6930067","prefecture_kana":"シマネケン","city_kana":"イズモシ","town_kana":"ヤビチョウ","prefecture":"島根県","city":"出雲市","town":"矢尾町"},{"zip_code":"6910073","prefecture_kana":"シマネケン","city_kana":"イズモシ","town_kana":"ヨシノチョウ","prefecture":"島根県","city":"出雲市","town":"美野町"},{"zip_code":"6910075","prefecture_kana":"シマネケン","city_kana":"イズモシ","town_kana":"ロクオンジチョウ","prefecture":"島根県","city":"出雲市","town":"鹿園寺町"},{"zip_code":"6930004","prefecture_kana":"シマネケン","city_kana":"イズモシ","town_kana":"ワタリハシチョウ","prefecture":"島根県","city":"出雲市","town":"渡橋町"},{"zip_code":"6980000","prefecture_kana":"シマネケン","city_kana":"マスダシ","town_kana":"イカニケイサイガナイバアイ","prefecture":"島根県","city":"益田市","town":"以下に掲載がない場合"},{"zip_code":"6993672","prefecture_kana":"シマネケン","city_kana":"マスダシ","town_kana":"アカガリチョウ","prefecture":"島根県","city":"益田市","town":"赤雁町"},{"zip_code":"6980034","prefecture_kana":"シマネケン","city_kana":"マスダシ","town_kana":"アカギチョウ","prefecture":"島根県","city":"益田市","town":"赤城町"},{"zip_code":"6980027","prefecture_kana":"シマネケン","city_kana":"マスダシ","town_kana":"アケボノヒガシマチ","prefecture":"島根県","city":"益田市","town":"あけぼの東町"},{"zip_code":"6980025","prefecture_kana":"シマネケン","city_kana":"マスダシ","town_kana":"アケボノニシマチ","prefecture":"島根県","city":"益田市","town":"あけぼの西町"},{"zip_code":"6980026","prefecture_kana":"シマネケン","city_kana":"マスダシ","town_kana":"アケボノホンマチ","prefecture":"島根県","city":"益田市","town":"あけぼの本町"},{"zip_code":"6982253","prefecture_kana":"シマネケン","city_kana":"マスダシ","town_kana":"アサカチョウ","prefecture":"島根県","city":"益田市","town":"愛栄町"},{"zip_code":"6980022","prefecture_kana":"シマネケン","city_kana":"マスダシ","town_kana":"アリアケチョウ","prefecture":"島根県","city":"益田市","town":"有明町"},{"zip_code":"6993765","prefecture_kana":"シマネケン","city_kana":"マスダシ","town_kana":"アリタチョウ","prefecture":"島根県","city":"益田市","town":"有田町"},{"zip_code":"6980037","prefecture_kana":"シマネケン","city_kana":"マスダシ","town_kana":"イイダチョウ","prefecture":"島根県","city":"益田市","town":"飯田町"},{"zip_code":"6993761","prefecture_kana":"シマネケン","city_kana":"マスダシ","town_kana":"イイノウラチョウ","prefecture":"島根県","city":"益田市","town":"飯浦町"},{"zip_code":"6982142","prefecture_kana":"シマネケン","city_kana":"マスダシ","town_kana":"イチハラチョウ","prefecture":"島根県","city":"益田市","town":"市原町"},{"zip_code":"6995123","prefecture_kana":"シマネケン","city_kana":"マスダシ","town_kana":"イノキダニチョウ","prefecture":"島根県","city":"益田市","town":"猪木谷町"},{"zip_code":"6980014","prefecture_kana":"シマネケン","city_kana":"マスダシ","town_kana":"イワクラチョウ","prefecture":"島根県","city":"益田市","town":"岩倉町"},{"zip_code":"6980051","prefecture_kana":"シマネケン","city_kana":"マスダシ","town_kana":"ウチダチョウ（イワミクウコウ）","prefecture":"島根県","city":"益田市","town":"内田町（石見空港）"},{"zip_code":"6982143","prefecture_kana":"シマネケン","city_kana":"マスダシ","town_kana":"ウチダチョウ（ソノタ）","prefecture":"島根県","city":"益田市","town":"内田町（その他）"},{"zip_code":"6980413","prefecture_kana":"シマネケン","city_kana":"マスダシ","town_kana":"ウマダニチョウ","prefecture":"島根県","city":"益田市","town":"馬谷町"},{"zip_code":"6995127","prefecture_kana":"シマネケン","city_kana":"マスダシ","town_kana":"ウメツキチョウ","prefecture":"島根県","city":"益田市","town":"梅月町"},{"zip_code":"6980024","prefecture_kana":"シマネケン","city_kana":"マスダシ","town_kana":"エキマエチョウ","prefecture":"島根県","city":"益田市","town":"駅前町"},{"zip_code":"6993674","prefecture_kana":"シマネケン","city_kana":"マスダシ","town_kana":"オオクサチョウ","prefecture":"島根県","city":"益田市","town":"大草町"},{"zip_code":"6980012","prefecture_kana":"シマネケン","city_kana":"マスダシ","town_kana":"オオタニチョウ","prefecture":"島根県","city":"益田市","town":"大谷町"},{"zip_code":"6993675","prefecture_kana":"シマネケン","city_kana":"マスダシ","town_kana":"オトコチョウ","prefecture":"島根県","city":"益田市","town":"乙子町"},{"zip_code":"6980003","prefecture_kana":"シマネケン","city_kana":"マスダシ","town_kana":"オトヨシチョウ","prefecture":"島根県","city":"益田市","town":"乙吉町"},{"zip_code":"6982252","prefecture_kana":"シマネケン","city_kana":"マスダシ","town_kana":"カシバラチョウ","prefecture":"島根県","city":"益田市","town":"柏原町"},{"zip_code":"6982254","prefecture_kana":"シマネケン","city_kana":"マスダシ","town_kana":"カツラヒラチョウ","prefecture":"島根県","city":"益田市","town":"桂平町"},{"zip_code":"6993501","prefecture_kana":"シマネケン","city_kana":"マスダシ","town_kana":"カネヤマチョウ","prefecture":"島根県","city":"益田市","town":"金山町"},{"zip_code":"6982255","prefecture_kana":"シマネケン","city_kana":"マスダシ","town_kana":"カミクロダニチョウ","prefecture":"島根県","city":"益田市","town":"上黒谷町"},{"zip_code":"6980045","prefecture_kana":"シマネケン","city_kana":"マスダシ","town_kana":"カモシマキタマチ","prefecture":"島根県","city":"益田市","town":"かもしま北町"},{"zip_code":"6980047","prefecture_kana":"シマネケン","city_kana":"マスダシ","town_kana":"カモシマニシマチ","prefecture":"島根県","city":"益田市","town":"かもしま西町"},{"zip_code":"6980046","prefecture_kana":"シマネケン","city_kana":"マスダシ","town_kana":"カモシマヒガシマチ","prefecture":"島根県","city":"益田市","town":"かもしま東町"},{"zip_code":"6982145","prefecture_kana":"シマネケン","city_kana":"マスダシ","town_kana":"カワノボリチョウ","prefecture":"島根県","city":"益田市","town":"川登町"},{"zip_code":"6995133","prefecture_kana":"シマネケン","city_kana":"マスダシ","town_kana":"カンダチョウ","prefecture":"島根県","city":"益田市","town":"神田町"},{"zip_code":"6993764","prefecture_kana":"シマネケン","city_kana":"マスダシ","town_kana":"キアミチョウ","prefecture":"島根県","city":"益田市","town":"喜阿弥町"},{"zip_code":"6993502","prefecture_kana":"シマネケン","city_kana":"マスダシ","town_kana":"キベチョウ","prefecture":"島根県","city":"益田市","town":"木部町"},{"zip_code":"6980013","prefecture_kana":"シマネケン","city_kana":"マスダシ","town_kana":"ククモチョウ","prefecture":"島根県","city":"益田市","town":"久々茂町"},{"zip_code":"6980001","prefecture_kana":"シマネケン","city_kana":"マスダシ","town_kana":"クシロチョウ","prefecture":"島根県","city":"益田市","town":"久城町"},{"zip_code":"6982251","prefecture_kana":"シマネケン","city_kana":"マスダシ","town_kana":"クロスチョウ","prefecture":"島根県","city":"益田市","town":"黒周町"},{"zip_code":"6993762","prefecture_kana":"シマネケン","city_kana":"マスダシ","town_kana":"コハマチョウ","prefecture":"島根県","city":"益田市","town":"小浜町"},{"zip_code":"6980021","prefecture_kana":"シマネケン","city_kana":"マスダシ","town_kana":"サイワイチョウ","prefecture":"島根県","city":"益田市","town":"幸町"},{"zip_code":"6980035","prefecture_kana":"シマネケン","city_kana":"マスダシ","town_kana":"サカエマチ","prefecture":"島根県","city":"益田市","town":"栄町"},{"zip_code":"6993503","prefecture_kana":"シマネケン","city_kana":"マスダシ","town_kana":"シモタネチョウ","prefecture":"島根県","city":"益田市","town":"下種町"},{"zip_code":"6980414","prefecture_kana":"シマネケン","city_kana":"マスダシ","town_kana":"シモハダチョウ","prefecture":"島根県","city":"益田市","town":"下波田町"},{"zip_code":"6980002","prefecture_kana":"シマネケン","city_kana":"マスダシ","town_kana":"シモホンゴウチョウ","prefecture":"島根県","city":"益田市","town":"下本郷町"},{"zip_code":"6980007","prefecture_kana":"シマネケン","city_kana":"マスダシ","town_kana":"ショウワチョウ","prefecture":"島根県","city":"益田市","town":"昭和町"},{"zip_code":"6995125","prefecture_kana":"シマネケン","city_kana":"マスダシ","town_kana":"シライワチョウ","prefecture":"島根県","city":"益田市","town":"白岩町"},{"zip_code":"6982141","prefecture_kana":"シマネケン","city_kana":"マスダシ","town_kana":"シラカミチョウ","prefecture":"島根県","city":"益田市","town":"白上町"},{"zip_code":"6980036","prefecture_kana":"シマネケン","city_kana":"マスダシ","town_kana":"スコチョウ","prefecture":"島根県","city":"益田市","town":"須子町"},{"zip_code":"6995124","prefecture_kana":"シマネケン","city_kana":"マスダシ","town_kana":"ススキバラチョウ","prefecture":"島根県","city":"益田市","town":"薄原町"},{"zip_code":"6995126","prefecture_kana":"シマネケン","city_kana":"マスダシ","town_kana":"スミムラチョウ","prefecture":"島根県","city":"益田市","town":"隅村町"},{"zip_code":"6980011","prefecture_kana":"シマネケン","city_kana":"マスダシ","town_kana":"ソメバチョウ","prefecture":"島根県","city":"益田市","town":"染羽町"},{"zip_code":"6980041","prefecture_kana":"シマネケン","city_kana":"マスダシ","town_kana":"タカツ","prefecture":"島根県","city":"益田市","town":"高津"},{"zip_code":"6980041","prefecture_kana":"シマネケン","city_kana":"マスダシ","town_kana":"タカツチョウ","prefecture":"島根県","city":"益田市","town":"高津町"},{"zip_code":"6980031","prefecture_kana":"シマネケン","city_kana":"マスダシ","town_kana":"タダチョウ","prefecture":"島根県","city":"益田市","town":"多田町"},{"zip_code":"6993504","prefecture_kana":"シマネケン","city_kana":"マスダシ","town_kana":"タネムラチョウ","prefecture":"島根県","city":"益田市","town":"種村町"},{"zip_code":"6993671","prefecture_kana":"シマネケン","city_kana":"マスダシ","town_kana":"ツダチョウ","prefecture":"島根県","city":"益田市","town":"津田町"},{"zip_code":"6993505","prefecture_kana":"シマネケン","city_kana":"マスダシ","town_kana":"ツチダチョウ","prefecture":"島根県","city":"益田市","town":"土田町"},{"zip_code":"6980016","prefecture_kana":"シマネケン","city_kana":"マスダシ","town_kana":"ドイチョウ","prefecture":"島根県","city":"益田市","town":"土井町"},{"zip_code":"6993676","prefecture_kana":"シマネケン","city_kana":"マスダシ","town_kana":"トウダチョウ","prefecture":"島根県","city":"益田市","town":"遠田町"},{"zip_code":"6980023","prefecture_kana":"シマネケン","city_kana":"マスダシ","town_kana":"トキワチョウ","prefecture":"島根県","city":"益田市","town":"常盤町"},{"zip_code":"6993763","prefecture_kana":"シマネケン","city_kana":"マスダシ","town_kana":"トダチョウ","prefecture":"島根県","city":"益田市","town":"戸田町"},{"zip_code":"6980015","prefecture_kana":"シマネケン","city_kana":"マスダシ","town_kana":"トチヤマチョウ","prefecture":"島根県","city":"益田市","town":"栃山町"},{"zip_code":"6982146","prefecture_kana":"シマネケン","city_kana":"マスダシ","town_kana":"ナカガウチチョウ","prefecture":"島根県","city":"益田市","town":"中垣内町"},{"zip_code":"6980044","prefecture_kana":"シマネケン","city_kana":"マスダシ","town_kana":"ナカズチョウ","prefecture":"島根県","city":"益田市","town":"中須町"},{"zip_code":"6980043","prefecture_kana":"シマネケン","city_kana":"マスダシ","town_kana":"ナカノシマチョウ","prefecture":"島根県","city":"益田市","town":"中島町"},{"zip_code":"6980042","prefecture_kana":"シマネケン","city_kana":"マスダシ","town_kana":"ナカヨシダチョウ","prefecture":"島根県","city":"益田市","town":"中吉田町"},{"zip_code":"6980412","prefecture_kana":"シマネケン","city_kana":"マスダシ","town_kana":"ナガサワチョウ","prefecture":"島根県","city":"益田市","town":"長沢町"},{"zip_code":"6980017","prefecture_kana":"シマネケン","city_kana":"マスダシ","town_kana":"ナナオチョウ","prefecture":"島根県","city":"益田市","town":"七尾町"},{"zip_code":"6993506","prefecture_kana":"シマネケン","city_kana":"マスダシ","town_kana":"ニシヒラバラチョウ","prefecture":"島根県","city":"益田市","town":"西平原町"},{"zip_code":"6980411","prefecture_kana":"シマネケン","city_kana":"マスダシ","town_kana":"ハダチョウ","prefecture":"島根県","city":"益田市","town":"波田町"},{"zip_code":"6980004","prefecture_kana":"シマネケン","city_kana":"マスダシ","town_kana":"ヒガシマチ","prefecture":"島根県","city":"益田市","town":"東町"},{"zip_code":"6981223","prefecture_kana":"シマネケン","city_kana":"マスダシ","town_kana":"ヒキミチョウイシタニ","prefecture":"島根県","city":"益田市","town":"匹見町石谷"},{"zip_code":"6981213","prefecture_kana":"シマネケン","city_kana":"マスダシ","town_kana":"ヒキミチョウオチアイ","prefecture":"島根県","city":"益田市","town":"匹見町落合"},{"zip_code":"6981212","prefecture_kana":"シマネケン","city_kana":"マスダシ","town_kana":"ヒキミチョウシソ","prefecture":"島根県","city":"益田市","town":"匹見町紙祖"},{"zip_code":"6981221","prefecture_kana":"シマネケン","city_kana":"マスダシ","town_kana":"ヒキミチョウスミカワ","prefecture":"島根県","city":"益田市","town":"匹見町澄川"},{"zip_code":"6981211","prefecture_kana":"シマネケン","city_kana":"マスダシ","town_kana":"ヒキミチョウヒキミ","prefecture":"島根県","city":"益田市","town":"匹見町匹見"},{"zip_code":"6981222","prefecture_kana":"シマネケン","city_kana":"マスダシ","town_kana":"ヒキミチョウヒロセ","prefecture":"島根県","city":"益田市","town":"匹見町広瀬"},{"zip_code":"6981201","prefecture_kana":"シマネケン","city_kana":"マスダシ","town_kana":"ヒキミチョウミチカワ","prefecture":"島根県","city":"益田市","town":"匹見町道川"},{"zip_code":"6995121","prefecture_kana":"シマネケン","city_kana":"マスダシ","town_kana":"ヒダリガヤマチョウ","prefecture":"島根県","city":"益田市","town":"左ケ山町"},{"zip_code":"6995122","prefecture_kana":"シマネケン","city_kana":"マスダシ","town_kana":"ホンマタガチョウ","prefecture":"島根県","city":"益田市","town":"本俣賀町"},{"zip_code":"6980005","prefecture_kana":"シマネケン","city_kana":"マスダシ","town_kana":"ホンマチ","prefecture":"島根県","city":"益田市","town":"本町"},{"zip_code":"6980032","prefecture_kana":"シマネケン","city_kana":"マスダシ","town_kana":"ミズワケチョウ","prefecture":"島根県","city":"益田市","town":"水分町"},{"zip_code":"6980213","prefecture_kana":"シマネケン","city_kana":"マスダシ","town_kana":"ミトチョウアサクラ","prefecture":"島根県","city":"益田市","town":"美都町朝倉"},{"zip_code":"6980201","prefecture_kana":"シマネケン","city_kana":"マスダシ","town_kana":"ミトチョウイタイガワ","prefecture":"島根県","city":"益田市","town":"美都町板井川"},{"zip_code":"6980202","prefecture_kana":"シマネケン","city_kana":"マスダシ","town_kana":"ミトチョウウヅカワ","prefecture":"島根県","city":"益田市","town":"美都町宇津川"},{"zip_code":"6980206","prefecture_kana":"シマネケン","city_kana":"マスダシ","town_kana":"ミトチョウクバラ","prefecture":"島根県","city":"益田市","town":"美都町久原"},{"zip_code":"6980211","prefecture_kana":"シマネケン","city_kana":"マスダシ","town_kana":"ミトチョウコバラ","prefecture":"島根県","city":"益田市","town":"美都町小原"},{"zip_code":"6980214","prefecture_kana":"シマネケン","city_kana":"マスダシ","town_kana":"ミトチョウササクラ","prefecture":"島根県","city":"益田市","town":"美都町笹倉"},{"zip_code":"6980212","prefecture_kana":"シマネケン","city_kana":"マスダシ","town_kana":"ミトチョウセンドウ","prefecture":"島根県","city":"益田市","town":"美都町仙道"},{"zip_code":"6980203","prefecture_kana":"シマネケン","city_kana":"マスダシ","town_kana":"ミトチョウツモ","prefecture":"島根県","city":"益田市","town":"美都町都茂"},{"zip_code":"6980207","prefecture_kana":"シマネケン","city_kana":"マスダシ","town_kana":"ミトチョウマルモ","prefecture":"島根県","city":"益田市","town":"美都町丸茂"},{"zip_code":"6980205","prefecture_kana":"シマネケン","city_kana":"マスダシ","town_kana":"ミトチョウミタニ","prefecture":"島根県","city":"益田市","town":"美都町三谷"},{"zip_code":"6980204","prefecture_kana":"シマネケン","city_kana":"マスダシ","town_kana":"ミトチョウヤマモト","prefecture":"島根県","city":"益田市","town":"美都町山本"},{"zip_code":"6993766","prefecture_kana":"シマネケン","city_kana":"マスダシ","town_kana":"ミノジチョウ","prefecture":"島根県","city":"益田市","town":"美濃地町"},{"zip_code":"6980006","prefecture_kana":"シマネケン","city_kana":"マスダシ","town_kana":"ミヤケチョウ","prefecture":"島根県","city":"益田市","town":"三宅町"},{"zip_code":"6995134","prefecture_kana":"シマネケン","city_kana":"マスダシ","town_kana":"ムカイヨコタチョウ","prefecture":"島根県","city":"益田市","town":"向横田町"},{"zip_code":"6982144","prefecture_kana":"シマネケン","city_kana":"マスダシ","town_kana":"ムソウチョウ","prefecture":"島根県","city":"益田市","town":"虫追町"},{"zip_code":"6980033","prefecture_kana":"シマネケン","city_kana":"マスダシ","town_kana":"モトマチ","prefecture":"島根県","city":"益田市","town":"元町"},{"zip_code":"6995131","prefecture_kana":"シマネケン","city_kana":"マスダシ","town_kana":"ヤスドミチョウ","prefecture":"島根県","city":"益田市","town":"安富町"},{"zip_code":"6993673","prefecture_kana":"シマネケン","city_kana":"マスダシ","town_kana":"ヤマオリチョウ","prefecture":"島根県","city":"益田市","town":"山折町"},{"zip_code":"6995132","prefecture_kana":"シマネケン","city_kana":"マスダシ","town_kana":"ヨコタチョウ","prefecture":"島根県","city":"益田市","town":"横田町"},{"zip_code":"6940000","prefecture_kana":"シマネケン","city_kana":"オオダシ","town_kana":"イカニケイサイガナイバアイ","prefecture":"島根県","city":"大田市","town":"以下に掲載がない場合"},{"zip_code":"6992213","prefecture_kana":"シマネケン","city_kana":"オオダシ","town_kana":"アサヤマチョウアサクラ","prefecture":"島根県","city":"大田市","town":"朝山町朝倉"},{"zip_code":"6992212","prefecture_kana":"シマネケン","city_kana":"オオダシ","town_kana":"アサヤマチョウセンヤマ","prefecture":"島根県","city":"大田市","town":"朝山町仙山"},{"zip_code":"6940035","prefecture_kana":"シマネケン","city_kana":"オオダシ","town_kana":"イソタケチョウ","prefecture":"島根県","city":"大田市","town":"五十猛町"},{"zip_code":"6940433","prefecture_kana":"シマネケン","city_kana":"オオダシ","town_kana":"オオシロチョウオオエ","prefecture":"島根県","city":"大田市","town":"大代町大家"},{"zip_code":"6940432","prefecture_kana":"シマネケン","city_kana":"オオダシ","town_kana":"オオシロチョウニイヤ","prefecture":"島根県","city":"大田市","town":"大代町新屋"},{"zip_code":"6940064","prefecture_kana":"シマネケン","city_kana":"オオダシ","town_kana":"オオダチョウオオダ","prefecture":"島根県","city":"大田市","town":"大田町大田"},{"zip_code":"6940062","prefecture_kana":"シマネケン","city_kana":"オオダシ","town_kana":"オオダチョウノジロ","prefecture":"島根県","city":"大田市","town":"大田町野城"},{"zip_code":"6940063","prefecture_kana":"シマネケン","city_kana":"オオダシ","town_kana":"オオダチョウヨシナガ","prefecture":"島根県","city":"大田市","town":"大田町吉永"},{"zip_code":"6940305","prefecture_kana":"シマネケン","city_kana":"オオダシ","town_kana":"オオモリチョウ","prefecture":"島根県","city":"大田市","town":"大森町"},{"zip_code":"6940033","prefecture_kana":"シマネケン","city_kana":"オオダシ","town_kana":"オオヤチョウオオグニ","prefecture":"島根県","city":"大田市","town":"大屋町大国"},{"zip_code":"6940034","prefecture_kana":"シマネケン","city_kana":"オオダシ","town_kana":"オオヤチョウオオヤ","prefecture":"島根県","city":"大田市","town":"大屋町大屋"},{"zip_code":"6940032","prefecture_kana":"シマネケン","city_kana":"オオダシ","town_kana":"オオヤチョウオニムラ","prefecture":"島根県","city":"大田市","town":"大屋町鬼村"},{"zip_code":"6940012","prefecture_kana":"シマネケン","city_kana":"オオダシ","town_kana":"カワイチョウオシハラ","prefecture":"島根県","city":"大田市","town":"川合町忍原"},{"zip_code":"6940011","prefecture_kana":"シマネケン","city_kana":"オオダシ","town_kana":"カワイチョウカワイ","prefecture":"島根県","city":"大田市","town":"川合町川合"},{"zip_code":"6940013","prefecture_kana":"シマネケン","city_kana":"オオダシ","town_kana":"カワイチョウヨシナガ","prefecture":"島根県","city":"大田市","town":"川合町吉永"},{"zip_code":"6940052","prefecture_kana":"シマネケン","city_kana":"オオダシ","town_kana":"クテチョウサツカ","prefecture":"島根県","city":"大田市","town":"久手町刺鹿"},{"zip_code":"6940051","prefecture_kana":"シマネケン","city_kana":"オオダシ","town_kana":"クテチョウハネニシ","prefecture":"島根県","city":"大田市","town":"久手町波根西"},{"zip_code":"6940022","prefecture_kana":"シマネケン","city_kana":"オオダシ","town_kana":"クリチョウイチハラ","prefecture":"島根県","city":"大田市","town":"久利町市原"},{"zip_code":"6940024","prefecture_kana":"シマネケン","city_kana":"オオダシ","town_kana":"クリチョウクリ","prefecture":"島根県","city":"大田市","town":"久利町久利"},{"zip_code":"6940023","prefecture_kana":"シマネケン","city_kana":"オオダシ","town_kana":"クリチョウサマ","prefecture":"島根県","city":"大田市","town":"久利町佐摩"},{"zip_code":"6940025","prefecture_kana":"シマネケン","city_kana":"オオダシ","town_kana":"クリチョウマツシロ","prefecture":"島根県","city":"大田市","town":"久利町松代"},{"zip_code":"6940021","prefecture_kana":"シマネケン","city_kana":"オオダシ","town_kana":"クリチョウユキツネ","prefecture":"島根県","city":"大田市","town":"久利町行恒"},{"zip_code":"6940223","prefecture_kana":"シマネケン","city_kana":"オオダシ","town_kana":"サンベチョウイケダ","prefecture":"島根県","city":"大田市","town":"三瓶町池田"},{"zip_code":"6940221","prefecture_kana":"シマネケン","city_kana":"オオダシ","town_kana":"サンベチョウウヤマ","prefecture":"島根県","city":"大田市","town":"三瓶町上山"},{"zip_code":"6940224","prefecture_kana":"シマネケン","city_kana":"オオダシ","town_kana":"サンベチョウコヤハラ","prefecture":"島根県","city":"大田市","town":"三瓶町小屋原"},{"zip_code":"6940222","prefecture_kana":"シマネケン","city_kana":"オオダシ","town_kana":"サンベチョウシガク","prefecture":"島根県","city":"大田市","town":"三瓶町志学"},{"zip_code":"6940003","prefecture_kana":"シマネケン","city_kana":"オオダシ","town_kana":"サンベチョウタネ","prefecture":"島根県","city":"大田市","town":"三瓶町多根"},{"zip_code":"6940004","prefecture_kana":"シマネケン","city_kana":"オオダシ","town_kana":"サンベチョウノジロ","prefecture":"島根県","city":"大田市","town":"三瓶町野城"},{"zip_code":"6940031","prefecture_kana":"シマネケン","city_kana":"オオダシ","town_kana":"シズマチョウ","prefecture":"島根県","city":"大田市","town":"静間町"},{"zip_code":"6940431","prefecture_kana":"シマネケン","city_kana":"オオダシ","town_kana":"ソジキチョウ","prefecture":"島根県","city":"大田市","town":"祖式町"},{"zip_code":"6992214","prefecture_kana":"シマネケン","city_kana":"オオダシ","town_kana":"トミヤマチョウカンバラ","prefecture":"島根県","city":"大田市","town":"富山町神原"},{"zip_code":"6992215","prefecture_kana":"シマネケン","city_kana":"オオダシ","town_kana":"トミヤマチョウサイザカ","prefecture":"島根県","city":"大田市","town":"富山町才坂"},{"zip_code":"6940061","prefecture_kana":"シマネケン","city_kana":"オオダシ","town_kana":"トミヤマチョウヤマナカ（オシガト）","prefecture":"島根県","city":"大田市","town":"富山町山中（押ケ峠）"},{"zip_code":"6992216","prefecture_kana":"シマネケン","city_kana":"オオダシ","town_kana":"トミヤマチョウヤマナカ（ソノタ）","prefecture":"島根県","city":"大田市","town":"富山町山中（その他）"},{"zip_code":"6940054","prefecture_kana":"シマネケン","city_kana":"オオダシ","town_kana":"トリイチョウトリイ","prefecture":"島根県","city":"大田市","town":"鳥井町鳥井"},{"zip_code":"6940053","prefecture_kana":"シマネケン","city_kana":"オオダシ","town_kana":"トリイチョウトリゴエ","prefecture":"島根県","city":"大田市","town":"鳥井町鳥越"},{"zip_code":"6940042","prefecture_kana":"シマネケン","city_kana":"オオダシ","town_kana":"ナガヒサチョウイナモチ","prefecture":"島根県","city":"大田市","town":"長久町稲用"},{"zip_code":"6940044","prefecture_kana":"シマネケン","city_kana":"オオダシ","town_kana":"ナガヒサチョウツチエ","prefecture":"島根県","city":"大田市","town":"長久町土江"},{"zip_code":"6940041","prefecture_kana":"シマネケン","city_kana":"オオダシ","town_kana":"ナガヒサチョウナガヒサ","prefecture":"島根県","city":"大田市","town":"長久町長久"},{"zip_code":"6940043","prefecture_kana":"シマネケン","city_kana":"オオダシ","town_kana":"ナガヒサチョウノブサト","prefecture":"島根県","city":"大田市","town":"長久町延里"},{"zip_code":"6992305","prefecture_kana":"シマネケン","city_kana":"オオダシ","town_kana":"ニマチョウアマゴウチ","prefecture":"島根県","city":"大田市","town":"仁摩町天河内"},{"zip_code":"6992303","prefecture_kana":"シマネケン","city_kana":"オオダシ","town_kana":"ニマチョウオオグニ","prefecture":"島根県","city":"大田市","town":"仁摩町大国"},{"zip_code":"6992302","prefecture_kana":"シマネケン","city_kana":"オオダシ","town_kana":"ニマチョウタクノ","prefecture":"島根県","city":"大田市","town":"仁摩町宅野"},{"zip_code":"6992301","prefecture_kana":"シマネケン","city_kana":"オオダシ","town_kana":"ニマチョウニマ","prefecture":"島根県","city":"大田市","town":"仁摩町仁万"},{"zip_code":"6992304","prefecture_kana":"シマネケン","city_kana":"オオダシ","town_kana":"ニマチョウマジ","prefecture":"島根県","city":"大田市","town":"仁摩町馬路"},{"zip_code":"6992211","prefecture_kana":"シマネケン","city_kana":"オオダシ","town_kana":"ハネチョウ","prefecture":"島根県","city":"大田市","town":"波根町"},{"zip_code":"6940301","prefecture_kana":"シマネケン","city_kana":"オオダシ","town_kana":"ミナカミチョウオギハラ","prefecture":"島根県","city":"大田市","town":"水上町荻原"},{"zip_code":"6940303","prefecture_kana":"シマネケン","city_kana":"オオダシ","town_kana":"ミナカミチョウシロツキ","prefecture":"島根県","city":"大田市","town":"水上町白坏"},{"zip_code":"6940302","prefecture_kana":"シマネケン","city_kana":"オオダシ","town_kana":"ミナカミチョウフクハラ","prefecture":"島根県","city":"大田市","town":"水上町福原"},{"zip_code":"6940304","prefecture_kana":"シマネケン","city_kana":"オオダシ","town_kana":"ミナカミチョウミクス","prefecture":"島根県","city":"大田市","town":"水上町三久須"},{"zip_code":"6940001","prefecture_kana":"シマネケン","city_kana":"オオダシ","town_kana":"ヤマグチチョウサツメ","prefecture":"島根県","city":"大田市","town":"山口町佐津目"},{"zip_code":"6940002","prefecture_kana":"シマネケン","city_kana":"オオダシ","town_kana":"ヤマグチチョウヤマグチ","prefecture":"島根県","city":"大田市","town":"山口町山口"},{"zip_code":"6992507","prefecture_kana":"シマネケン","city_kana":"オオダシ","town_kana":"ユノツチョウイダ","prefecture":"島根県","city":"大田市","town":"温泉津町井田"},{"zip_code":"6992515","prefecture_kana":"シマネケン","city_kana":"オオダシ","town_kana":"ユノツチョウイマウラ","prefecture":"島根県","city":"大田市","town":"温泉津町今浦"},{"zip_code":"6992505","prefecture_kana":"シマネケン","city_kana":"オオダシ","town_kana":"ユノツチョウオオタ","prefecture":"島根県","city":"大田市","town":"温泉津町太田"},{"zip_code":"6992504","prefecture_kana":"シマネケン","city_kana":"オオダシ","town_kana":"ユノツチョウオギムラ","prefecture":"島根県","city":"大田市","town":"温泉津町荻村"},{"zip_code":"6992513","prefecture_kana":"シマネケン","city_kana":"オオダシ","town_kana":"ユノツチョウカミムラ","prefecture":"島根県","city":"大田市","town":"温泉津町上村"},{"zip_code":"6992511","prefecture_kana":"シマネケン","city_kana":"オオダシ","town_kana":"ユノツチョウコハマ","prefecture":"島根県","city":"大田市","town":"温泉津町小浜"},{"zip_code":"6992503","prefecture_kana":"シマネケン","city_kana":"オオダシ","town_kana":"ユノツチョウニシタ","prefecture":"島根県","city":"大田市","town":"温泉津町西田"},{"zip_code":"6992512","prefecture_kana":"シマネケン","city_kana":"オオダシ","town_kana":"ユノツチョウハンバラ","prefecture":"島根県","city":"大田市","town":"温泉津町飯原"},{"zip_code":"6992506","prefecture_kana":"シマネケン","city_kana":"オオダシ","town_kana":"ユノツチョウフクダ","prefecture":"島根県","city":"大田市","town":"温泉津町福田"},{"zip_code":"6992514","prefecture_kana":"シマネケン","city_kana":"オオダシ","town_kana":"ユノツチョウフクミツ","prefecture":"島根県","city":"大田市","town":"温泉津町福光"},{"zip_code":"6992502","prefecture_kana":"シマネケン","city_kana":"オオダシ","town_kana":"ユノツチョウユサト","prefecture":"島根県","city":"大田市","town":"温泉津町湯里"},{"zip_code":"6992501","prefecture_kana":"シマネケン","city_kana":"オオダシ","town_kana":"ユノツチョウユノツ","prefecture":"島根県","city":"大田市","town":"温泉津町温泉津"},{"zip_code":"6992516","prefecture_kana":"シマネケン","city_kana":"オオダシ","town_kana":"ユノツチョウヨシウラ","prefecture":"島根県","city":"大田市","town":"温泉津町吉浦"},{"zip_code":"6920000","prefecture_kana":"シマネケン","city_kana":"ヤスギシ","town_kana":"イカニケイサイガナイバアイ","prefecture":"島根県","city":"安来市","town":"以下に掲載がない場合"},{"zip_code":"6920001","prefecture_kana":"シマネケン","city_kana":"ヤスギシ","town_kana":"アカエチョウ","prefecture":"島根県","city":"安来市","town":"赤江町"},{"zip_code":"6920052","prefecture_kana":"シマネケン","city_kana":"ヤスギシ","town_kana":"アカサキチョウ","prefecture":"島根県","city":"安来市","town":"赤崎町"},{"zip_code":"6920007","prefecture_kana":"シマネケン","city_kana":"ヤスギシ","town_kana":"アラシマチョウ","prefecture":"島根県","city":"安来市","town":"荒島町"},{"zip_code":"6920066","prefecture_kana":"シマネケン","city_kana":"ヤスギシ","town_kana":"イイナシチョウ","prefecture":"島根県","city":"安来市","town":"飯梨町"},{"zip_code":"6920055","prefecture_kana":"シマネケン","city_kana":"ヤスギシ","town_kana":"イナリチョウ","prefecture":"島根県","city":"安来市","town":"飯生町"},{"zip_code":"6920015","prefecture_kana":"シマネケン","city_kana":"ヤスギシ","town_kana":"イマヅチョウ","prefecture":"島根県","city":"安来市","town":"今津町"},{"zip_code":"6920065","prefecture_kana":"シマネケン","city_kana":"ヤスギシ","town_kana":"イワフネチョウ","prefecture":"島根県","city":"安来市","town":"岩舟町"},{"zip_code":"6920063","prefecture_kana":"シマネケン","city_kana":"ヤスギシ","town_kana":"ウエダチョウ","prefecture":"島根県","city":"安来市","town":"植田町"},{"zip_code":"6920034","prefecture_kana":"シマネケン","city_kana":"ヤスギシ","town_kana":"ウカショウチョウ","prefecture":"島根県","city":"安来市","town":"宇賀荘町"},{"zip_code":"6920057","prefecture_kana":"シマネケン","city_kana":"ヤスギシ","town_kana":"エノシマチョウ","prefecture":"島根県","city":"安来市","town":"恵乃島町"},{"zip_code":"6920042","prefecture_kana":"シマネケン","city_kana":"ヤスギシ","town_kana":"オオツカチョウ","prefecture":"島根県","city":"安来市","town":"大塚町"},{"zip_code":"6920046","prefecture_kana":"シマネケン","city_kana":"ヤスギシ","town_kana":"オリサカチョウ","prefecture":"島根県","city":"安来市","town":"折坂町"},{"zip_code":"6920045","prefecture_kana":"シマネケン","city_kana":"ヤスギシ","town_kana":"カキダニチョウ","prefecture":"島根県","city":"安来市","town":"柿谷町"},{"zip_code":"6920027","prefecture_kana":"シマネケン","city_kana":"ヤスギシ","town_kana":"カドウチョウ","prefecture":"島根県","city":"安来市","town":"門生町"},{"zip_code":"6920002","prefecture_kana":"シマネケン","city_kana":"ヤスギシ","town_kana":"カミサカダチョウ","prefecture":"島根県","city":"安来市","town":"上坂田町"},{"zip_code":"6920043","prefecture_kana":"シマネケン","city_kana":"ヤスギシ","town_kana":"カミヨシダチョウ","prefecture":"島根県","city":"安来市","town":"上吉田町"},{"zip_code":"6920071","prefecture_kana":"シマネケン","city_kana":"ヤスギシ","town_kana":"カメシマチョウ","prefecture":"島根県","city":"安来市","town":"亀島町"},{"zip_code":"6920075","prefecture_kana":"シマネケン","city_kana":"ヤスギシ","town_kana":"カンバチョウ","prefecture":"島根県","city":"安来市","town":"神庭町"},{"zip_code":"6920026","prefecture_kana":"シマネケン","city_kana":"ヤスギシ","town_kana":"キサチョウ","prefecture":"島根県","city":"安来市","town":"吉佐町"},{"zip_code":"6920056","prefecture_kana":"シマネケン","city_kana":"ヤスギシ","town_kana":"キヨイチョウ","prefecture":"島根県","city":"安来市","town":"清井町"},{"zip_code":"6920035","prefecture_kana":"シマネケン","city_kana":"ヤスギシ","town_kana":"キヨセチョウ","prefecture":"島根県","city":"安来市","town":"清瀬町"},{"zip_code":"6920033","prefecture_kana":"シマネケン","city_kana":"ヤスギシ","town_kana":"キヨミズチョウ","prefecture":"島根県","city":"安来市","town":"清水町"},{"zip_code":"6920051","prefecture_kana":"シマネケン","city_kana":"ヤスギシ","town_kana":"キレカワチョウ","prefecture":"島根県","city":"安来市","town":"切川町"},{"zip_code":"6920004","prefecture_kana":"シマネケン","city_kana":"ヤスギシ","town_kana":"クジラチョウ","prefecture":"島根県","city":"安来市","town":"久白町"},{"zip_code":"6920032","prefecture_kana":"シマネケン","city_kana":"ヤスギシ","town_kana":"クノウチョウ","prefecture":"島根県","city":"安来市","town":"九重町"},{"zip_code":"6920023","prefecture_kana":"シマネケン","city_kana":"ヤスギシ","town_kana":"クロイダチョウ","prefecture":"島根県","city":"安来市","town":"黒井田町"},{"zip_code":"6920031","prefecture_kana":"シマネケン","city_kana":"ヤスギシ","town_kana":"サクボチョウ","prefecture":"島根県","city":"安来市","town":"佐久保町"},{"zip_code":"6920062","prefecture_kana":"シマネケン","city_kana":"ヤスギシ","town_kana":"サネマツチョウ","prefecture":"島根県","city":"安来市","town":"実松町"},{"zip_code":"6920053","prefecture_kana":"シマネケン","city_kana":"ヤスギシ","town_kana":"サワチョウ","prefecture":"島根県","city":"安来市","town":"沢町"},{"zip_code":"6920028","prefecture_kana":"シマネケン","city_kana":"ヤスギシ","town_kana":"シオデガオカ","prefecture":"島根県","city":"安来市","town":"汐手が丘"},{"zip_code":"6920024","prefecture_kana":"シマネケン","city_kana":"ヤスギシ","town_kana":"シマタチョウ","prefecture":"島根県","city":"安来市","town":"島田町"},{"zip_code":"6920017","prefecture_kana":"シマネケン","city_kana":"ヤスギシ","town_kana":"シモサカダチョウ","prefecture":"島根県","city":"安来市","town":"下坂田町"},{"zip_code":"6920044","prefecture_kana":"シマネケン","city_kana":"ヤスギシ","town_kana":"シモヨシダチョウ","prefecture":"島根県","city":"安来市","town":"下吉田町"},{"zip_code":"6920021","prefecture_kana":"シマネケン","city_kana":"ヤスギシ","town_kana":"シントカミチョウ","prefecture":"島根県","city":"安来市","town":"新十神町"},{"zip_code":"6920047","prefecture_kana":"シマネケン","city_kana":"ヤスギシ","town_kana":"ソウダチョウ","prefecture":"島根県","city":"安来市","town":"早田町"},{"zip_code":"6920067","prefecture_kana":"シマネケン","city_kana":"ヤスギシ","town_kana":"タヨリチョウ","prefecture":"島根県","city":"安来市","town":"田頼町"},{"zip_code":"6920013","prefecture_kana":"シマネケン","city_kana":"ヤスギシ","town_kana":"ツキザカチョウ","prefecture":"島根県","city":"安来市","town":"月坂町"},{"zip_code":"6920054","prefecture_kana":"シマネケン","city_kana":"ヤスギシ","town_kana":"トシヒロチョウ","prefecture":"島根県","city":"安来市","town":"利弘町"},{"zip_code":"6920041","prefecture_kana":"シマネケン","city_kana":"ヤスギシ","town_kana":"トリギチョウ","prefecture":"島根県","city":"安来市","town":"鳥木町"},{"zip_code":"6920074","prefecture_kana":"シマネケン","city_kana":"ヤスギシ","town_kana":"ナカウミチョウ","prefecture":"島根県","city":"安来市","town":"中海町"},{"zip_code":"6920061","prefecture_kana":"シマネケン","city_kana":"ヤスギシ","town_kana":"ナカヅチョウ","prefecture":"島根県","city":"安来市","town":"中津町"},{"zip_code":"6920003","prefecture_kana":"シマネケン","city_kana":"ヤスギシ","town_kana":"ニシアカエチョウ","prefecture":"島根県","city":"安来市","town":"西赤江町"},{"zip_code":"6920006","prefecture_kana":"シマネケン","city_kana":"ヤスギシ","town_kana":"ニシアラシマチョウ","prefecture":"島根県","city":"安来市","town":"西荒島町"},{"zip_code":"6920058","prefecture_kana":"シマネケン","city_kana":"ヤスギシ","town_kana":"ニシエノシマチョウ","prefecture":"島根県","city":"安来市","town":"西恵乃島町"},{"zip_code":"6920077","prefecture_kana":"シマネケン","city_kana":"ヤスギシ","town_kana":"ニシマツイチョウ","prefecture":"島根県","city":"安来市","town":"西松井町"},{"zip_code":"6920036","prefecture_kana":"シマネケン","city_kana":"ヤスギシ","town_kana":"ノカタチョウ","prefecture":"島根県","city":"安来市","town":"野方町"},{"zip_code":"6920072","prefecture_kana":"シマネケン","city_kana":"ヤスギシ","town_kana":"ノキチョウ","prefecture":"島根県","city":"安来市","town":"能義町"},{"zip_code":"6920321","prefecture_kana":"シマネケン","city_kana":"ヤスギシ","town_kana":"ハクタチョウアカヤ","prefecture":"島根県","city":"安来市","town":"伯太町赤屋"},{"zip_code":"6920213","prefecture_kana":"シマネケン","city_kana":"ヤスギシ","town_kana":"ハクタチョウイジリ","prefecture":"島根県","city":"安来市","town":"伯太町井尻"},{"zip_code":"6920322","prefecture_kana":"シマネケン","city_kana":"ヤスギシ","town_kana":"ハクタチョウカミオダケ","prefecture":"島根県","city":"安来市","town":"伯太町上小竹"},{"zip_code":"6920325","prefecture_kana":"シマネケン","city_kana":"ヤスギシ","town_kana":"ハクタチョウカミジュウネンバタ","prefecture":"島根県","city":"安来市","town":"伯太町上十年畑"},{"zip_code":"6920324","prefecture_kana":"シマネケン","city_kana":"ヤスギシ","town_kana":"ハクタチョウクサノ","prefecture":"島根県","city":"安来市","town":"伯太町草野"},{"zip_code":"6920323","prefecture_kana":"シマネケン","city_kana":"ヤスギシ","town_kana":"ハクタチョウシモオダケ","prefecture":"島根県","city":"安来市","town":"伯太町下小竹"},{"zip_code":"6920326","prefecture_kana":"シマネケン","city_kana":"ヤスギシ","town_kana":"ハクタチョウシモジュウネンバタ","prefecture":"島根県","city":"安来市","town":"伯太町下十年畑"},{"zip_code":"6920214","prefecture_kana":"シマネケン","city_kana":"ヤスギシ","town_kana":"ハクタチョウスヤマフクドメ","prefecture":"島根県","city":"安来市","town":"伯太町須山福冨"},{"zip_code":"6920215","prefecture_kana":"シマネケン","city_kana":"ヤスギシ","town_kana":"ハクタチョウタカエスンジ","prefecture":"島根県","city":"安来市","town":"伯太町高江寸次"},{"zip_code":"6920218","prefecture_kana":"シマネケン","city_kana":"ヤスギシ","town_kana":"ハクタチョウタワノウチ","prefecture":"島根県","city":"安来市","town":"伯太町峠之内"},{"zip_code":"6920212","prefecture_kana":"シマネケン","city_kana":"ヤスギシ","town_kana":"ハクタチョウニシモリ","prefecture":"島根県","city":"安来市","town":"伯太町西母里"},{"zip_code":"6920207","prefecture_kana":"シマネケン","city_kana":"ヤスギシ","town_kana":"ハクタチョウヒガシモリ","prefecture":"島根県","city":"安来市","town":"伯太町東母里"},{"zip_code":"6920216","prefecture_kana":"シマネケン","city_kana":"ヤスギシ","town_kana":"ハクタチョウヒナミ","prefecture":"島根県","city":"安来市","town":"伯太町日次"},{"zip_code":"6920203","prefecture_kana":"シマネケン","city_kana":"ヤスギシ","town_kana":"ハクタチョウホノカ","prefecture":"島根県","city":"安来市","town":"伯太町未明"},{"zip_code":"6920211","prefecture_kana":"シマネケン","city_kana":"ヤスギシ","town_kana":"ハクタチョウモリ","prefecture":"島根県","city":"安来市","town":"伯太町母里"},{"zip_code":"6920206","prefecture_kana":"シマネケン","city_kana":"ヤスギシ","town_kana":"ハクタチョウヤスダ","prefecture":"島根県","city":"安来市","town":"伯太町安田"},{"zip_code":"6920202","prefecture_kana":"シマネケン","city_kana":"ヤスギシ","town_kana":"ハクタチョウヤスダセキ","prefecture":"島根県","city":"安来市","town":"伯太町安田関"},{"zip_code":"6920205","prefecture_kana":"シマネケン","city_kana":"ヤスギシ","town_kana":"ハクタチョウヤスダナカ","prefecture":"島根県","city":"安来市","town":"伯太町安田中"},{"zip_code":"6920204","prefecture_kana":"シマネケン","city_kana":"ヤスギシ","town_kana":"ハクタチョウヤスダミヤウチ","prefecture":"島根県","city":"安来市","town":"伯太町安田宮内"},{"zip_code":"6920201","prefecture_kana":"シマネケン","city_kana":"ヤスギシ","town_kana":"ハクタチョウヤスダヤマガタ","prefecture":"島根県","city":"安来市","town":"伯太町安田山形"},{"zip_code":"6920217","prefecture_kana":"シマネケン","city_kana":"ヤスギシ","town_kana":"ハクタチョウヨコヤ","prefecture":"島根県","city":"安来市","town":"伯太町横屋"},{"zip_code":"6920014","prefecture_kana":"シマネケン","city_kana":"ヤスギシ","town_kana":"ハシマチョウ","prefecture":"島根県","city":"安来市","town":"飯島町"},{"zip_code":"6920016","prefecture_kana":"シマネケン","city_kana":"ヤスギシ","town_kana":"ヒガシアカエチョウ","prefecture":"島根県","city":"安来市","town":"東赤江町"},{"zip_code":"6920005","prefecture_kana":"シマネケン","city_kana":"ヤスギシ","town_kana":"ヒジラチョウ","prefecture":"島根県","city":"安来市","town":"日白町"},{"zip_code":"6920401","prefecture_kana":"シマネケン","city_kana":"ヤスギシ","town_kana":"ヒロセチョウイシハラ","prefecture":"島根県","city":"安来市","town":"広瀬町石原"},{"zip_code":"6920622","prefecture_kana":"シマネケン","city_kana":"ヤスギシ","town_kana":"ヒロセチョウウナミ","prefecture":"島根県","city":"安来市","town":"広瀬町宇波"},{"zip_code":"6920625","prefecture_kana":"シマネケン","city_kana":"ヤスギシ","town_kana":"ヒロセチョウオクタワラ","prefecture":"島根県","city":"安来市","town":"広瀬町奥田原"},{"zip_code":"6920405","prefecture_kana":"シマネケン","city_kana":"ヤスギシ","town_kana":"ヒロセチョウオジダニ","prefecture":"島根県","city":"安来市","town":"広瀬町祖父谷"},{"zip_code":"6920732","prefecture_kana":"シマネケン","city_kana":"ヤスギシ","town_kana":"ヒロセチョウカジフクドメ","prefecture":"島根県","city":"安来市","town":"広瀬町梶福留"},{"zip_code":"6920413","prefecture_kana":"シマネケン","city_kana":"ヤスギシ","town_kana":"ヒロセチョウカミヤマサ","prefecture":"島根県","city":"安来市","town":"広瀬町上山佐"},{"zip_code":"6920412","prefecture_kana":"シマネケン","city_kana":"ヤスギシ","town_kana":"ヒロセチョウシモヤマサ","prefecture":"島根県","city":"安来市","town":"広瀬町下山佐"},{"zip_code":"6920411","prefecture_kana":"シマネケン","city_kana":"ヤスギシ","town_kana":"ヒロセチョウスガハラ（シモタワラ）","prefecture":"島根県","city":"安来市","town":"広瀬町菅原（下田原）"},{"zip_code":"6920621","prefecture_kana":"シマネケン","city_kana":"ヤスギシ","town_kana":"ヒロセチョウスガハラ（ソノタ）","prefecture":"島根県","city":"安来市","town":"広瀬町菅原（その他）"},{"zip_code":"6920403","prefecture_kana":"シマネケン","city_kana":"ヤスギシ","town_kana":"ヒロセチョウトダ","prefecture":"島根県","city":"安来市","town":"広瀬町富田"},{"zip_code":"6920624","prefecture_kana":"シマネケン","city_kana":"ヤスギシ","town_kana":"ヒロセチョウニシダニ","prefecture":"島根県","city":"安来市","town":"広瀬町西谷"},{"zip_code":"6920731","prefecture_kana":"シマネケン","city_kana":"ヤスギシ","town_kana":"ヒロセチョウニシヒダ","prefecture":"島根県","city":"安来市","town":"広瀬町西比田"},{"zip_code":"6920733","prefecture_kana":"シマネケン","city_kana":"ヤスギシ","town_kana":"ヒロセチョウヒガシヒダ","prefecture":"島根県","city":"安来市","town":"広瀬町東比田"},{"zip_code":"6920404","prefecture_kana":"シマネケン","city_kana":"ヤスギシ","town_kana":"ヒロセチョウヒロセ","prefecture":"島根県","city":"安来市","town":"広瀬町広瀬"},{"zip_code":"6920623","prefecture_kana":"シマネケン","city_kana":"ヤスギシ","town_kana":"ヒロセチョウフベ","prefecture":"島根県","city":"安来市","town":"広瀬町布部"},{"zip_code":"6920402","prefecture_kana":"シマネケン","city_kana":"ヤスギシ","town_kana":"ヒロセチョウマチチョウ","prefecture":"島根県","city":"安来市","town":"広瀬町町帳"},{"zip_code":"6920064","prefecture_kana":"シマネケン","city_kana":"ヤスギシ","town_kana":"フルカワチョウ","prefecture":"島根県","city":"安来市","town":"古川町"},{"zip_code":"6920025","prefecture_kana":"シマネケン","city_kana":"ヤスギシ","town_kana":"ホヒジマチョウ","prefecture":"島根県","city":"安来市","town":"穂日島町"},{"zip_code":"6920022","prefecture_kana":"シマネケン","city_kana":"ヤスギシ","town_kana":"ミナミトカミチョウ","prefecture":"島根県","city":"安来市","town":"南十神町"},{"zip_code":"6920012","prefecture_kana":"シマネケン","city_kana":"ヤスギシ","town_kana":"ミヤウチチョウ","prefecture":"島根県","city":"安来市","town":"宮内町"},{"zip_code":"6920011","prefecture_kana":"シマネケン","city_kana":"ヤスギシ","town_kana":"ヤスギチョウ","prefecture":"島根県","city":"安来市","town":"安来町"},{"zip_code":"6920073","prefecture_kana":"シマネケン","city_kana":"ヤスギシ","town_kana":"ヤタチョウ","prefecture":"島根県","city":"安来市","town":"矢田町"},{"zip_code":"6920037","prefecture_kana":"シマネケン","city_kana":"ヤスギシ","town_kana":"ヨシオカチョウ","prefecture":"島根県","city":"安来市","town":"吉岡町"},{"zip_code":"6950000","prefecture_kana":"シマネケン","city_kana":"ゴウツシ","town_kana":"イカニケイサイガナイバアイ","prefecture":"島根県","city":"江津市","town":"以下に掲載がない場合"},{"zip_code":"6950002","prefecture_kana":"シマネケン","city_kana":"ゴウツシ","town_kana":"アサリチョウ","prefecture":"島根県","city":"江津市","town":"浅利町"},{"zip_code":"6950152","prefecture_kana":"シマネケン","city_kana":"ゴウツシ","town_kana":"アトイチチョウ","prefecture":"島根県","city":"江津市","town":"跡市町"},{"zip_code":"6950156","prefecture_kana":"シマネケン","city_kana":"ゴウツシ","town_kana":"アリフクオンセンチョウ","prefecture":"島根県","city":"江津市","town":"有福温泉町"},{"zip_code":"6950155","prefecture_kana":"シマネケン","city_kana":"ゴウツシ","town_kana":"アリフクオンセンチョウホンミョウ","prefecture":"島根県","city":"江津市","town":"有福温泉町本明"},{"zip_code":"6950154","prefecture_kana":"シマネケン","city_kana":"ゴウツシ","town_kana":"イソウチョウ","prefecture":"島根県","city":"江津市","town":"井沢町"},{"zip_code":"6992841","prefecture_kana":"シマネケン","city_kana":"ゴウツシ","town_kana":"ウシロジチョウ","prefecture":"島根県","city":"江津市","town":"後地町"},{"zip_code":"6993162","prefecture_kana":"シマネケン","city_kana":"ゴウツシ","town_kana":"ウヤガワチョウ","prefecture":"島根県","city":"江津市","town":"敬川町"},{"zip_code":"6950016","prefecture_kana":"シマネケン","city_kana":"ゴウツシ","town_kana":"カクシチョウ","prefecture":"島根県","city":"江津市","town":"嘉久志町"},{"zip_code":"6950012","prefecture_kana":"シマネケン","city_kana":"ゴウツシ","town_kana":"カネタチョウ","prefecture":"島根県","city":"江津市","town":"金田町"},{"zip_code":"6950014","prefecture_kana":"シマネケン","city_kana":"ゴウツシ","town_kana":"カワヒラチョウヒラタ","prefecture":"島根県","city":"江津市","town":"川平町平田"},{"zip_code":"6950013","prefecture_kana":"シマネケン","city_kana":"ゴウツシ","town_kana":"カワヒラチョウミナミカワノボリ","prefecture":"島根県","city":"江津市","town":"川平町南川上"},{"zip_code":"6992831","prefecture_kana":"シマネケン","city_kana":"ゴウツシ","town_kana":"クロマツチョウ","prefecture":"島根県","city":"江津市","town":"黒松町"},{"zip_code":"6950011","prefecture_kana":"シマネケン","city_kana":"ゴウツシ","town_kana":"ゴウツチョウ","prefecture":"島根県","city":"江津市","town":"江津町"},{"zip_code":"6994221","prefecture_kana":"シマネケン","city_kana":"ゴウツシ","town_kana":"サクラエチョウイチヤマ","prefecture":"島根県","city":"江津市","town":"桜江町市山"},{"zip_code":"6994222","prefecture_kana":"シマネケン","city_kana":"ゴウツシ","town_kana":"サクラエチョウイマダ","prefecture":"島根県","city":"江津市","town":"桜江町今田"},{"zip_code":"6994223","prefecture_kana":"シマネケン","city_kana":"ゴウツシ","town_kana":"サクラエチョウウシロヤマ","prefecture":"島根県","city":"江津市","town":"桜江町後山"},{"zip_code":"6994224","prefecture_kana":"シマネケン","city_kana":"ゴウツシ","town_kana":"サクラエチョウエノオ","prefecture":"島根県","city":"江津市","town":"桜江町江尾"},{"zip_code":"6994504","prefecture_kana":"シマネケン","city_kana":"ゴウツシ","town_kana":"サクラエチョウオオヌキ","prefecture":"島根県","city":"江津市","town":"桜江町大貫"},{"zip_code":"6994225","prefecture_kana":"シマネケン","city_kana":"ゴウツシ","town_kana":"サクラエチョウオダ","prefecture":"島根県","city":"江津市","town":"桜江町小田"},{"zip_code":"6994502","prefecture_kana":"シマネケン","city_kana":"ゴウツシ","town_kana":"サクラエチョウカワゴエ","prefecture":"島根県","city":"江津市","town":"桜江町川越"},{"zip_code":"6994226","prefecture_kana":"シマネケン","city_kana":"ゴウツシ","town_kana":"サクラエチョウカワド","prefecture":"島根県","city":"江津市","town":"桜江町川戸"},{"zip_code":"6994505","prefecture_kana":"シマネケン","city_kana":"ゴウツシ","town_kana":"サクラエチョウサカモト","prefecture":"島根県","city":"江津市","town":"桜江町坂本"},{"zip_code":"6994501","prefecture_kana":"シマネケン","city_kana":"ゴウツシ","town_kana":"サクラエチョウシカガ","prefecture":"島根県","city":"江津市","town":"桜江町鹿賀"},{"zip_code":"6994503","prefecture_kana":"シマネケン","city_kana":"ゴウツシ","town_kana":"サクラエチョウタヅ","prefecture":"島根県","city":"江津市","town":"桜江町田津"},{"zip_code":"6994111","prefecture_kana":"シマネケン","city_kana":"ゴウツシ","town_kana":"サクラエチョウタニジュウゴウ","prefecture":"島根県","city":"江津市","town":"桜江町谷住郷"},{"zip_code":"6994431","prefecture_kana":"シマネケン","city_kana":"ゴウツシ","town_kana":"サクラエチョウナガタニ","prefecture":"島根県","city":"江津市","town":"桜江町長谷"},{"zip_code":"6994432","prefecture_kana":"シマネケン","city_kana":"ゴウツシ","town_kana":"サクラエチョウヤト","prefecture":"島根県","city":"江津市","town":"桜江町八戸"},{"zip_code":"6950015","prefecture_kana":"シマネケン","city_kana":"ゴウツシ","town_kana":"シマノホシチョウ","prefecture":"島根県","city":"江津市","town":"島の星町"},{"zip_code":"6950153","prefecture_kana":"シマネケン","city_kana":"ゴウツシ","town_kana":"セイミチョウ","prefecture":"島根県","city":"江津市","town":"清見町"},{"zip_code":"6950151","prefecture_kana":"シマネケン","city_kana":"ゴウツシ","town_kana":"チダチョウ","prefecture":"島根県","city":"江津市","town":"千田町"},{"zip_code":"6992842","prefecture_kana":"シマネケン","city_kana":"ゴウツシ","town_kana":"ツチチョウ","prefecture":"島根県","city":"江津市","town":"都治町"},{"zip_code":"6950021","prefecture_kana":"シマネケン","city_kana":"ゴウツシ","town_kana":"ツノヅチョウ","prefecture":"島根県","city":"江津市","town":"都野津町"},{"zip_code":"6950023","prefecture_kana":"シマネケン","city_kana":"ゴウツシ","town_kana":"ニノミヤチョウカムラ","prefecture":"島根県","city":"江津市","town":"二宮町神村"},{"zip_code":"6950024","prefecture_kana":"シマネケン","city_kana":"ゴウツシ","town_kana":"ニノミヤチョウカンヌシ","prefecture":"島根県","city":"江津市","town":"二宮町神主"},{"zip_code":"6950022","prefecture_kana":"シマネケン","city_kana":"ゴウツシ","town_kana":"ニノミヤチョウハシロ","prefecture":"島根県","city":"江津市","town":"二宮町羽代"},{"zip_code":"6993161","prefecture_kana":"シマネケン","city_kana":"ゴウツシ","town_kana":"ハシチョウ","prefecture":"島根県","city":"江津市","town":"波子町"},{"zip_code":"6992833","prefecture_kana":"シマネケン","city_kana":"ゴウツシ","town_kana":"ハヅミチョウホンゴウ","prefecture":"島根県","city":"江津市","town":"波積町本郷"},{"zip_code":"6992834","prefecture_kana":"シマネケン","city_kana":"ゴウツシ","town_kana":"ハヅミチョウミナミ","prefecture":"島根県","city":"江津市","town":"波積町南"},{"zip_code":"6992832","prefecture_kana":"シマネケン","city_kana":"ゴウツシ","town_kana":"ハヅミチョウキタ","prefecture":"島根県","city":"江津市","town":"波積町北"},{"zip_code":"6950004","prefecture_kana":"シマネケン","city_kana":"ゴウツシ","town_kana":"マツカワチョウイチムラ","prefecture":"島根県","city":"江津市","town":"松川町市村"},{"zip_code":"6950007","prefecture_kana":"シマネケン","city_kana":"ゴウツシ","town_kana":"マツカワチョウオオタ","prefecture":"島根県","city":"江津市","town":"松川町太田"},{"zip_code":"6992837","prefecture_kana":"シマネケン","city_kana":"ゴウツシ","town_kana":"マツカワチョウカミカワド","prefecture":"島根県","city":"江津市","town":"松川町上河戸"},{"zip_code":"6950003","prefecture_kana":"シマネケン","city_kana":"ゴウツシ","town_kana":"マツカワチョウシモカワド","prefecture":"島根県","city":"江津市","town":"松川町下河戸"},{"zip_code":"6992835","prefecture_kana":"シマネケン","city_kana":"ゴウツシ","town_kana":"マツカワチョウカンヅイ","prefecture":"島根県","city":"江津市","town":"松川町上津井"},{"zip_code":"6950005","prefecture_kana":"シマネケン","city_kana":"ゴウツシ","town_kana":"マツカワチョウナガラ","prefecture":"島根県","city":"江津市","town":"松川町長良"},{"zip_code":"6992836","prefecture_kana":"シマネケン","city_kana":"ゴウツシ","town_kana":"マツカワチョウハタダ","prefecture":"島根県","city":"江津市","town":"松川町畑田"},{"zip_code":"6950006","prefecture_kana":"シマネケン","city_kana":"ゴウツシ","town_kana":"マツカワチョウヤカミ","prefecture":"島根県","city":"江津市","town":"松川町八神"},{"zip_code":"6950017","prefecture_kana":"シマネケン","city_kana":"ゴウツシ","town_kana":"ワキチョウ","prefecture":"島根県","city":"江津市","town":"和木町"},{"zip_code":"6950001","prefecture_kana":"シマネケン","city_kana":"ゴウツシ","town_kana":"ワタヅチョウ","prefecture":"島根県","city":"江津市","town":"渡津町"},{"zip_code":"6902400","prefecture_kana":"シマネケン","city_kana":"ウンナンシ","town_kana":"イカニケイサイガナイバアイ","prefecture":"島根県","city":"雲南市","town":"以下に掲載がない場合"},{"zip_code":"6902704","prefecture_kana":"シマネケン","city_kana":"ウンナンシ","town_kana":"カケヤチョウアナミ","prefecture":"島根県","city":"雲南市","town":"掛合町穴見"},{"zip_code":"6902702","prefecture_kana":"シマネケン","city_kana":"ウンナンシ","town_kana":"カケヤチョウイルマ","prefecture":"島根県","city":"雲南市","town":"掛合町入間"},{"zip_code":"6902701","prefecture_kana":"シマネケン","city_kana":"ウンナンシ","town_kana":"カケヤチョウカケヤ","prefecture":"島根県","city":"雲南市","town":"掛合町掛合"},{"zip_code":"6902706","prefecture_kana":"シマネケン","city_kana":"ウンナンシ","town_kana":"カケヤチョウタネ","prefecture":"島根県","city":"雲南市","town":"掛合町多根"},{"zip_code":"6902703","prefecture_kana":"シマネケン","city_kana":"ウンナンシ","town_kana":"カケヤチョウハタ","prefecture":"島根県","city":"雲南市","town":"掛合町波多"},{"zip_code":"6902705","prefecture_kana":"シマネケン","city_kana":"ウンナンシ","town_kana":"カケヤチョウマツカサ","prefecture":"島根県","city":"雲南市","town":"掛合町松笠"},{"zip_code":"6991114","prefecture_kana":"シマネケン","city_kana":"ウンナンシ","town_kana":"カモチョウイノオ","prefecture":"島根県","city":"雲南市","town":"加茂町猪尾"},{"zip_code":"6991115","prefecture_kana":"シマネケン","city_kana":"ウンナンシ","town_kana":"カモチョウイワクラ","prefecture":"島根県","city":"雲南市","town":"加茂町岩倉"},{"zip_code":"6991105","prefecture_kana":"シマネケン","city_kana":"ウンナンシ","town_kana":"カモチョウウジ","prefecture":"島根県","city":"雲南市","town":"加茂町宇治"},{"zip_code":"6991125","prefecture_kana":"シマネケン","city_kana":"ウンナンシ","town_kana":"カモチョウオオサキ","prefecture":"島根県","city":"雲南市","town":"加茂町大崎"},{"zip_code":"6991123","prefecture_kana":"シマネケン","city_kana":"ウンナンシ","town_kana":"カモチョウオオタケ","prefecture":"島根県","city":"雲南市","town":"加茂町大竹"},{"zip_code":"6991106","prefecture_kana":"シマネケン","city_kana":"ウンナンシ","town_kana":"カモチョウカモナカ","prefecture":"島根県","city":"雲南市","town":"加茂町加茂中"},{"zip_code":"6991121","prefecture_kana":"シマネケン","city_kana":"ウンナンシ","town_kana":"カモチョウカンバラ","prefecture":"島根県","city":"雲南市","town":"加茂町神原"},{"zip_code":"6991112","prefecture_kana":"シマネケン","city_kana":"ウンナンシ","town_kana":"カモチョウシングウ","prefecture":"島根県","city":"雲南市","town":"加茂町新宮"},{"zip_code":"6991111","prefecture_kana":"シマネケン","city_kana":"ウンナンシ","town_kana":"カモチョウスナゴハラ","prefecture":"島根県","city":"雲南市","town":"加茂町砂子原"},{"zip_code":"6991101","prefecture_kana":"シマネケン","city_kana":"ウンナンシ","town_kana":"カモチョウダイサイ","prefecture":"島根県","city":"雲南市","town":"加茂町大西"},{"zip_code":"6991102","prefecture_kana":"シマネケン","city_kana":"ウンナンシ","town_kana":"カモチョウタチバラ","prefecture":"島根県","city":"雲南市","town":"加茂町立原"},{"zip_code":"6991103","prefecture_kana":"シマネケン","city_kana":"ウンナンシ","town_kana":"カモチョウチカマツ","prefecture":"島根県","city":"雲南市","town":"加茂町近松"},{"zip_code":"6991124","prefecture_kana":"シマネケン","city_kana":"ウンナンシ","town_kana":"カモチョウノブノ","prefecture":"島根県","city":"雲南市","town":"加茂町延野"},{"zip_code":"6991113","prefecture_kana":"シマネケン","city_kana":"ウンナンシ","town_kana":"カモチョウヒガシダニ","prefecture":"島根県","city":"雲南市","town":"加茂町東谷"},{"zip_code":"6991122","prefecture_kana":"シマネケン","city_kana":"ウンナンシ","town_kana":"カモチョウミジロ","prefecture":"島根県","city":"雲南市","town":"加茂町三代"},{"zip_code":"6991104","prefecture_kana":"シマネケン","city_kana":"ウンナンシ","town_kana":"カモチョウミナミガモ","prefecture":"島根県","city":"雲南市","town":"加茂町南加茂"},{"zip_code":"6991321","prefecture_kana":"シマネケン","city_kana":"ウンナンシ","town_kana":"キスキチョウウダニ","prefecture":"島根県","city":"雲南市","town":"木次町宇谷"},{"zip_code":"6991331","prefecture_kana":"シマネケン","city_kana":"ウンナンシ","town_kana":"キスキチョウカミクマタニ","prefecture":"島根県","city":"雲南市","town":"木次町上熊谷"},{"zip_code":"6991332","prefecture_kana":"シマネケン","city_kana":"ウンナンシ","town_kana":"キスキチョウキスキ","prefecture":"島根県","city":"雲南市","town":"木次町木次"},{"zip_code":"6991401","prefecture_kana":"シマネケン","city_kana":"ウンナンシ","town_kana":"キスキチョウキタハラ（オジロ）","prefecture":"島根県","city":"雲南市","town":"木次町北原（尾白）"},{"zip_code":"6991341","prefecture_kana":"シマネケン","city_kana":"ウンナンシ","town_kana":"キスキチョウキタハラ（ソノタ）","prefecture":"島根県","city":"雲南市","town":"木次町北原（その他）"},{"zip_code":"6991311","prefecture_kana":"シマネケン","city_kana":"ウンナンシ","town_kana":"キスキチョウサトガタ","prefecture":"島根県","city":"雲南市","town":"木次町里方"},{"zip_code":"6991333","prefecture_kana":"シマネケン","city_kana":"ウンナンシ","town_kana":"キスキチョウシモクマタニ","prefecture":"島根県","city":"雲南市","town":"木次町下熊谷"},{"zip_code":"6991322","prefecture_kana":"シマネケン","city_kana":"ウンナンシ","town_kana":"キスキチョウジリョウ","prefecture":"島根県","city":"雲南市","town":"木次町寺領"},{"zip_code":"6991334","prefecture_kana":"シマネケン","city_kana":"ウンナンシ","town_kana":"キスキチョウシンイチ","prefecture":"島根県","city":"雲南市","town":"木次町新市"},{"zip_code":"6991324","prefecture_kana":"シマネケン","city_kana":"ウンナンシ","town_kana":"キスキチョウニシヒノボリ","prefecture":"島根県","city":"雲南市","town":"木次町西日登"},{"zip_code":"6991323","prefecture_kana":"シマネケン","city_kana":"ウンナンシ","town_kana":"キスキチョウヒガシヒノボリ","prefecture":"島根県","city":"雲南市","town":"木次町東日登"},{"zip_code":"6991342","prefecture_kana":"シマネケン","city_kana":"ウンナンシ","town_kana":"キスキチョウヒラタ","prefecture":"島根県","city":"雲南市","town":"木次町平田"},{"zip_code":"6991312","prefecture_kana":"シマネケン","city_kana":"ウンナンシ","town_kana":"キスキチョウヤマガタ","prefecture":"島根県","city":"雲南市","town":"木次町山方"},{"zip_code":"6991343","prefecture_kana":"シマネケン","city_kana":"ウンナンシ","town_kana":"キスキチョウユムラ","prefecture":"島根県","city":"雲南市","town":"木次町湯村"},{"zip_code":"6991221","prefecture_kana":"シマネケン","city_kana":"ウンナンシ","town_kana":"ダイトウチョウイイダ","prefecture":"島根県","city":"雲南市","town":"大東町飯田"},{"zip_code":"6991231","prefecture_kana":"シマネケン","city_kana":"ウンナンシ","town_kana":"ダイトウチョウエンジョ","prefecture":"島根県","city":"雲南市","town":"大東町遠所"},{"zip_code":"6991213","prefecture_kana":"シマネケン","city_kana":"ウンナンシ","town_kana":"ダイトウチョウオオカダニ","prefecture":"島根県","city":"雲南市","town":"大東町大ケ谷"},{"zip_code":"6991221","prefecture_kana":"シマネケン","city_kana":"ウンナンシ","town_kana":"ダイトウチョウオカムラ","prefecture":"島根県","city":"雲南市","town":"大東町岡村"},{"zip_code":"6991201","prefecture_kana":"シマネケン","city_kana":"ウンナンシ","town_kana":"ダイトウチョウオガワウチ","prefecture":"島根県","city":"雲南市","town":"大東町小河内"},{"zip_code":"6991261","prefecture_kana":"シマネケン","city_kana":"ウンナンシ","town_kana":"ダイトウチョウカネナリ","prefecture":"島根県","city":"雲南市","town":"大東町金成"},{"zip_code":"6991211","prefecture_kana":"シマネケン","city_kana":"ウンナンシ","town_kana":"ダイトウチョウカミクノ","prefecture":"島根県","city":"雲南市","town":"大東町上久野"},{"zip_code":"6991214","prefecture_kana":"シマネケン","city_kana":"ウンナンシ","town_kana":"ダイトウチョウカミサセ","prefecture":"島根県","city":"雲南市","town":"大東町上佐世"},{"zip_code":"6991202","prefecture_kana":"シマネケン","city_kana":"ウンナンシ","town_kana":"ダイトウチョウカリハタ","prefecture":"島根県","city":"雲南市","town":"大東町刈畑"},{"zip_code":"6991222","prefecture_kana":"シマネケン","city_kana":"ウンナンシ","town_kana":"ダイトウチョウカワイ","prefecture":"島根県","city":"雲南市","town":"大東町川井"},{"zip_code":"6991203","prefecture_kana":"シマネケン","city_kana":"ウンナンシ","town_kana":"ダイトウチョウキタムラ","prefecture":"島根県","city":"雲南市","town":"大東町北村"},{"zip_code":"6991204","prefecture_kana":"シマネケン","city_kana":"ウンナンシ","town_kana":"ダイトウチョウコモザワ","prefecture":"島根県","city":"雲南市","town":"大東町薦澤"},{"zip_code":"6991241","prefecture_kana":"シマネケン","city_kana":"ウンナンシ","town_kana":"ダイトウチョウサンノウジ","prefecture":"島根県","city":"雲南市","town":"大東町山王寺"},{"zip_code":"6991262","prefecture_kana":"シマネケン","city_kana":"ウンナンシ","town_kana":"ダイトウチョウシオタ","prefecture":"島根県","city":"雲南市","town":"大東町塩田"},{"zip_code":"6991263","prefecture_kana":"シマネケン","city_kana":"ウンナンシ","town_kana":"ダイトウチョウシノブチ","prefecture":"島根県","city":"雲南市","town":"大東町篠淵"},{"zip_code":"6991223","prefecture_kana":"シマネケン","city_kana":"ウンナンシ","town_kana":"ダイトウチョウシモアヨウ","prefecture":"島根県","city":"雲南市","town":"大東町下阿用"},{"zip_code":"6991212","prefecture_kana":"シマネケン","city_kana":"ウンナンシ","town_kana":"ダイトウチョウシモクノ","prefecture":"島根県","city":"雲南市","town":"大東町下久野"},{"zip_code":"6991215","prefecture_kana":"シマネケン","city_kana":"ウンナンシ","town_kana":"ダイトウチョウシモサセ","prefecture":"島根県","city":"雲南市","town":"大東町下佐世"},{"zip_code":"6991251","prefecture_kana":"シマネケン","city_kana":"ウンナンシ","town_kana":"ダイトウチョウシンジョウ","prefecture":"島根県","city":"雲南市","town":"大東町新庄"},{"zip_code":"6991205","prefecture_kana":"シマネケン","city_kana":"ウンナンシ","town_kana":"ダイトウチョウスガ","prefecture":"島根県","city":"雲南市","town":"大東町須賀"},{"zip_code":"6991264","prefecture_kana":"シマネケン","city_kana":"ウンナンシ","town_kana":"ダイトウチョウセイダ","prefecture":"島根県","city":"雲南市","town":"大東町清田"},{"zip_code":"6991251","prefecture_kana":"シマネケン","city_kana":"ウンナンシ","town_kana":"ダイトウチョウダイトウ","prefecture":"島根県","city":"雲南市","town":"大東町大東"},{"zip_code":"6991242","prefecture_kana":"シマネケン","city_kana":"ウンナンシ","town_kana":"ダイトウチョウダイトウシモブン","prefecture":"島根県","city":"雲南市","town":"大東町大東下分"},{"zip_code":"6991252","prefecture_kana":"シマネケン","city_kana":"ウンナンシ","town_kana":"ダイトウチョウタナカ","prefecture":"島根県","city":"雲南市","town":"大東町田中"},{"zip_code":"6991253","prefecture_kana":"シマネケン","city_kana":"ウンナンシ","town_kana":"ダイトウチョウナカユイシ","prefecture":"島根県","city":"雲南市","town":"大東町中湯石"},{"zip_code":"6991216","prefecture_kana":"シマネケン","city_kana":"ウンナンシ","town_kana":"ダイトウチョウニシアヨウ","prefecture":"島根県","city":"雲南市","town":"大東町西阿用"},{"zip_code":"6991232","prefecture_kana":"シマネケン","city_kana":"ウンナンシ","town_kana":"ダイトウチョウニンナジ","prefecture":"島根県","city":"雲南市","town":"大東町仁和寺"},{"zip_code":"6991243","prefecture_kana":"シマネケン","city_kana":"ウンナンシ","town_kana":"ダイトウチョウハタヒヨドリ","prefecture":"島根県","city":"雲南市","town":"大東町畑鵯"},{"zip_code":"6991233","prefecture_kana":"シマネケン","city_kana":"ウンナンシ","town_kana":"ダイトウチョウハタヤ","prefecture":"島根県","city":"雲南市","town":"大東町幡屋"},{"zip_code":"6991224","prefecture_kana":"シマネケン","city_kana":"ウンナンシ","town_kana":"ダイトウチョウヒガシアヨウ","prefecture":"島根県","city":"雲南市","town":"大東町東阿用"},{"zip_code":"6991234","prefecture_kana":"シマネケン","city_kana":"ウンナンシ","town_kana":"ダイトウチョウマエバラ","prefecture":"島根県","city":"雲南市","town":"大東町前原"},{"zip_code":"6991206","prefecture_kana":"シマネケン","city_kana":"ウンナンシ","town_kana":"ダイトウチョウミナミムラ","prefecture":"島根県","city":"雲南市","town":"大東町南村"},{"zip_code":"6991244","prefecture_kana":"シマネケン","city_kana":"ウンナンシ","town_kana":"ダイトウチョウヤマダ","prefecture":"島根県","city":"雲南市","town":"大東町山田"},{"zip_code":"6991245","prefecture_kana":"シマネケン","city_kana":"ウンナンシ","town_kana":"ダイトウチョウヨウカ","prefecture":"島根県","city":"雲南市","town":"大東町養賀"},{"zip_code":"6902513","prefecture_kana":"シマネケン","city_kana":"ウンナンシ","town_kana":"ミトヤチョウアワダニ","prefecture":"島根県","city":"雲南市","town":"三刀屋町粟谷"},{"zip_code":"6902401","prefecture_kana":"シマネケン","city_kana":"ウンナンシ","town_kana":"ミトヤチョウイガヤ","prefecture":"島根県","city":"雲南市","town":"三刀屋町伊萱"},{"zip_code":"6902634","prefecture_kana":"シマネケン","city_kana":"ウンナンシ","town_kana":"ミトヤチョウオツカミヤ","prefecture":"島根県","city":"雲南市","town":"三刀屋町乙加宮"},{"zip_code":"6902511","prefecture_kana":"シマネケン","city_kana":"ウンナンシ","town_kana":"ミトヤチョウカミクマタニ","prefecture":"島根県","city":"雲南市","town":"三刀屋町上熊谷"},{"zip_code":"6902402","prefecture_kana":"シマネケン","city_kana":"ウンナンシ","town_kana":"ミトヤチョウキュウシタ","prefecture":"島根県","city":"雲南市","town":"三刀屋町給下"},{"zip_code":"6902521","prefecture_kana":"シマネケン","city_kana":"ウンナンシ","town_kana":"ミトヤチョウコウジロ","prefecture":"島根県","city":"雲南市","town":"三刀屋町神代"},{"zip_code":"6902405","prefecture_kana":"シマネケン","city_kana":"ウンナンシ","town_kana":"ミトヤチョウコジョウ","prefecture":"島根県","city":"雲南市","town":"三刀屋町古城"},{"zip_code":"6902525","prefecture_kana":"シマネケン","city_kana":"ウンナンシ","town_kana":"ミトヤチョウサカモト（モリダニ）","prefecture":"島根県","city":"雲南市","town":"三刀屋町坂本（森谷）"},{"zip_code":"6902625","prefecture_kana":"シマネケン","city_kana":"ウンナンシ","town_kana":"ミトヤチョウサカモト（ソノタ）","prefecture":"島根県","city":"雲南市","town":"三刀屋町坂本（その他）"},{"zip_code":"6902632","prefecture_kana":"シマネケン","city_kana":"ウンナンシ","town_kana":"ミトヤチョウサトボウ","prefecture":"島根県","city":"雲南市","town":"三刀屋町里坊"},{"zip_code":"6902403","prefecture_kana":"シマネケン","city_kana":"ウンナンシ","town_kana":"ミトヤチョウシモクマタニ","prefecture":"島根県","city":"雲南市","town":"三刀屋町下熊谷"},{"zip_code":"6902524","prefecture_kana":"シマネケン","city_kana":"ウンナンシ","town_kana":"ミトヤチョウスゾ","prefecture":"島根県","city":"雲南市","town":"三刀屋町須所"},{"zip_code":"6902406","prefecture_kana":"シマネケン","city_kana":"ウンナンシ","town_kana":"ミトヤチョウタカクボ","prefecture":"島根県","city":"雲南市","town":"三刀屋町高窪"},{"zip_code":"6902512","prefecture_kana":"シマネケン","city_kana":"ウンナンシ","town_kana":"ミトヤチョウタクワ","prefecture":"島根県","city":"雲南市","town":"三刀屋町多久和"},{"zip_code":"6902633","prefecture_kana":"シマネケン","city_kana":"ウンナンシ","town_kana":"ミトヤチョウトノゴウチ","prefecture":"島根県","city":"雲南市","town":"三刀屋町殿河内"},{"zip_code":"6902523","prefecture_kana":"シマネケン","city_kana":"ウンナンシ","town_kana":"ミトヤチョウナカノ","prefecture":"島根県","city":"雲南市","town":"三刀屋町中野"},{"zip_code":"6902631","prefecture_kana":"シマネケン","city_kana":"ウンナンシ","town_kana":"ミトヤチョウネバベッシヨ","prefecture":"島根県","city":"雲南市","town":"三刀屋町根波別所"},{"zip_code":"6902404","prefecture_kana":"シマネケン","city_kana":"ウンナンシ","town_kana":"ミトヤチョウミトヤ","prefecture":"島根県","city":"雲南市","town":"三刀屋町三刀屋"},{"zip_code":"6902522","prefecture_kana":"シマネケン","city_kana":"ウンナンシ","town_kana":"ミトヤチョウムエ","prefecture":"島根県","city":"雲南市","town":"三刀屋町六重"},{"zip_code":"6902311","prefecture_kana":"シマネケン","city_kana":"ウンナンシ","town_kana":"ヨシダチョウウエヤマ","prefecture":"島根県","city":"雲南市","town":"吉田町上山"},{"zip_code":"6902314","prefecture_kana":"シマネケン","city_kana":"ウンナンシ","town_kana":"ヨシダチョウカワテ","prefecture":"島根県","city":"雲南市","town":"吉田町川手"},{"zip_code":"6902312","prefecture_kana":"シマネケン","city_kana":"ウンナンシ","town_kana":"ヨシダチョウソギ","prefecture":"島根県","city":"雲南市","town":"吉田町曽木"},{"zip_code":"6902313","prefecture_kana":"シマネケン","city_kana":"ウンナンシ","town_kana":"ヨシダチョウフカノ","prefecture":"島根県","city":"雲南市","town":"吉田町深野"},{"zip_code":"6902802","prefecture_kana":"シマネケン","city_kana":"ウンナンシ","town_kana":"ヨシダチョウミンダニ","prefecture":"島根県","city":"雲南市","town":"吉田町民谷"},{"zip_code":"6902801","prefecture_kana":"シマネケン","city_kana":"ウンナンシ","town_kana":"ヨシダチョウヨシダ","prefecture":"島根県","city":"雲南市","town":"吉田町吉田"},{"zip_code":"6991500","prefecture_kana":"シマネケン","city_kana":"ニタグンオクイズモチョウ","town_kana":"イカニケイサイガナイバアイ","prefecture":"島根県","city":"仁多郡奥出雲町","town":"以下に掲載がない場合"},{"zip_code":"6991821","prefecture_kana":"シマネケン","city_kana":"ニタグンオクイズモチョウ","town_kana":"イナハラ","prefecture":"島根県","city":"仁多郡奥出雲町","town":"稲原"},{"zip_code":"6991812","prefecture_kana":"シマネケン","city_kana":"ニタグンオクイズモチョウ","town_kana":"オオタニ","prefecture":"島根県","city":"仁多郡奥出雲町","town":"大谷"},{"zip_code":"6991941","prefecture_kana":"シマネケン","city_kana":"ニタグンオクイズモチョウ","town_kana":"オオマキ","prefecture":"島根県","city":"仁多郡奥出雲町","town":"大馬木"},{"zip_code":"6991802","prefecture_kana":"シマネケン","city_kana":"ニタグンオクイズモチョウ","town_kana":"オオロ","prefecture":"島根県","city":"仁多郡奥出雲町","town":"大呂"},{"zip_code":"6991621","prefecture_kana":"シマネケン","city_kana":"ニタグンオクイズモチョウ","town_kana":"カミアイ","prefecture":"島根県","city":"仁多郡奥出雲町","town":"上阿井"},{"zip_code":"6991431","prefecture_kana":"シマネケン","city_kana":"ニタグンオクイズモチョウ","town_kana":"カミミトコロ","prefecture":"島根県","city":"仁多郡奥出雲町","town":"上三所"},{"zip_code":"6991701","prefecture_kana":"シマネケン","city_kana":"ニタグンオクイズモチョウ","town_kana":"カメダケ","prefecture":"島根県","city":"仁多郡奥出雲町","town":"亀嵩"},{"zip_code":"6991515","prefecture_kana":"シマネケン","city_kana":"ニタグンオクイズモチョウ","town_kana":"カモクラ","prefecture":"島根県","city":"仁多郡奥出雲町","town":"鴨倉"},{"zip_code":"6991514","prefecture_kana":"シマネケン","city_kana":"ニタグンオクイズモチョウ","town_kana":"カワチ","prefecture":"島根県","city":"仁多郡奥出雲町","town":"河内"},{"zip_code":"6991702","prefecture_kana":"シマネケン","city_kana":"ニタグンオクイズモチョウ","town_kana":"コオリ","prefecture":"島根県","city":"仁多郡奥出雲町","town":"郡"},{"zip_code":"6991942","prefecture_kana":"シマネケン","city_kana":"ニタグンオクイズモチョウ","town_kana":"コマキ","prefecture":"島根県","city":"仁多郡奥出雲町","town":"小馬木"},{"zip_code":"6991434","prefecture_kana":"シマネケン","city_kana":"ニタグンオクイズモチョウ","town_kana":"サジロ","prefecture":"島根県","city":"仁多郡奥出雲町","town":"佐白"},{"zip_code":"6991517","prefecture_kana":"シマネケン","city_kana":"ニタグンオクイズモチョウ","town_kana":"シモアイ（ウネジ）","prefecture":"島根県","city":"仁多郡奥出雲町","town":"下阿井（宇根路）"},{"zip_code":"6991622","prefecture_kana":"シマネケン","city_kana":"ニタグンオクイズモチョウ","town_kana":"シモアイ（ソノタ）","prefecture":"島根県","city":"仁多郡奥出雲町","town":"下阿井（その他）"},{"zip_code":"6991822","prefecture_kana":"シマネケン","city_kana":"ニタグンオクイズモチョウ","town_kana":"シモヨコタ","prefecture":"島根県","city":"仁多郡奥出雲町","town":"下横田"},{"zip_code":"6991512","prefecture_kana":"シマネケン","city_kana":"ニタグンオクイズモチョウ","town_kana":"タカオ","prefecture":"島根県","city":"仁多郡奥出雲町","town":"高尾"},{"zip_code":"6991703","prefecture_kana":"シマネケン","city_kana":"ニタグンオクイズモチョウ","town_kana":"タカタ","prefecture":"島根県","city":"仁多郡奥出雲町","town":"高田"},{"zip_code":"6991801","prefecture_kana":"シマネケン","city_kana":"ニタグンオクイズモチョウ","town_kana":"タケザキ","prefecture":"島根県","city":"仁多郡奥出雲町","town":"竹崎"},{"zip_code":"6991831","prefecture_kana":"シマネケン","city_kana":"ニタグンオクイズモチョウ","town_kana":"ナカムラ","prefecture":"島根県","city":"仁多郡奥出雲町","town":"中村"},{"zip_code":"6991432","prefecture_kana":"シマネケン","city_kana":"ニタグンオクイズモチョウ","town_kana":"マバセ","prefecture":"島根県","city":"仁多郡奥出雲町","town":"馬馳"},{"zip_code":"6991513","prefecture_kana":"シマネケン","city_kana":"ニタグンオクイズモチョウ","town_kana":"ミザワ","prefecture":"島根県","city":"仁多郡奥出雲町","town":"三沢"},{"zip_code":"6991516","prefecture_kana":"シマネケン","city_kana":"ニタグンオクイズモチョウ","town_kana":"ミトコロ","prefecture":"島根県","city":"仁多郡奥出雲町","town":"三所"},{"zip_code":"6991511","prefecture_kana":"シマネケン","city_kana":"ニタグンオクイズモチョウ","town_kana":"ミナリ","prefecture":"島根県","city":"仁多郡奥出雲町","town":"三成"},{"zip_code":"6991811","prefecture_kana":"シマネケン","city_kana":"ニタグンオクイズモチョウ","town_kana":"ヤカワ","prefecture":"島根県","city":"仁多郡奥出雲町","town":"八川"},{"zip_code":"6991433","prefecture_kana":"シマネケン","city_kana":"ニタグンオクイズモチョウ","town_kana":"ヤシロ","prefecture":"島根県","city":"仁多郡奥出雲町","town":"八代"},{"zip_code":"6991832","prefecture_kana":"シマネケン","city_kana":"ニタグンオクイズモチョウ","town_kana":"ヨコタ","prefecture":"島根県","city":"仁多郡奥出雲町","town":"横田"},{"zip_code":"6903200","prefecture_kana":"シマネケン","city_kana":"イイシグンイイナンチョウ","town_kana":"イカニケイサイガナイバアイ","prefecture":"島根県","city":"飯石郡飯南町","town":"以下に掲載がない場合"},{"zip_code":"6903511","prefecture_kana":"シマネケン","city_kana":"イイシグンイイナンチョウ","town_kana":"アカナ","prefecture":"島根県","city":"飯石郡飯南町","town":"赤名"},{"zip_code":"6903514","prefecture_kana":"シマネケン","city_kana":"イイシグンイイナンチョウ","town_kana":"イドダニ","prefecture":"島根県","city":"飯石郡飯南町","town":"井戸谷"},{"zip_code":"6903403","prefecture_kana":"シマネケン","city_kana":"イイシグンイイナンチョウ","town_kana":"オダ","prefecture":"島根県","city":"飯石郡飯南町","town":"小田"},{"zip_code":"6903512","prefecture_kana":"シマネケン","city_kana":"イイシグンイイナンチョウ","town_kana":"カミアカナ","prefecture":"島根県","city":"飯石郡飯南町","town":"上赤名"},{"zip_code":"6903405","prefecture_kana":"シマネケン","city_kana":"イイシグンイイナンチョウ","town_kana":"カミキジマ","prefecture":"島根県","city":"飯石郡飯南町","town":"上来島"},{"zip_code":"6903204","prefecture_kana":"シマネケン","city_kana":"イイシグンイイナンチョウ","town_kana":"サミ","prefecture":"島根県","city":"飯石郡飯南町","town":"佐見"},{"zip_code":"6903515","prefecture_kana":"シマネケン","city_kana":"イイシグンイイナンチョウ","town_kana":"シオダニ","prefecture":"島根県","city":"飯石郡飯南町","town":"塩谷"},{"zip_code":"6903311","prefecture_kana":"シマネケン","city_kana":"イイシグンイイナンチョウ","town_kana":"シシ","prefecture":"島根県","city":"飯石郡飯南町","town":"獅子"},{"zip_code":"6903313","prefecture_kana":"シマネケン","city_kana":"イイシグンイイナンチョウ","town_kana":"シツミ","prefecture":"島根県","city":"飯石郡飯南町","town":"志津見"},{"zip_code":"6903513","prefecture_kana":"シマネケン","city_kana":"イイシグンイイナンチョウ","town_kana":"シモアカナ","prefecture":"島根県","city":"飯石郡飯南町","town":"下赤名"},{"zip_code":"6903402","prefecture_kana":"シマネケン","city_kana":"イイシグンイイナンチョウ","town_kana":"シモキジマ","prefecture":"島根県","city":"飯石郡飯南町","town":"下来島"},{"zip_code":"6903203","prefecture_kana":"シマネケン","city_kana":"イイシグンイイナンチョウ","town_kana":"ツガカ","prefecture":"島根県","city":"飯石郡飯南町","town":"都加賀"},{"zip_code":"6903314","prefecture_kana":"シマネケン","city_kana":"イイシグンイイナンチョウ","town_kana":"ツノイ","prefecture":"島根県","city":"飯石郡飯南町","town":"角井"},{"zip_code":"6903207","prefecture_kana":"シマネケン","city_kana":"イイシグンイイナンチョウ","town_kana":"トンバラ","prefecture":"島根県","city":"飯石郡飯南町","town":"頓原"},{"zip_code":"6903205","prefecture_kana":"シマネケン","city_kana":"イイシグンイイナンチョウ","town_kana":"ナガタニ","prefecture":"島根県","city":"飯石郡飯南町","town":"長谷"},{"zip_code":"6903401","prefecture_kana":"シマネケン","city_kana":"イイシグンイイナンチョウ","town_kana":"ノガヤ","prefecture":"島根県","city":"飯石郡飯南町","town":"野萱"},{"zip_code":"6903312","prefecture_kana":"シマネケン","city_kana":"イイシグンイイナンチョウ","town_kana":"ハカミ","prefecture":"島根県","city":"飯石郡飯南町","town":"八神"},{"zip_code":"6903516","prefecture_kana":"シマネケン","city_kana":"イイシグンイイナンチョウ","town_kana":"ハタタ","prefecture":"島根県","city":"飯石郡飯南町","town":"畑田"},{"zip_code":"6903206","prefecture_kana":"シマネケン","city_kana":"イイシグンイイナンチョウ","town_kana":"ハナグリ","prefecture":"島根県","city":"飯石郡飯南町","town":"花栗"},{"zip_code":"6903404","prefecture_kana":"シマネケン","city_kana":"イイシグンイイナンチョウ","town_kana":"マキ","prefecture":"島根県","city":"飯石郡飯南町","town":"真木"},{"zip_code":"6960000","prefecture_kana":"シマネケン","city_kana":"オオチグンカワモトマチ","town_kana":"イカニケイサイガナイバアイ","prefecture":"島根県","city":"邑智郡川本町","town":"以下に掲載がない場合"},{"zip_code":"6960003","prefecture_kana":"シマネケン","city_kana":"オオチグンカワモトマチ","town_kana":"インバラ","prefecture":"島根県","city":"邑智郡川本町","town":"因原"},{"zip_code":"6960011","prefecture_kana":"シマネケン","city_kana":"オオチグンカワモトマチ","town_kana":"カワウチ","prefecture":"島根県","city":"邑智郡川本町","town":"川内"},{"zip_code":"6960004","prefecture_kana":"シマネケン","city_kana":"オオチグンカワモトマチ","town_kana":"カワクダリ","prefecture":"島根県","city":"邑智郡川本町","town":"川下"},{"zip_code":"6960001","prefecture_kana":"シマネケン","city_kana":"オオチグンカワモトマチ","town_kana":"カワモト","prefecture":"島根県","city":"邑智郡川本町","town":"川本"},{"zip_code":"6961221","prefecture_kana":"シマネケン","city_kana":"オオチグンカワモトマチ","town_kana":"キタサキ","prefecture":"島根県","city":"邑智郡川本町","town":"北佐木"},{"zip_code":"6960006","prefecture_kana":"シマネケン","city_kana":"オオチグンカワモトマチ","town_kana":"クザニ","prefecture":"島根県","city":"邑智郡川本町","town":"久座仁"},{"zip_code":"6960012","prefecture_kana":"シマネケン","city_kana":"オオチグンカワモトマチ","town_kana":"コタニ","prefecture":"島根県","city":"邑智郡川本町","town":"小谷"},{"zip_code":"6961226","prefecture_kana":"シマネケン","city_kana":"オオチグンカワモトマチ","town_kana":"タクボ","prefecture":"島根県","city":"邑智郡川本町","town":"田窪"},{"zip_code":"6960007","prefecture_kana":"シマネケン","city_kana":"オオチグンカワモトマチ","town_kana":"タタ","prefecture":"島根県","city":"邑智郡川本町","town":"多田"},{"zip_code":"6960005","prefecture_kana":"シマネケン","city_kana":"オオチグンカワモトマチ","town_kana":"タンド","prefecture":"島根県","city":"邑智郡川本町","town":"谷戸"},{"zip_code":"6960002","prefecture_kana":"シマネケン","city_kana":"オオチグンカワモトマチ","town_kana":"ツガユキ","prefecture":"島根県","city":"邑智郡川本町","town":"都賀行"},{"zip_code":"6960013","prefecture_kana":"シマネケン","city_kana":"オオチグンカワモトマチ","town_kana":"マノハラ","prefecture":"島根県","city":"邑智郡川本町","town":"馬野原"},{"zip_code":"6961225","prefecture_kana":"シマネケン","city_kana":"オオチグンカワモトマチ","town_kana":"ミナミサキ","prefecture":"島根県","city":"邑智郡川本町","town":"南佐木"},{"zip_code":"6961224","prefecture_kana":"シマネケン","city_kana":"オオチグンカワモトマチ","town_kana":"ミハラ","prefecture":"島根県","city":"邑智郡川本町","town":"三原"},{"zip_code":"6961223","prefecture_kana":"シマネケン","city_kana":"オオチグンカワモトマチ","town_kana":"ミマタ","prefecture":"島根県","city":"邑智郡川本町","town":"三俣"},{"zip_code":"6961222","prefecture_kana":"シマネケン","city_kana":"オオチグンカワモトマチ","town_kana":"ユダニ","prefecture":"島根県","city":"邑智郡川本町","town":"湯谷"},{"zip_code":"6994600","prefecture_kana":"シマネケン","city_kana":"オオチグンミサトチョウ","town_kana":"イカニケイサイガナイバアイ","prefecture":"島根県","city":"邑智郡美郷町","town":"以下に掲載がない場合"},{"zip_code":"6994624","prefecture_kana":"シマネケン","city_kana":"オオチグンミサトチョウ","town_kana":"アカツカ","prefecture":"島根県","city":"邑智郡美郷町","town":"明塚"},{"zip_code":"6994627","prefecture_kana":"シマネケン","city_kana":"オオチグンミサトチョウ","town_kana":"アゴウ","prefecture":"島根県","city":"邑智郡美郷町","town":"吾郷"},{"zip_code":"6994715","prefecture_kana":"シマネケン","city_kana":"オオチグンミサトチョウ","town_kana":"イシハラ","prefecture":"島根県","city":"邑智郡美郷町","town":"石原"},{"zip_code":"6960701","prefecture_kana":"シマネケン","city_kana":"オオチグンミサトチョウ","town_kana":"ウシオムラ","prefecture":"島根県","city":"邑智郡美郷町","town":"潮村"},{"zip_code":"6961136","prefecture_kana":"シマネケン","city_kana":"オオチグンミサトチョウ","town_kana":"ウチダ","prefecture":"島根県","city":"邑智郡美郷町","town":"内田"},{"zip_code":"6994631","prefecture_kana":"シマネケン","city_kana":"オオチグンミサトチョウ","town_kana":"オクヤマ","prefecture":"島根県","city":"邑智郡美郷町","town":"奥山"},{"zip_code":"6994626","prefecture_kana":"シマネケン","city_kana":"オオチグンミサトチョウ","town_kana":"オンバラ","prefecture":"島根県","city":"邑智郡美郷町","town":"乙原"},{"zip_code":"6994621","prefecture_kana":"シマネケン","city_kana":"オオチグンミサトチョウ","town_kana":"カスブチ","prefecture":"島根県","city":"邑智郡美郷町","town":"粕渕"},{"zip_code":"6994714","prefecture_kana":"シマネケン","city_kana":"オオチグンミサトチョウ","town_kana":"カタヤマ","prefecture":"島根県","city":"邑智郡美郷町","town":"片山"},{"zip_code":"6961137","prefecture_kana":"シマネケン","city_kana":"オオチグンミサトチョウ","town_kana":"カタラガイ","prefecture":"島根県","city":"邑智郡美郷町","town":"櫨谷"},{"zip_code":"6994702","prefecture_kana":"シマネケン","city_kana":"オオチグンミサトチョウ","town_kana":"カミカワド","prefecture":"島根県","city":"邑智郡美郷町","town":"上川戸"},{"zip_code":"6960702","prefecture_kana":"シマネケン","city_kana":"オオチグンミサトチョウ","town_kana":"カミノ","prefecture":"島根県","city":"邑智郡美郷町","town":"上野"},{"zip_code":"6994707","prefecture_kana":"シマネケン","city_kana":"オオチグンミサトチョウ","town_kana":"カメムラ","prefecture":"島根県","city":"邑智郡美郷町","town":"亀村"},{"zip_code":"6961141","prefecture_kana":"シマネケン","city_kana":"オオチグンミサトチョウ","town_kana":"キョランバラ","prefecture":"島根県","city":"邑智郡美郷町","town":"京覧原"},{"zip_code":"6961142","prefecture_kana":"シマネケン","city_kana":"オオチグンミサトチョウ","town_kana":"クキバラ","prefecture":"島根県","city":"邑智郡美郷町","town":"久喜原"},{"zip_code":"6994622","prefecture_kana":"シマネケン","city_kana":"オオチグンミサトチョウ","town_kana":"クボ","prefecture":"島根県","city":"邑智郡美郷町","town":"久保"},{"zip_code":"6994703","prefecture_kana":"シマネケン","city_kana":"オオチグンミサトチョウ","town_kana":"クマミ","prefecture":"島根県","city":"邑智郡美郷町","town":"熊見"},{"zip_code":"6994712","prefecture_kana":"シマネケン","city_kana":"オオチグンミサトチョウ","town_kana":"ココノカイチ","prefecture":"島根県","city":"邑智郡美郷町","town":"九日市"},{"zip_code":"6961144","prefecture_kana":"シマネケン","city_kana":"オオチグンミサトチョウ","town_kana":"コタニ","prefecture":"島根県","city":"邑智郡美郷町","town":"小谷"},{"zip_code":"6961133","prefecture_kana":"シマネケン","city_kana":"オオチグンミサトチョウ","town_kana":"コバヤシ","prefecture":"島根県","city":"邑智郡美郷町","town":"小林"},{"zip_code":"6961135","prefecture_kana":"シマネケン","city_kana":"オオチグンミサトチョウ","town_kana":"コマツジ","prefecture":"島根県","city":"邑智郡美郷町","town":"小松地"},{"zip_code":"6994713","prefecture_kana":"シマネケン","city_kana":"オオチグンミサトチョウ","town_kana":"サケダニ","prefecture":"島根県","city":"邑智郡美郷町","town":"酒谷"},{"zip_code":"6994704","prefecture_kana":"シマネケン","city_kana":"オオチグンミサトチョウ","town_kana":"シキ","prefecture":"島根県","city":"邑智郡美郷町","town":"信喜"},{"zip_code":"6961132","prefecture_kana":"シマネケン","city_kana":"オオチグンミサトチョウ","town_kana":"シギミ","prefecture":"島根県","city":"邑智郡美郷町","town":"志君"},{"zip_code":"6961143","prefecture_kana":"シマネケン","city_kana":"オオチグンミサトチョウ","town_kana":"ジトウショ","prefecture":"島根県","city":"邑智郡美郷町","town":"地頭所"},{"zip_code":"6961134","prefecture_kana":"シマネケン","city_kana":"オオチグンミサトチョウ","town_kana":"ソウモリ","prefecture":"島根県","city":"邑智郡美郷町","town":"惣森"},{"zip_code":"6994632","prefecture_kana":"シマネケン","city_kana":"オオチグンミサトチョウ","town_kana":"タカハタ","prefecture":"島根県","city":"邑智郡美郷町","town":"高畑"},{"zip_code":"6994605","prefecture_kana":"シマネケン","city_kana":"オオチグンミサトチョウ","town_kana":"タカヤマ","prefecture":"島根県","city":"邑智郡美郷町","town":"高山"},{"zip_code":"6994706","prefecture_kana":"シマネケン","city_kana":"オオチグンミサトチョウ","town_kana":"タキバラ","prefecture":"島根県","city":"邑智郡美郷町","town":"滝原"},{"zip_code":"6994711","prefecture_kana":"シマネケン","city_kana":"オオチグンミサトチョウ","town_kana":"チハラ","prefecture":"島根県","city":"邑智郡美郷町","town":"千原"},{"zip_code":"6960703","prefecture_kana":"シマネケン","city_kana":"オオチグンミサトチョウ","town_kana":"ツガニシ","prefecture":"島根県","city":"邑智郡美郷町","town":"都賀西"},{"zip_code":"6960704","prefecture_kana":"シマネケン","city_kana":"オオチグンミサトチョウ","town_kana":"ツガホンゴウ","prefecture":"島根県","city":"邑智郡美郷町","town":"都賀本郷"},{"zip_code":"6960705","prefecture_kana":"シマネケン","city_kana":"オオチグンミサトチョウ","town_kana":"ツガユキ","prefecture":"島根県","city":"邑智郡美郷町","town":"都賀行"},{"zip_code":"6960706","prefecture_kana":"シマネケン","city_kana":"オオチグンミサトチョウ","town_kana":"ナガトウ","prefecture":"島根県","city":"邑智郡美郷町","town":"長藤"},{"zip_code":"6994623","prefecture_kana":"シマネケン","city_kana":"オオチグンミサトチョウ","town_kana":"ノイ","prefecture":"島根県","city":"邑智郡美郷町","town":"野井"},{"zip_code":"6994701","prefecture_kana":"シマネケン","city_kana":"オオチグンミサトチョウ","town_kana":"ハマハラ","prefecture":"島根県","city":"邑智郡美郷町","town":"浜原"},{"zip_code":"6960712","prefecture_kana":"シマネケン","city_kana":"オオチグンミサトチョウ","town_kana":"ヒジキ","prefecture":"島根県","city":"邑智郡美郷町","town":"比敷"},{"zip_code":"6961131","prefecture_kana":"シマネケン","city_kana":"オオチグンミサトチョウ","town_kana":"ベップ","prefecture":"島根県","city":"邑智郡美郷町","town":"別府"},{"zip_code":"6961145","prefecture_kana":"シマネケン","city_kana":"オオチグンミサトチョウ","town_kana":"ミナト","prefecture":"島根県","city":"邑智郡美郷町","town":"港"},{"zip_code":"6960711","prefecture_kana":"シマネケン","city_kana":"オオチグンミサトチョウ","town_kana":"ミヤウチ","prefecture":"島根県","city":"邑智郡美郷町","town":"宮内"},{"zip_code":"6960713","prefecture_kana":"シマネケン","city_kana":"オオチグンミサトチョウ","town_kana":"ムラノゴウ","prefecture":"島根県","city":"邑智郡美郷町","town":"村之郷"},{"zip_code":"6994625","prefecture_kana":"シマネケン","city_kana":"オオチグンミサトチョウ","town_kana":"ヤナゼ","prefecture":"島根県","city":"邑智郡美郷町","town":"簗瀬"},{"zip_code":"6994633","prefecture_kana":"シマネケン","city_kana":"オオチグンミサトチョウ","town_kana":"ユガカイ","prefecture":"島根県","city":"邑智郡美郷町","town":"湯抱"},{"zip_code":"6960100","prefecture_kana":"シマネケン","city_kana":"オオチグンオオナンチョウ","town_kana":"イカニケイサイガナイバアイ","prefecture":"島根県","city":"邑智郡邑南町","town":"以下に掲載がない場合"},{"zip_code":"6960501","prefecture_kana":"シマネケン","city_kana":"オオチグンオオナンチョウ","town_kana":"アスナ","prefecture":"島根県","city":"邑智郡邑南町","town":"阿須那"},{"zip_code":"6960312","prefecture_kana":"シマネケン","city_kana":"オオチグンオオナンチョウ","town_kana":"イズハ","prefecture":"島根県","city":"邑智郡邑南町","town":"出羽"},{"zip_code":"6970631","prefecture_kana":"シマネケン","city_kana":"オオチグンオオナンチョウ","town_kana":"イチギ","prefecture":"島根県","city":"邑智郡邑南町","town":"市木"},{"zip_code":"6960101","prefecture_kana":"シマネケン","city_kana":"オオチグンオオナンチョウ","town_kana":"イバラ","prefecture":"島根県","city":"邑智郡邑南町","town":"井原"},{"zip_code":"6960504","prefecture_kana":"シマネケン","city_kana":"オオチグンオオナンチョウ","town_kana":"イマイ","prefecture":"島根県","city":"邑智郡邑南町","town":"今井"},{"zip_code":"6960314","prefecture_kana":"シマネケン","city_kana":"オオチグンオオナンチョウ","town_kana":"イワヤ","prefecture":"島根県","city":"邑智郡邑南町","town":"岩屋"},{"zip_code":"6960601","prefecture_kana":"シマネケン","city_kana":"オオチグンオオナンチョウ","town_kana":"ウエダ","prefecture":"島根県","city":"邑智郡邑南町","town":"上田"},{"zip_code":"6960503","prefecture_kana":"シマネケン","city_kana":"オオチグンオオナンチョウ","town_kana":"ウヅイ","prefecture":"島根県","city":"邑智郡邑南町","town":"宇都井"},{"zip_code":"6960315","prefecture_kana":"シマネケン","city_kana":"オオチグンオオナンチョウ","town_kana":"オオバヤシ","prefecture":"島根県","city":"邑智郡邑南町","town":"大林"},{"zip_code":"6960224","prefecture_kana":"シマネケン","city_kana":"オオチグンオオナンチョウ","town_kana":"カミカメダニ","prefecture":"島根県","city":"邑智郡邑南町","town":"上亀谷"},{"zip_code":"6960602","prefecture_kana":"シマネケン","city_kana":"オオチグンオオナンチョウ","town_kana":"カミクチバ","prefecture":"島根県","city":"邑智郡邑南町","town":"上口羽"},{"zip_code":"6960225","prefecture_kana":"シマネケン","city_kana":"オオチグンオオナンチョウ","town_kana":"カミタドコロ","prefecture":"島根県","city":"邑智郡邑南町","town":"上田所"},{"zip_code":"6960405","prefecture_kana":"シマネケン","city_kana":"オオチグンオオナンチョウ","town_kana":"カミハラ","prefecture":"島根県","city":"邑智郡邑南町","town":"上原"},{"zip_code":"6960502","prefecture_kana":"シマネケン","city_kana":"オオチグンオオナンチョウ","town_kana":"キズタ","prefecture":"島根県","city":"邑智郡邑南町","town":"木須田"},{"zip_code":"6960316","prefecture_kana":"シマネケン","city_kana":"オオチグンオオナンチョウ","town_kana":"クキ","prefecture":"島根県","city":"邑智郡邑南町","town":"久喜"},{"zip_code":"6960131","prefecture_kana":"シマネケン","city_kana":"オオチグンオオナンチョウ","town_kana":"コウズイ","prefecture":"島根県","city":"邑智郡邑南町","town":"高水"},{"zip_code":"6960223","prefecture_kana":"シマネケン","city_kana":"オオチグンオオナンチョウ","town_kana":"シモカメダニ","prefecture":"島根県","city":"邑智郡邑南町","town":"下亀谷"},{"zip_code":"6960603","prefecture_kana":"シマネケン","city_kana":"オオチグンオオナンチョウ","town_kana":"シモクチバ","prefecture":"島根県","city":"邑智郡邑南町","town":"下口羽"},{"zip_code":"6960222","prefecture_kana":"シマネケン","city_kana":"オオチグンオオナンチョウ","town_kana":"シモタドコロ","prefecture":"島根県","city":"邑智郡邑南町","town":"下田所"},{"zip_code":"6960406","prefecture_kana":"シマネケン","city_kana":"オオチグンオオナンチョウ","town_kana":"タカミ","prefecture":"島根県","city":"邑智郡邑南町","town":"高見"},{"zip_code":"6960505","prefecture_kana":"シマネケン","city_kana":"オオチグンオオナンチョウ","town_kana":"トガウチ","prefecture":"島根県","city":"邑智郡邑南町","town":"戸河内"},{"zip_code":"6960102","prefecture_kana":"シマネケン","city_kana":"オオチグンオオナンチョウ","town_kana":"ナカノ","prefecture":"島根県","city":"邑智郡邑南町","town":"中野"},{"zip_code":"6960404","prefecture_kana":"シマネケン","city_kana":"オオチグンオオナンチョウ","town_kana":"ハラムラ","prefecture":"島根県","city":"邑智郡邑南町","town":"原村"},{"zip_code":"6994311","prefecture_kana":"シマネケン","city_kana":"オオチグンオオナンチョウ","town_kana":"ヒヌイ","prefecture":"島根県","city":"邑智郡邑南町","town":"日貫"},{"zip_code":"6960104","prefecture_kana":"シマネケン","city_kana":"オオチグンオオナンチョウ","town_kana":"ヒワ","prefecture":"島根県","city":"邑智郡邑南町","town":"日和"},{"zip_code":"6960402","prefecture_kana":"シマネケン","city_kana":"オオチグンオオナンチョウ","town_kana":"フシタニ","prefecture":"島根県","city":"邑智郡邑南町","town":"伏谷"},{"zip_code":"6960401","prefecture_kana":"シマネケン","city_kana":"オオチグンオオナンチョウ","town_kana":"フセ","prefecture":"島根県","city":"邑智郡邑南町","town":"布施"},{"zip_code":"6960221","prefecture_kana":"シマネケン","city_kana":"オオチグンオオナンチョウ","town_kana":"マスブチ","prefecture":"島根県","city":"邑智郡邑南町","town":"鱒渕"},{"zip_code":"6960311","prefecture_kana":"シマネケン","city_kana":"オオチグンオオナンチョウ","town_kana":"ミッカイチ","prefecture":"島根県","city":"邑智郡邑南町","town":"三日市"},{"zip_code":"6960407","prefecture_kana":"シマネケン","city_kana":"オオチグンオオナンチョウ","town_kana":"ヤイロイシ","prefecture":"島根県","city":"邑智郡邑南町","town":"八色石"},{"zip_code":"6960103","prefecture_kana":"シマネケン","city_kana":"オオチグンオオナンチョウ","town_kana":"ヤカミ","prefecture":"島根県","city":"邑智郡邑南町","town":"矢上"},{"zip_code":"6960313","prefecture_kana":"シマネケン","city_kana":"オオチグンオオナンチョウ","town_kana":"ヤマダ","prefecture":"島根県","city":"邑智郡邑南町","town":"山田"},{"zip_code":"6960506","prefecture_kana":"シマネケン","city_kana":"オオチグンオオナンチョウ","town_kana":"ユキタ","prefecture":"島根県","city":"邑智郡邑南町","town":"雪田"},{"zip_code":"6960317","prefecture_kana":"シマネケン","city_kana":"オオチグンオオナンチョウ","town_kana":"ヨドハラ","prefecture":"島根県","city":"邑智郡邑南町","town":"淀原"},{"zip_code":"6960403","prefecture_kana":"シマネケン","city_kana":"オオチグンオオナンチョウ","town_kana":"ワダ","prefecture":"島根県","city":"邑智郡邑南町","town":"和田"},{"zip_code":"6995600","prefecture_kana":"シマネケン","city_kana":"カノアシグンツワノチョウ","town_kana":"イカニケイサイガナイバアイ","prefecture":"島根県","city":"鹿足郡津和野町","town":"以下に掲載がない場合"},{"zip_code":"6995211","prefecture_kana":"シマネケン","city_kana":"カノアシグンツワノチョウ","town_kana":"アオハラ","prefecture":"島根県","city":"鹿足郡津和野町","town":"青原"},{"zip_code":"6995201","prefecture_kana":"シマネケン","city_kana":"カノアシグンツワノチョウ","town_kana":"アキンド（９２９−１１１７、１３４３−１７３４バンチ）","prefecture":"島根県","city":"鹿足郡津和野町","town":"商人（９２９〜１１１７、１３４３〜１７３４番地）"},{"zip_code":"6995601","prefecture_kana":"シマネケン","city_kana":"カノアシグンツワノチョウ","town_kana":"アキンド（ソノタ）","prefecture":"島根県","city":"鹿足郡津和野町","town":"商人（その他）"},{"zip_code":"6995216","prefecture_kana":"シマネケン","city_kana":"カノアシグンツワノチョウ","town_kana":"イケムラ","prefecture":"島根県","city":"鹿足郡津和野町","town":"池村"},{"zip_code":"6995605","prefecture_kana":"シマネケン","city_kana":"カノアシグンツワノチョウ","town_kana":"ウシロダ","prefecture":"島根県","city":"鹿足郡津和野町","town":"後田"},{"zip_code":"6995212","prefecture_kana":"シマネケン","city_kana":"カノアシグンツワノチョウ","town_kana":"カワムラ","prefecture":"島根県","city":"鹿足郡津和野町","town":"河村"},{"zip_code":"6995607","prefecture_kana":"シマネケン","city_kana":"カノアシグンツワノチョウ","town_kana":"コウダ","prefecture":"島根県","city":"鹿足郡津和野町","town":"耕田"},{"zip_code":"6995603","prefecture_kana":"シマネケン","city_kana":"カノアシグンツワノチョウ","town_kana":"ササヤマ","prefecture":"島根県","city":"鹿足郡津和野町","town":"笹山"},{"zip_code":"6995202","prefecture_kana":"シマネケン","city_kana":"カノアシグンツワノチョウ","town_kana":"サブミ","prefecture":"島根県","city":"鹿足郡津和野町","town":"左鐙"},{"zip_code":"6995204","prefecture_kana":"シマネケン","city_kana":"カノアシグンツワノチョウ","town_kana":"スガワ","prefecture":"島根県","city":"鹿足郡津和野町","town":"須川"},{"zip_code":"6995203","prefecture_kana":"シマネケン","city_kana":"カノアシグンツワノチョウ","town_kana":"スモウガハラ","prefecture":"島根県","city":"鹿足郡津和野町","town":"相撲ケ原"},{"zip_code":"6995213","prefecture_kana":"シマネケン","city_kana":"カノアシグンツワノチョウ","town_kana":"ソエダニ","prefecture":"島根県","city":"鹿足郡津和野町","town":"添谷"},{"zip_code":"6995614","prefecture_kana":"シマネケン","city_kana":"カノアシグンツワノチョウ","town_kana":"タカミネ","prefecture":"島根県","city":"鹿足郡津和野町","town":"高峯"},{"zip_code":"6995205","prefecture_kana":"シマネケン","city_kana":"カノアシグンツワノチョウ","town_kana":"タキダニ","prefecture":"島根県","city":"鹿足郡津和野町","town":"瀧谷"},{"zip_code":"6995206","prefecture_kana":"シマネケン","city_kana":"カノアシグンツワノチョウ","town_kana":"タキモト","prefecture":"島根県","city":"鹿足郡津和野町","town":"瀧元"},{"zip_code":"6995602","prefecture_kana":"シマネケン","city_kana":"カノアシグンツワノチョウ","town_kana":"タダチ","prefecture":"島根県","city":"鹿足郡津和野町","town":"直地"},{"zip_code":"6995617","prefecture_kana":"シマネケン","city_kana":"カノアシグンツワノチョウ","town_kana":"タニホ","prefecture":"島根県","city":"鹿足郡津和野町","town":"田二穂"},{"zip_code":"6995214","prefecture_kana":"シマネケン","city_kana":"カノアシグンツワノチョウ","town_kana":"タニムラ","prefecture":"島根県","city":"鹿足郡津和野町","town":"溪村"},{"zip_code":"6995606","prefecture_kana":"シマネケン","city_kana":"カノアシグンツワノチョウ","town_kana":"テラダ","prefecture":"島根県","city":"鹿足郡津和野町","town":"寺田"},{"zip_code":"6995215","prefecture_kana":"シマネケン","city_kana":"カノアシグンツワノチョウ","town_kana":"トミタ","prefecture":"島根県","city":"鹿足郡津和野町","town":"冨田"},{"zip_code":"6995632","prefecture_kana":"シマネケン","city_kana":"カノアシグンツワノチョウ","town_kana":"トヨカ","prefecture":"島根県","city":"鹿足郡津和野町","town":"豊稼"},{"zip_code":"6995621","prefecture_kana":"シマネケン","city_kana":"カノアシグンツワノチョウ","town_kana":"ナイミ","prefecture":"島根県","city":"鹿足郡津和野町","town":"内美"},{"zip_code":"6995634","prefecture_kana":"シマネケン","city_kana":"カノアシグンツワノチョウ","town_kana":"ナカガワ","prefecture":"島根県","city":"鹿足郡津和野町","town":"中川"},{"zip_code":"6995612","prefecture_kana":"シマネケン","city_kana":"カノアシグンツワノチョウ","town_kana":"ナカザ","prefecture":"島根県","city":"鹿足郡津和野町","town":"中座"},{"zip_code":"6995636","prefecture_kana":"シマネケン","city_kana":"カノアシグンツワノチョウ","town_kana":"ナカソノ","prefecture":"島根県","city":"鹿足郡津和野町","town":"中曽野"},{"zip_code":"6995631","prefecture_kana":"シマネケン","city_kana":"カノアシグンツワノチョウ","town_kana":"ナカヤマ","prefecture":"島根県","city":"鹿足郡津和野町","town":"中山"},{"zip_code":"6995633","prefecture_kana":"シマネケン","city_kana":"カノアシグンツワノチョウ","town_kana":"ナガフク","prefecture":"島根県","city":"鹿足郡津和野町","town":"長福"},{"zip_code":"6995615","prefecture_kana":"シマネケン","city_kana":"カノアシグンツワノチョウ","town_kana":"ナヨシ","prefecture":"島根県","city":"鹿足郡津和野町","town":"名賀"},{"zip_code":"6995221","prefecture_kana":"シマネケン","city_kana":"カノアシグンツワノチョウ","town_kana":"ニチハラ","prefecture":"島根県","city":"鹿足郡津和野町","town":"日原"},{"zip_code":"6995637","prefecture_kana":"シマネケン","city_kana":"カノアシグンツワノチョウ","town_kana":"フキノ","prefecture":"島根県","city":"鹿足郡津和野町","town":"吹野"},{"zip_code":"6995616","prefecture_kana":"シマネケン","city_kana":"カノアシグンツワノチョウ","town_kana":"ブサカ","prefecture":"島根県","city":"鹿足郡津和野町","town":"部栄"},{"zip_code":"6995207","prefecture_kana":"シマネケン","city_kana":"カノアシグンツワノチョウ","town_kana":"マクラセ","prefecture":"島根県","city":"鹿足郡津和野町","town":"枕瀬"},{"zip_code":"6995611","prefecture_kana":"シマネケン","city_kana":"カノアシグンツワノチョウ","town_kana":"マチダ","prefecture":"島根県","city":"鹿足郡津和野町","town":"町田"},{"zip_code":"6995622","prefecture_kana":"シマネケン","city_kana":"カノアシグンツワノチョウ","town_kana":"ムラキ","prefecture":"島根県","city":"鹿足郡津和野町","town":"邑輝"},{"zip_code":"6995604","prefecture_kana":"シマネケン","city_kana":"カノアシグンツワノチョウ","town_kana":"モリムラ","prefecture":"島根県","city":"鹿足郡津和野町","town":"森村"},{"zip_code":"6995217","prefecture_kana":"シマネケン","city_kana":"カノアシグンツワノチョウ","town_kana":"ヤナギムラ","prefecture":"島根県","city":"鹿足郡津和野町","town":"柳村"},{"zip_code":"6995635","prefecture_kana":"シマネケン","city_kana":"カノアシグンツワノチョウ","town_kana":"ヤマシタ","prefecture":"島根県","city":"鹿足郡津和野町","town":"山下"},{"zip_code":"6995613","prefecture_kana":"シマネケン","city_kana":"カノアシグンツワノチョウ","town_kana":"ワシバラ","prefecture":"島根県","city":"鹿足郡津和野町","town":"鷲原"},{"zip_code":"6995500","prefecture_kana":"シマネケン","city_kana":"カノアシグンヨシカチョウ","town_kana":"イカニケイサイガナイバアイ","prefecture":"島根県","city":"鹿足郡吉賀町","town":"以下に掲載がない場合"},{"zip_code":"6995523","prefecture_kana":"シマネケン","city_kana":"カノアシグンヨシカチョウ","town_kana":"アサクラ","prefecture":"島根県","city":"鹿足郡吉賀町","town":"朝倉"},{"zip_code":"6995506","prefecture_kana":"シマネケン","city_kana":"カノアシグンヨシカチョウ","town_kana":"アリイ","prefecture":"島根県","city":"鹿足郡吉賀町","town":"有飯"},{"zip_code":"6995306","prefecture_kana":"シマネケン","city_kana":"カノアシグンヨシカチョウ","town_kana":"オオノバラ","prefecture":"島根県","city":"鹿足郡吉賀町","town":"大野原"},{"zip_code":"6995301","prefecture_kana":"シマネケン","city_kana":"カノアシグンヨシカチョウ","town_kana":"カキノキ","prefecture":"島根県","city":"鹿足郡吉賀町","town":"柿木"},{"zip_code":"6995303","prefecture_kana":"シマネケン","city_kana":"カノアシグンヨシカチョウ","town_kana":"カバタニ","prefecture":"島根県","city":"鹿足郡吉賀町","town":"椛谷"},{"zip_code":"6995501","prefecture_kana":"シマネケン","city_kana":"カノアシグンヨシカチョウ","town_kana":"カミタカジリ","prefecture":"島根県","city":"鹿足郡吉賀町","town":"上高尻"},{"zip_code":"6995307","prefecture_kana":"シマネケン","city_kana":"カノアシグンヨシカチョウ","town_kana":"キベダニ","prefecture":"島根県","city":"鹿足郡吉賀町","town":"木部谷"},{"zip_code":"6995504","prefecture_kana":"シマネケン","city_kana":"カノアシグンヨシカチョウ","town_kana":"クラギ","prefecture":"島根県","city":"鹿足郡吉賀町","town":"蔵木"},{"zip_code":"6995505","prefecture_kana":"シマネケン","city_kana":"カノアシグンヨシカチョウ","town_kana":"クロウバラ","prefecture":"島根県","city":"鹿足郡吉賀町","town":"九郎原"},{"zip_code":"6995515","prefecture_kana":"シマネケン","city_kana":"カノアシグンヨシカチョウ","town_kana":"コウジ","prefecture":"島根県","city":"鹿足郡吉賀町","town":"幸地"},{"zip_code":"6995521","prefecture_kana":"シマネケン","city_kana":"カノアシグンヨシカチョウ","town_kana":"サナダ","prefecture":"島根県","city":"鹿足郡吉賀町","town":"真田"},{"zip_code":"6995516","prefecture_kana":"シマネケン","city_kana":"カノアシグンヨシカチョウ","town_kana":"サワダ","prefecture":"島根県","city":"鹿足郡吉賀町","town":"沢田"},{"zip_code":"6995517","prefecture_kana":"シマネケン","city_kana":"カノアシグンヨシカチョウ","town_kana":"シメガワ","prefecture":"島根県","city":"鹿足郡吉賀町","town":"注連川"},{"zip_code":"6995305","prefecture_kana":"シマネケン","city_kana":"カノアシグンヨシカチョウ","town_kana":"シモス","prefecture":"島根県","city":"鹿足郡吉賀町","town":"下須"},{"zip_code":"6995507","prefecture_kana":"シマネケン","city_kana":"カノアシグンヨシカチョウ","town_kana":"シモタカジリ","prefecture":"島根県","city":"鹿足郡吉賀町","town":"下高尻"},{"zip_code":"6995304","prefecture_kana":"シマネケン","city_kana":"カノアシグンヨシカチョウ","town_kana":"シラタニ","prefecture":"島根県","city":"鹿足郡吉賀町","town":"白谷"},{"zip_code":"6995514","prefecture_kana":"シマネケン","city_kana":"カノアシグンヨシカチョウ","town_kana":"タチゴウチ","prefecture":"島根県","city":"鹿足郡吉賀町","town":"立河内"},{"zip_code":"6995511","prefecture_kana":"シマネケン","city_kana":"カノアシグンヨシカチョウ","town_kana":"タチド","prefecture":"島根県","city":"鹿足郡吉賀町","town":"立戸"},{"zip_code":"6995524","prefecture_kana":"シマネケン","city_kana":"カノアシグンヨシカチョウ","town_kana":"タデノ","prefecture":"島根県","city":"鹿足郡吉賀町","town":"蓼野"},{"zip_code":"6995502","prefecture_kana":"シマネケン","city_kana":"カノアシグンヨシカチョウ","town_kana":"タノハラ","prefecture":"島根県","city":"鹿足郡吉賀町","town":"田野原"},{"zip_code":"6995522","prefecture_kana":"シマネケン","city_kana":"カノアシグンヨシカチョウ","town_kana":"ナヌカイチ","prefecture":"島根県","city":"鹿足郡吉賀町","town":"七日市"},{"zip_code":"6995525","prefecture_kana":"シマネケン","city_kana":"カノアシグンヨシカチョウ","town_kana":"ヌクツキ","prefecture":"島根県","city":"鹿足郡吉賀町","town":"抜月"},{"zip_code":"6995503","prefecture_kana":"シマネケン","city_kana":"カノアシグンヨシカチョウ","town_kana":"ヒグチ","prefecture":"島根県","city":"鹿足郡吉賀町","town":"樋口"},{"zip_code":"6995512","prefecture_kana":"シマネケン","city_kana":"カノアシグンヨシカチョウ","town_kana":"ヒロイシ","prefecture":"島根県","city":"鹿足郡吉賀町","town":"広石"},{"zip_code":"6995302","prefecture_kana":"シマネケン","city_kana":"カノアシグンヨシカチョウ","town_kana":"フクガワ","prefecture":"島根県","city":"鹿足郡吉賀町","town":"福川"},{"zip_code":"6995513","prefecture_kana":"シマネケン","city_kana":"カノアシグンヨシカチョウ","town_kana":"ムイカイチ","prefecture":"島根県","city":"鹿足郡吉賀町","town":"六日市"},{"zip_code":"6840400","prefecture_kana":"シマネケン","city_kana":"オキグンアマチョウ","town_kana":"イカニケイサイガナイバアイ","prefecture":"島根県","city":"隠岐郡海士町","town":"以下に掲載がない場合"},{"zip_code":"6840403","prefecture_kana":"シマネケン","city_kana":"オキグンアマチョウ","town_kana":"アマ","prefecture":"島根県","city":"隠岐郡海士町","town":"海士"},{"zip_code":"6840401","prefecture_kana":"シマネケン","city_kana":"オキグンアマチョウ","town_kana":"ウズカ","prefecture":"島根県","city":"隠岐郡海士町","town":"宇受賀"},{"zip_code":"6840413","prefecture_kana":"シマネケン","city_kana":"オキグンアマチョウ","town_kana":"サキ","prefecture":"島根県","city":"隠岐郡海士町","town":"崎"},{"zip_code":"6840411","prefecture_kana":"シマネケン","city_kana":"オキグンアマチョウ","town_kana":"チチイ","prefecture":"島根県","city":"隠岐郡海士町","town":"知々井"},{"zip_code":"6840402","prefecture_kana":"シマネケン","city_kana":"オキグンアマチョウ","town_kana":"トヨダ","prefecture":"島根県","city":"隠岐郡海士町","town":"豊田"},{"zip_code":"6840404","prefecture_kana":"シマネケン","city_kana":"オキグンアマチョウ","town_kana":"フクイ","prefecture":"島根県","city":"隠岐郡海士町","town":"福井"},{"zip_code":"6840412","prefecture_kana":"シマネケン","city_kana":"オキグンアマチョウ","town_kana":"ミナミ","prefecture":"島根県","city":"隠岐郡海士町","town":"御波"},{"zip_code":"6840300","prefecture_kana":"シマネケン","city_kana":"オキグンニシノシマチョウ","town_kana":"イカニケイサイガナイバアイ","prefecture":"島根県","city":"隠岐郡西ノ島町","town":"以下に掲載がない場合"},{"zip_code":"6840301","prefecture_kana":"シマネケン","city_kana":"オキグンニシノシマチョウ","town_kana":"ウカ","prefecture":"島根県","city":"隠岐郡西ノ島町","town":"宇賀"},{"zip_code":"6840211","prefecture_kana":"シマネケン","city_kana":"オキグンニシノシマチョウ","town_kana":"ウラゴウ","prefecture":"島根県","city":"隠岐郡西ノ島町","town":"浦郷"},{"zip_code":"6840302","prefecture_kana":"シマネケン","city_kana":"オキグンニシノシマチョウ","town_kana":"ベップ","prefecture":"島根県","city":"隠岐郡西ノ島町","town":"別府"},{"zip_code":"6840303","prefecture_kana":"シマネケン","city_kana":"オキグンニシノシマチョウ","town_kana":"ミタ","prefecture":"島根県","city":"隠岐郡西ノ島町","town":"美田"},{"zip_code":"6840100","prefecture_kana":"シマネケン","city_kana":"オキグンチブムラ","town_kana":"イカニケイサイガナイバアイ","prefecture":"島根県","city":"隠岐郡知夫村","town":"以下に掲載がない場合"},{"zip_code":"6840104","prefecture_kana":"シマネケン","city_kana":"オキグンチブムラ","town_kana":"ウスゲ","prefecture":"島根県","city":"隠岐郡知夫村","town":"薄毛"},{"zip_code":"6840107","prefecture_kana":"シマネケン","city_kana":"オキグンチブムラ","town_kana":"ウルミ","prefecture":"島根県","city":"隠岐郡知夫村","town":"古海"},{"zip_code":"6840101","prefecture_kana":"シマネケン","city_kana":"オキグンチブムラ","town_kana":"オオエ","prefecture":"島根県","city":"隠岐郡知夫村","town":"大江"},{"zip_code":"6840106","prefecture_kana":"シマネケン","city_kana":"オキグンチブムラ","town_kana":"クリイ","prefecture":"島根県","city":"隠岐郡知夫村","town":"来居"},{"zip_code":"6840102","prefecture_kana":"シマネケン","city_kana":"オキグンチブムラ","town_kana":"コオリ","prefecture":"島根県","city":"隠岐郡知夫村","town":"郡"},{"zip_code":"6840103","prefecture_kana":"シマネケン","city_kana":"オキグンチブムラ","town_kana":"タタク","prefecture":"島根県","city":"隠岐郡知夫村","town":"多沢"},{"zip_code":"6840105","prefecture_kana":"シマネケン","city_kana":"オキグンチブムラ","town_kana":"ニブ","prefecture":"島根県","city":"隠岐郡知夫村","town":"仁夫"},{"zip_code":"6850000","prefecture_kana":"シマネケン","city_kana":"オキグンオキノシマチョウ","town_kana":"イカニケイサイガナイバアイ","prefecture":"島根県","city":"隠岐郡隠岐の島町","town":"以下に掲載がない場合"},{"zip_code":"6850006","prefecture_kana":"シマネケン","city_kana":"オキグンオキノシマチョウ","town_kana":"アラキ","prefecture":"島根県","city":"隠岐郡隠岐の島町","town":"有木"},{"zip_code":"6850004","prefecture_kana":"シマネケン","city_kana":"オキグンオキノシマチョウ","town_kana":"イイダ","prefecture":"島根県","city":"隠岐郡隠岐の島町","town":"飯田"},{"zip_code":"6850411","prefecture_kana":"シマネケン","city_kana":"オキグンオキノシマチョウ","town_kana":"イイビ","prefecture":"島根県","city":"隠岐郡隠岐の島町","town":"飯美"},{"zip_code":"6850007","prefecture_kana":"シマネケン","city_kana":"オキグンオキノシマチョウ","town_kana":"イケダ","prefecture":"島根県","city":"隠岐郡隠岐の島町","town":"池田"},{"zip_code":"6850431","prefecture_kana":"シマネケン","city_kana":"オキグンオキノシマチョウ","town_kana":"イゴ（ソノタ）","prefecture":"島根県","city":"隠岐郡隠岐の島町","town":"伊後（その他）"},{"zip_code":"6850306","prefecture_kana":"シマネケン","city_kana":"オキグンオキノシマチョウ","town_kana":"イゴ（ムコウガオカ）","prefecture":"島根県","city":"隠岐郡隠岐の島町","town":"伊後（向ケ丘）"},{"zip_code":"6850003","prefecture_kana":"シマネケン","city_kana":"オキグンオキノシマチョウ","town_kana":"イヌグ","prefecture":"島根県","city":"隠岐郡隠岐の島町","town":"犬来"},{"zip_code":"6850022","prefecture_kana":"シマネケン","city_kana":"オキグンオキノシマチョウ","town_kana":"イマヅ","prefecture":"島根県","city":"隠岐郡隠岐の島町","town":"今津"},{"zip_code":"6850413","prefecture_kana":"シマネケン","city_kana":"オキグンオキノシマチョウ","town_kana":"ウズキ","prefecture":"島根県","city":"隠岐郡隠岐の島町","town":"卯敷"},{"zip_code":"6850001","prefecture_kana":"シマネケン","city_kana":"オキグンオキノシマチョウ","town_kana":"オオク","prefecture":"島根県","city":"隠岐郡隠岐の島町","town":"大久"},{"zip_code":"6850002","prefecture_kana":"シマネケン","city_kana":"オキグンオキノシマチョウ","town_kana":"カマ","prefecture":"島根県","city":"隠岐郡隠岐の島町","town":"釜"},{"zip_code":"6850026","prefecture_kana":"シマネケン","city_kana":"オキグンオキノシマチョウ","town_kana":"カミニシ","prefecture":"島根県","city":"隠岐郡隠岐の島町","town":"上西"},{"zip_code":"6850024","prefecture_kana":"シマネケン","city_kana":"オキグンオキノシマチョウ","town_kana":"カモ","prefecture":"島根県","city":"隠岐郡隠岐の島町","town":"加茂"},{"zip_code":"6850435","prefecture_kana":"シマネケン","city_kana":"オキグンオキノシマチョウ","town_kana":"ガンヤ","prefecture":"島根県","city":"隠岐郡隠岐の島町","town":"元屋"},{"zip_code":"6850301","prefecture_kana":"シマネケン","city_kana":"オキグンオキノシマチョウ","town_kana":"キタガタ","prefecture":"島根県","city":"隠岐郡隠岐の島町","town":"北方"},{"zip_code":"6850305","prefecture_kana":"シマネケン","city_kana":"オキグンオキノシマチョウ","town_kana":"クミ","prefecture":"島根県","city":"隠岐郡隠岐の島町","town":"久見"},{"zip_code":"6850101","prefecture_kana":"シマネケン","city_kana":"オキグンオキノシマチョウ","town_kana":"クラタ","prefecture":"島根県","city":"隠岐郡隠岐の島町","town":"蔵田"},{"zip_code":"6850312","prefecture_kana":"シマネケン","city_kana":"オキグンオキノシマチョウ","town_kana":"コウジ","prefecture":"島根県","city":"隠岐郡隠岐の島町","town":"小路"},{"zip_code":"6850311","prefecture_kana":"シマネケン","city_kana":"オキグンオキノシマチョウ","town_kana":"コオリ","prefecture":"島根県","city":"隠岐郡隠岐の島町","town":"郡"},{"zip_code":"6850011","prefecture_kana":"シマネケン","city_kana":"オキグンオキノシマチョウ","town_kana":"サカエマチ","prefecture":"島根県","city":"隠岐郡隠岐の島町","town":"栄町"},{"zip_code":"6850017","prefecture_kana":"シマネケン","city_kana":"オキグンオキノシマチョウ","town_kana":"シモニシ","prefecture":"島根県","city":"隠岐郡隠岐の島町","town":"下西"},{"zip_code":"6850016","prefecture_kana":"シマネケン","city_kana":"オキグンオキノシマチョウ","town_kana":"ジョウホクマチ","prefecture":"島根県","city":"隠岐郡隠岐の島町","town":"城北町"},{"zip_code":"6850304","prefecture_kana":"シマネケン","city_kana":"オキグンオキノシマチョウ","town_kana":"シロ","prefecture":"島根県","city":"隠岐郡隠岐の島町","town":"代"},{"zip_code":"6850106","prefecture_kana":"シマネケン","city_kana":"オキグンオキノシマチョウ","town_kana":"タクギ","prefecture":"島根県","city":"隠岐郡隠岐の島町","town":"蛸木"},{"zip_code":"6850105","prefecture_kana":"シマネケン","city_kana":"オキグンオキノシマチョウ","town_kana":"ツド","prefecture":"島根県","city":"隠岐郡隠岐の島町","town":"津戸"},{"zip_code":"6850104","prefecture_kana":"シマネケン","city_kana":"オキグンオキノシマチョウ","town_kana":"ツマ","prefecture":"島根県","city":"隠岐郡隠岐の島町","town":"都万"},{"zip_code":"6850005","prefecture_kana":"シマネケン","city_kana":"オキグンオキノシマチョウ","town_kana":"トウゴウ","prefecture":"島根県","city":"隠岐郡隠岐の島町","town":"東郷"},{"zip_code":"6850013","prefecture_kana":"シマネケン","city_kana":"オキグンオキノシマチョウ","town_kana":"ナカマチ","prefecture":"島根県","city":"隠岐郡隠岐の島町","town":"中町"},{"zip_code":"6850434","prefecture_kana":"シマネケン","city_kana":"オキグンオキノシマチョウ","town_kana":"ナカムラ","prefecture":"島根県","city":"隠岐郡隠岐の島町","town":"中村"},{"zip_code":"6850103","prefecture_kana":"シマネケン","city_kana":"オキグンオキノシマチョウ","town_kana":"ナグ","prefecture":"島根県","city":"隠岐郡隠岐の島町","town":"那久"},{"zip_code":"6850313","prefecture_kana":"シマネケン","city_kana":"オキグンオキノシマチョウ","town_kana":"ナグチ","prefecture":"島根県","city":"隠岐郡隠岐の島町","town":"那久路"},{"zip_code":"6850302","prefecture_kana":"シマネケン","city_kana":"オキグンオキノシマチョウ","town_kana":"ナワシロダ","prefecture":"島根県","city":"隠岐郡隠岐の島町","town":"苗代田"},{"zip_code":"6850023","prefecture_kana":"シマネケン","city_kana":"オキグンオキノシマチョウ","town_kana":"ニシダ","prefecture":"島根県","city":"隠岐郡隠岐の島町","town":"西田"},{"zip_code":"6850014","prefecture_kana":"シマネケン","city_kana":"オキグンオキノシマチョウ","town_kana":"ニシマチ","prefecture":"島根県","city":"隠岐郡隠岐の島町","town":"西町"},{"zip_code":"6850432","prefecture_kana":"シマネケン","city_kana":"オキグンオキノシマチョウ","town_kana":"ニシムラ","prefecture":"島根県","city":"隠岐郡隠岐の島町","town":"西村"},{"zip_code":"6850027","prefecture_kana":"シマネケン","city_kana":"オキグンオキノシマチョウ","town_kana":"ハラダ","prefecture":"島根県","city":"隠岐郡隠岐の島町","town":"原田"},{"zip_code":"6850012","prefecture_kana":"シマネケン","city_kana":"オキグンオキノシマチョウ","town_kana":"ヒガシマチ","prefecture":"島根県","city":"隠岐郡隠岐の島町","town":"東町"},{"zip_code":"6850412","prefecture_kana":"シマネケン","city_kana":"オキグンオキノシマチョウ","town_kana":"フセ","prefecture":"島根県","city":"隠岐郡隠岐の島町","town":"布施"},{"zip_code":"6850025","prefecture_kana":"シマネケン","city_kana":"オキグンオキノシマチョウ","town_kana":"ヘイ","prefecture":"島根県","city":"隠岐郡隠岐の島町","town":"平"},{"zip_code":"6850021","prefecture_kana":"シマネケン","city_kana":"オキグンオキノシマチョウ","town_kana":"ミサキマチ","prefecture":"島根県","city":"隠岐郡隠岐の島町","town":"岬町"},{"zip_code":"6850433","prefecture_kana":"シマネケン","city_kana":"オキグンオキノシマチョウ","town_kana":"ミナト","prefecture":"島根県","city":"隠岐郡隠岐の島町","town":"湊"},{"zip_code":"6850015","prefecture_kana":"シマネケン","city_kana":"オキグンオキノシマチョウ","town_kana":"ミナトマチ","prefecture":"島根県","city":"隠岐郡隠岐の島町","town":"港町"},{"zip_code":"6850303","prefecture_kana":"シマネケン","city_kana":"オキグンオキノシマチョウ","town_kana":"ミナミガタ","prefecture":"島根県","city":"隠岐郡隠岐の島町","town":"南方"},{"zip_code":"6850314","prefecture_kana":"シマネケン","city_kana":"オキグンオキノシマチョウ","town_kana":"ヤマダ","prefecture":"島根県","city":"隠岐郡隠岐の島町","town":"山田"},{"zip_code":"6850102","prefecture_kana":"シマネケン","city_kana":"オキグンオキノシマチョウ","town_kana":"ユイ","prefecture":"島根県","city":"隠岐郡隠岐の島町","town":"油井"}]