[{"zip_code":"6800000","prefecture_kana":"トットリケン","city_kana":"トットリシ","town_kana":"イカニケイサイガナイバアイ","prefecture":"鳥取県","city":"鳥取市","town":"以下に掲載がない場合"},{"zip_code":"6800805","prefecture_kana":"トットリケン","city_kana":"トットリシ","town_kana":"アイオイチョウ","prefecture":"鳥取県","city":"鳥取市","town":"相生町"},{"zip_code":"6800802","prefecture_kana":"トットリケン","city_kana":"トットリシ","town_kana":"アオバチョウ","prefecture":"鳥取県","city":"鳥取市","town":"青葉町"},{"zip_code":"6890501","prefecture_kana":"トットリケン","city_kana":"トットリシ","town_kana":"アオヤチョウアオヤ","prefecture":"鳥取県","city":"鳥取市","town":"青谷町青谷"},{"zip_code":"6890535","prefecture_kana":"トットリケン","city_kana":"トットリシ","town_kana":"アオヤチョウイデ","prefecture":"鳥取県","city":"鳥取市","town":"青谷町井手"},{"zip_code":"6890518","prefecture_kana":"トットリケン","city_kana":"トットリシ","town_kana":"アオヤチョウオオツボ","prefecture":"鳥取県","city":"鳥取市","town":"青谷町大坪"},{"zip_code":"6890519","prefecture_kana":"トットリケン","city_kana":"トットリシ","town_kana":"アオヤチョウオクザキ","prefecture":"鳥取県","city":"鳥取市","town":"青谷町奥崎"},{"zip_code":"6890516","prefecture_kana":"トットリケン","city_kana":"トットリシ","town_kana":"アオヤチョウオバタ","prefecture":"鳥取県","city":"鳥取市","town":"青谷町小畑"},{"zip_code":"6890526","prefecture_kana":"トットリケン","city_kana":"トットリシ","town_kana":"アオヤチョウカミヤ","prefecture":"鳥取県","city":"鳥取市","town":"青谷町紙屋"},{"zip_code":"6890522","prefecture_kana":"トットリケン","city_kana":"トットリシ","town_kana":"アオヤチョウカメジリ","prefecture":"鳥取県","city":"鳥取市","town":"青谷町亀尻"},{"zip_code":"6890515","prefecture_kana":"トットリケン","city_kana":"トットリシ","town_kana":"アオヤチョウカワラ","prefecture":"鳥取県","city":"鳥取市","town":"青谷町河原"},{"zip_code":"6890532","prefecture_kana":"トットリケン","city_kana":"トットリシ","town_kana":"アオヤチョウキタガワラ","prefecture":"鳥取県","city":"鳥取市","town":"青谷町北河原"},{"zip_code":"6890533","prefecture_kana":"トットリケン","city_kana":"トットリシ","town_kana":"アオヤチョウキヌミ","prefecture":"鳥取県","city":"鳥取市","town":"青谷町絹見"},{"zip_code":"6890527","prefecture_kana":"トットリケン","city_kana":"トットリシ","town_kana":"アオヤチョウクスネ","prefecture":"鳥取県","city":"鳥取市","town":"青谷町楠根"},{"zip_code":"6890513","prefecture_kana":"トットリケン","city_kana":"トットリシ","town_kana":"アオヤチョウクラウチ","prefecture":"鳥取県","city":"鳥取市","town":"青谷町蔵内"},{"zip_code":"6890529","prefecture_kana":"トットリケン","city_kana":"トットリシ","town_kana":"アオヤチョウクワバラ","prefecture":"鳥取県","city":"鳥取市","town":"青谷町桑原"},{"zip_code":"6890537","prefecture_kana":"トットリケン","city_kana":"トットリシ","town_kana":"アオヤチョウサカエマチ","prefecture":"鳥取県","city":"鳥取市","town":"青谷町栄町"},{"zip_code":"6890528","prefecture_kana":"トットリケン","city_kana":"トットリシ","town_kana":"アオヤチョウスンズ","prefecture":"鳥取県","city":"鳥取市","town":"青谷町澄水"},{"zip_code":"6890525","prefecture_kana":"トットリケン","city_kana":"トットリシ","town_kana":"アオヤチョウタワラダニ","prefecture":"鳥取県","city":"鳥取市","town":"青谷町田原谷"},{"zip_code":"6890521","prefecture_kana":"トットリケン","city_kana":"トットリシ","town_kana":"アオヤチョウツユダニ","prefecture":"鳥取県","city":"鳥取市","town":"青谷町露谷"},{"zip_code":"6890536","prefecture_kana":"トットリケン","city_kana":"トットリシ","town_kana":"アオヤチョウナガワセ","prefecture":"鳥取県","city":"鳥取市","town":"青谷町長和瀬"},{"zip_code":"6890531","prefecture_kana":"トットリケン","city_kana":"トットリシ","town_kana":"アオヤチョウナルタキ","prefecture":"鳥取県","city":"鳥取市","town":"青谷町鳴滝"},{"zip_code":"6890524","prefecture_kana":"トットリケン","city_kana":"トットリシ","town_kana":"アオヤチョウハツショウジ","prefecture":"鳥取県","city":"鳥取市","town":"青谷町八葉寺"},{"zip_code":"6890517","prefecture_kana":"トットリケン","city_kana":"トットリシ","town_kana":"アオヤチョウハヤウジ","prefecture":"鳥取県","city":"鳥取市","town":"青谷町早牛"},{"zip_code":"6890523","prefecture_kana":"トットリケン","city_kana":"トットリシ","town_kana":"アオヤチョウヤマダ","prefecture":"鳥取県","city":"鳥取市","town":"青谷町山田"},{"zip_code":"6890514","prefecture_kana":"トットリケン","city_kana":"トットリシ","town_kana":"アオヤチョウヤマネ","prefecture":"鳥取県","city":"鳥取市","town":"青谷町山根"},{"zip_code":"6890512","prefecture_kana":"トットリケン","city_kana":"トットリシ","town_kana":"アオヤチョウヨウゴウ","prefecture":"鳥取県","city":"鳥取市","town":"青谷町養郷"},{"zip_code":"6890534","prefecture_kana":"トットリケン","city_kana":"トットリシ","town_kana":"アオヤチョウヨシカワ","prefecture":"鳥取県","city":"鳥取市","town":"青谷町吉川"},{"zip_code":"6890511","prefecture_kana":"トットリケン","city_kana":"トットリシ","town_kana":"アオヤチョウヨシダ","prefecture":"鳥取県","city":"鳥取市","town":"青谷町善田"},{"zip_code":"6800902","prefecture_kana":"トットリケン","city_kana":"トットリシ","town_kana":"アキサト","prefecture":"鳥取県","city":"鳥取市","town":"秋里"},{"zip_code":"6801146","prefecture_kana":"トットリケン","city_kana":"トットリシ","town_kana":"アコダ","prefecture":"鳥取県","city":"鳥取市","town":"赤子田"},{"zip_code":"6801166","prefecture_kana":"トットリケン","city_kana":"トットリシ","town_kana":"アサヅキ","prefecture":"鳥取県","city":"鳥取市","town":"朝月"},{"zip_code":"6801176","prefecture_kana":"トットリケン","city_kana":"トットリシ","town_kana":"アリドメ","prefecture":"鳥取県","city":"鳥取市","town":"有富"},{"zip_code":"6801164","prefecture_kana":"トットリケン","city_kana":"トットリシ","town_kana":"イノコ","prefecture":"鳥取県","city":"鳥取市","town":"猪子"},{"zip_code":"6800822","prefecture_kana":"トットリケン","city_kana":"トットリシ","town_kana":"イママチ","prefecture":"鳥取県","city":"鳥取市","town":"今町"},{"zip_code":"6800081","prefecture_kana":"トットリケン","city_kana":"トットリシ","town_kana":"イワクラ","prefecture":"鳥取県","city":"鳥取市","town":"岩倉"},{"zip_code":"6801157","prefecture_kana":"トットリケン","city_kana":"トットリシ","town_kana":"イワツボ","prefecture":"鳥取県","city":"鳥取市","town":"岩坪"},{"zip_code":"6800931","prefecture_kana":"トットリケン","city_kana":"トットリシ","town_kana":"イワヨシ","prefecture":"鳥取県","city":"鳥取市","town":"岩吉"},{"zip_code":"6801422","prefecture_kana":"トットリケン","city_kana":"トットリシ","town_kana":"ウエバラ","prefecture":"鳥取県","city":"鳥取市","town":"上原"},{"zip_code":"6800015","prefecture_kana":"トットリケン","city_kana":"トットリシ","town_kana":"ウエマチ","prefecture":"鳥取県","city":"鳥取市","town":"上町"},{"zip_code":"6890205","prefecture_kana":"トットリケン","city_kana":"トットリシ","town_kana":"ウツミナカ","prefecture":"鳥取県","city":"鳥取市","town":"内海中"},{"zip_code":"6800834","prefecture_kana":"トットリケン","city_kana":"トットリシ","town_kana":"エイラクオンセンチョウ","prefecture":"鳥取県","city":"鳥取市","town":"永楽温泉町"},{"zip_code":"6800013","prefecture_kana":"トットリケン","city_kana":"トットリシ","town_kana":"エザキチョウ","prefecture":"鳥取県","city":"鳥取市","town":"江崎町"},{"zip_code":"6800901","prefecture_kana":"トットリケン","city_kana":"トットリシ","town_kana":"エヅ","prefecture":"鳥取県","city":"鳥取市","town":"江津"},{"zip_code":"6800055","prefecture_kana":"トットリケン","city_kana":"トットリシ","town_kana":"エビスマチ","prefecture":"鳥取県","city":"鳥取市","town":"戎町"},{"zip_code":"6800005","prefecture_kana":"トットリケン","city_kana":"トットリシ","town_kana":"エンゴジ","prefecture":"鳥取県","city":"鳥取市","town":"円護寺"},{"zip_code":"6801144","prefecture_kana":"トットリケン","city_kana":"トットリシ","town_kana":"エンツウジ","prefecture":"鳥取県","city":"鳥取市","town":"円通寺"},{"zip_code":"6800846","prefecture_kana":"トットリケン","city_kana":"トットリシ","town_kana":"オウギマチ","prefecture":"鳥取県","city":"鳥取市","town":"扇町"},{"zip_code":"6800043","prefecture_kana":"トットリケン","city_kana":"トットリシ","town_kana":"オオエノキチョウ","prefecture":"鳥取県","city":"鳥取市","town":"大榎町"},{"zip_code":"6800851","prefecture_kana":"トットリケン","city_kana":"トットリシ","town_kana":"オオクイ","prefecture":"鳥取県","city":"鳥取市","town":"大杙"},{"zip_code":"6801415","prefecture_kana":"トットリケン","city_kana":"トットリシ","town_kana":"オオヅカ","prefecture":"鳥取県","city":"鳥取市","town":"大塚"},{"zip_code":"6801437","prefecture_kana":"トットリケン","city_kana":"トットリシ","town_kana":"オオバタケ","prefecture":"鳥取県","city":"鳥取市","town":"大畑"},{"zip_code":"6800904","prefecture_kana":"トットリケン","city_kana":"トットリシ","town_kana":"オクテ","prefecture":"鳥取県","city":"鳥取市","town":"晩稲"},{"zip_code":"6800054","prefecture_kana":"トットリケン","city_kana":"トットリシ","town_kana":"オケヤマチ","prefecture":"鳥取県","city":"鳥取市","town":"桶屋町"},{"zip_code":"6801427","prefecture_kana":"トットリケン","city_kana":"トットリシ","town_kana":"オサキ","prefecture":"鳥取県","city":"鳥取市","town":"尾崎"},{"zip_code":"6800855","prefecture_kana":"トットリケン","city_kana":"トットリシ","town_kana":"オモカゲ","prefecture":"鳥取県","city":"鳥取市","town":"面影"},{"zip_code":"6800044","prefecture_kana":"トットリケン","city_kana":"トットリシ","town_kana":"オユミノチョウ","prefecture":"鳥取県","city":"鳥取市","town":"御弓町"},{"zip_code":"6891117","prefecture_kana":"トットリケン","city_kana":"トットリシ","town_kana":"カイゾウジ","prefecture":"鳥取県","city":"鳥取市","town":"海蔵寺"},{"zip_code":"6800003","prefecture_kana":"トットリケン","city_kana":"トットリシ","town_kana":"カクジ","prefecture":"鳥取県","city":"鳥取市","town":"覚寺"},{"zip_code":"6800041","prefecture_kana":"トットリケン","city_kana":"トットリシ","town_kana":"カケダシチョウ","prefecture":"鳥取県","city":"鳥取市","town":"掛出町"},{"zip_code":"6891115","prefecture_kana":"トットリケン","city_kana":"トットリシ","town_kana":"カゴダニ","prefecture":"鳥取県","city":"鳥取市","town":"紙子谷"},{"zip_code":"6800052","prefecture_kana":"トットリケン","city_kana":"トットリシ","town_kana":"カジマチ","prefecture":"鳥取県","city":"鳥取市","town":"鍛冶町"},{"zip_code":"6800023","prefecture_kana":"トットリケン","city_kana":"トットリシ","town_kana":"カタハラ","prefecture":"鳥取県","city":"鳥取市","town":"片原"},{"zip_code":"6891104","prefecture_kana":"トットリケン","city_kana":"トットリシ","town_kana":"カツラギ","prefecture":"鳥取県","city":"鳥取市","town":"桂木"},{"zip_code":"6801417","prefecture_kana":"トットリケン","city_kana":"トットリシ","town_kana":"カツラミ","prefecture":"鳥取県","city":"鳥取市","town":"桂見"},{"zip_code":"6891114","prefecture_kana":"トットリケン","city_kana":"トットリシ","town_kana":"カトリ","prefecture":"鳥取県","city":"鳥取市","town":"香取"},{"zip_code":"6801439","prefecture_kana":"トットリケン","city_kana":"トットリシ","town_kana":"カナザワ","prefecture":"鳥取県","city":"鳥取市","town":"金沢"},{"zip_code":"6800874","prefecture_kana":"トットリケン","city_kana":"トットリシ","town_kana":"カノウ","prefecture":"鳥取県","city":"鳥取市","town":"叶"},{"zip_code":"6801167","prefecture_kana":"トットリケン","city_kana":"トットリシ","town_kana":"カミアジノ","prefecture":"鳥取県","city":"鳥取市","town":"上味野"},{"zip_code":"6800047","prefecture_kana":"トットリケン","city_kana":"トットリシ","town_kana":"カミウオマチ","prefecture":"鳥取県","city":"鳥取市","town":"上魚町"},{"zip_code":"6801156","prefecture_kana":"トットリケン","city_kana":"トットリシ","town_kana":"カミスナミ","prefecture":"鳥取県","city":"鳥取市","town":"上砂見"},{"zip_code":"6801421","prefecture_kana":"トットリケン","city_kana":"トットリシ","town_kana":"カミダン","prefecture":"鳥取県","city":"鳥取市","town":"上段"},{"zip_code":"6800905","prefecture_kana":"トットリケン","city_kana":"トットリシ","town_kana":"カロチョウ","prefecture":"鳥取県","city":"鳥取市","town":"賀露町"},{"zip_code":"6800907","prefecture_kana":"トットリケン","city_kana":"トットリシ","town_kana":"カロチョウキタ","prefecture":"鳥取県","city":"鳥取市","town":"賀露町北"},{"zip_code":"6800908","prefecture_kana":"トットリケン","city_kana":"トットリシ","town_kana":"カロチョウニシ","prefecture":"鳥取県","city":"鳥取市","town":"賀露町西"},{"zip_code":"6800909","prefecture_kana":"トットリケン","city_kana":"トットリシ","town_kana":"カロチョウミナミ","prefecture":"鳥取県","city":"鳥取市","town":"賀露町南"},{"zip_code":"6800036","prefecture_kana":"トットリケン","city_kana":"トットリシ","town_kana":"カワバタ","prefecture":"鳥取県","city":"鳥取市","town":"川端"},{"zip_code":"6801208","prefecture_kana":"トットリケン","city_kana":"トットリシ","town_kana":"カワハラチョウアユガオカ","prefecture":"鳥取県","city":"鳥取市","town":"河原町鮎ケ丘"},{"zip_code":"6801203","prefecture_kana":"トットリケン","city_kana":"トットリシ","town_kana":"カワハラチョウイナツネ","prefecture":"鳥取県","city":"鳥取市","town":"河原町稲常"},{"zip_code":"6801205","prefecture_kana":"トットリケン","city_kana":"トットリシ","town_kana":"カワハラチョウイマザイケ","prefecture":"鳥取県","city":"鳥取市","town":"河原町今在家"},{"zip_code":"6801225","prefecture_kana":"トットリケン","city_kana":"トットリシ","town_kana":"カワハラチョウウシト","prefecture":"鳥取県","city":"鳥取市","town":"河原町牛戸"},{"zip_code":"6801245","prefecture_kana":"トットリケン","city_kana":"トットリシ","town_kana":"カワハラチョウオグラ","prefecture":"鳥取県","city":"鳥取市","town":"河原町小倉"},{"zip_code":"6801253","prefecture_kana":"トットリケン","city_kana":"トットリシ","town_kana":"カワハラチョウオゴウチ","prefecture":"鳥取県","city":"鳥取市","town":"河原町小河内"},{"zip_code":"6801232","prefecture_kana":"トットリケン","city_kana":"トットリシ","town_kana":"カワハラチョウオバタ","prefecture":"鳥取県","city":"鳥取市","town":"河原町小畑"},{"zip_code":"6801204","prefecture_kana":"トットリケン","city_kana":"トットリシ","town_kana":"カワハラチョウカタヤマ","prefecture":"鳥取県","city":"鳥取市","town":"河原町片山"},{"zip_code":"6801216","prefecture_kana":"トットリケン","city_kana":"トットリシ","town_kana":"カワハラチョウカマグチ","prefecture":"鳥取県","city":"鳥取市","town":"河原町釜口"},{"zip_code":"6801251","prefecture_kana":"トットリケン","city_kana":"トットリシ","town_kana":"カワハラチョウカワハラ","prefecture":"鳥取県","city":"鳥取市","town":"河原町河原"},{"zip_code":"6801254","prefecture_kana":"トットリケン","city_kana":"トットリシ","town_kana":"カワハラチョウカンバ","prefecture":"鳥取県","city":"鳥取市","town":"河原町神馬"},{"zip_code":"6801234","prefecture_kana":"トットリケン","city_kana":"トットリシ","town_kana":"カワハラチョウキタムラ","prefecture":"鳥取県","city":"鳥取市","town":"河原町北村"},{"zip_code":"6801207","prefecture_kana":"トットリケン","city_kana":"トットリシ","town_kana":"カワハラチョウゴウバラ","prefecture":"鳥取県","city":"鳥取市","town":"河原町郷原"},{"zip_code":"6801243","prefecture_kana":"トットリケン","city_kana":"トットリシ","town_kana":"カワハラチョウサヌキ","prefecture":"鳥取県","city":"鳥取市","town":"河原町佐貫"},{"zip_code":"6801213","prefecture_kana":"トットリケン","city_kana":"トットリシ","town_kana":"カワハラチョウタカフク","prefecture":"鳥取県","city":"鳥取市","town":"河原町高福"},{"zip_code":"6801242","prefecture_kana":"トットリケン","city_kana":"トットリシ","town_kana":"カワハラチョウタニヒトツギ","prefecture":"鳥取県","city":"鳥取市","town":"河原町谷一木"},{"zip_code":"6801223","prefecture_kana":"トットリケン","city_kana":"トットリシ","town_kana":"カワハラチョウテンジンバラ","prefecture":"鳥取県","city":"鳥取市","town":"河原町天神原"},{"zip_code":"6801212","prefecture_kana":"トットリケン","city_kana":"トットリシ","town_kana":"カワハラチョウトクヨシ","prefecture":"鳥取県","city":"鳥取市","town":"河原町徳吉"},{"zip_code":"6801224","prefecture_kana":"トットリケン","city_kana":"トットリシ","town_kana":"カワハラチョウナカイ","prefecture":"鳥取県","city":"鳥取市","town":"河原町中井"},{"zip_code":"6801241","prefecture_kana":"トットリケン","city_kana":"トットリシ","town_kana":"カワハラチョウナガセ","prefecture":"鳥取県","city":"鳥取市","town":"河原町長瀬"},{"zip_code":"6801209","prefecture_kana":"トットリケン","city_kana":"トットリシ","town_kana":"カワハラチョウニシエンツウジ","prefecture":"鳥取県","city":"鳥取市","town":"河原町西円通寺"},{"zip_code":"6801222","prefecture_kana":"トットリケン","city_kana":"トットリシ","town_kana":"カワハラチョウヒケタ","prefecture":"鳥取県","city":"鳥取市","town":"河原町曳田"},{"zip_code":"6801201","prefecture_kana":"トットリケン","city_kana":"トットリシ","town_kana":"カワハラチョウフクロガワラ","prefecture":"鳥取県","city":"鳥取市","town":"河原町袋河原"},{"zip_code":"6801202","prefecture_kana":"トットリケン","city_kana":"トットリシ","town_kana":"カワハラチョウホテイ","prefecture":"鳥取県","city":"鳥取市","town":"河原町布袋"},{"zip_code":"6801252","prefecture_kana":"トットリケン","city_kana":"トットリシ","town_kana":"カワハラチョウホンガ","prefecture":"鳥取県","city":"鳥取市","town":"河原町本鹿"},{"zip_code":"6801244","prefecture_kana":"トットリケン","city_kana":"トットリシ","town_kana":"カワハラチョウミズネ","prefecture":"鳥取県","city":"鳥取市","town":"河原町水根"},{"zip_code":"6801206","prefecture_kana":"トットリケン","city_kana":"トットリシ","town_kana":"カワハラチョウミタニ","prefecture":"鳥取県","city":"鳥取市","town":"河原町三谷"},{"zip_code":"6801246","prefecture_kana":"トットリケン","city_kana":"トットリシ","town_kana":"カワハラチョウヤマガミ","prefecture":"鳥取県","city":"鳥取市","town":"河原町山上"},{"zip_code":"6801211","prefecture_kana":"トットリケン","city_kana":"トットリシ","town_kana":"カワハラチョウヤマテ","prefecture":"鳥取県","city":"鳥取市","town":"河原町山手"},{"zip_code":"6801231","prefecture_kana":"トットリケン","city_kana":"トットリシ","town_kana":"カワハラチョウユダニ","prefecture":"鳥取県","city":"鳥取市","town":"河原町湯谷"},{"zip_code":"6801233","prefecture_kana":"トットリケン","city_kana":"トットリシ","town_kana":"カワハラチョウユミゴウチ","prefecture":"鳥取県","city":"鳥取市","town":"河原町弓河内"},{"zip_code":"6801214","prefecture_kana":"トットリケン","city_kana":"トットリシ","town_kana":"カワハラチョウヨウカイチ","prefecture":"鳥取県","city":"鳥取市","town":"河原町八日市"},{"zip_code":"6801221","prefecture_kana":"トットリケン","city_kana":"トットリシ","town_kana":"カワハラチョウワタリヒトツギ","prefecture":"鳥取県","city":"鳥取市","town":"河原町渡一木"},{"zip_code":"6801215","prefecture_kana":"トットリケン","city_kana":"トットリシ","town_kana":"カワハラチョウワナミ","prefecture":"鳥取県","city":"鳥取市","town":"河原町和奈見"},{"zip_code":"6800821","prefecture_kana":"トットリケン","city_kana":"トットリシ","town_kana":"カワラマチ","prefecture":"鳥取県","city":"鳥取市","town":"瓦町"},{"zip_code":"6800004","prefecture_kana":"トットリケン","city_kana":"トットリシ","town_kana":"キタゾノ","prefecture":"鳥取県","city":"鳥取市","town":"北園"},{"zip_code":"6801172","prefecture_kana":"トットリケン","city_kana":"トットリシ","town_kana":"キタムラ","prefecture":"鳥取県","city":"鳥取市","town":"北村"},{"zip_code":"6800824","prefecture_kana":"トットリケン","city_kana":"トットリシ","town_kana":"ギョウトク","prefecture":"鳥取県","city":"鳥取市","town":"行徳"},{"zip_code":"6801132","prefecture_kana":"トットリケン","city_kana":"トットリシ","town_kana":"クニヤス","prefecture":"鳥取県","city":"鳥取市","town":"国安"},{"zip_code":"6800862","prefecture_kana":"トットリケン","city_kana":"トットリシ","town_kana":"クモヤマ","prefecture":"鳥取県","city":"鳥取市","town":"雲山"},{"zip_code":"6801141","prefecture_kana":"トットリケン","city_kana":"トットリシ","town_kana":"クラダ","prefecture":"鳥取県","city":"鳥取市","town":"蔵田"},{"zip_code":"6800012","prefecture_kana":"トットリケン","city_kana":"トットリシ","town_kana":"クリタニチョウ","prefecture":"鳥取県","city":"鳥取市","town":"栗谷町"},{"zip_code":"6890343","prefecture_kana":"トットリケン","city_kana":"トットリシ","town_kana":"ケタカチョウイイザト","prefecture":"鳥取県","city":"鳥取市","town":"気高町飯里"},{"zip_code":"6890355","prefecture_kana":"トットリケン","city_kana":"トットリシ","town_kana":"ケタカチョウエゲ","prefecture":"鳥取県","city":"鳥取市","town":"気高町会下"},{"zip_code":"6890211","prefecture_kana":"トットリケン","city_kana":"トットリシ","town_kana":"ケタカチョウオクゾウミ","prefecture":"鳥取県","city":"鳥取市","town":"気高町奥沢見"},{"zip_code":"6890341","prefecture_kana":"トットリケン","city_kana":"トットリシ","town_kana":"ケタカチョウオロジ","prefecture":"鳥取県","city":"鳥取市","town":"気高町下石"},{"zip_code":"6890332","prefecture_kana":"トットリケン","city_kana":"トットリシ","town_kana":"ケタカチョウカチミ","prefecture":"鳥取県","city":"鳥取市","town":"気高町勝見"},{"zip_code":"6890214","prefecture_kana":"トットリケン","city_kana":"トットリシ","town_kana":"ケタカチョウカミミツ","prefecture":"鳥取県","city":"鳥取市","town":"気高町上光"},{"zip_code":"6890344","prefecture_kana":"トットリケン","city_kana":"トットリシ","town_kana":"ケタカチョウカンバラ","prefecture":"鳥取県","city":"鳥取市","town":"気高町上原"},{"zip_code":"6890334","prefecture_kana":"トットリケン","city_kana":"トットリシ","town_kana":"ケタカチョウキタハマ","prefecture":"鳥取県","city":"鳥取市","town":"気高町北浜"},{"zip_code":"6890353","prefecture_kana":"トットリケン","city_kana":"トットリシ","town_kana":"ケタカチョウコウゲ","prefecture":"鳥取県","city":"鳥取市","town":"気高町郡家"},{"zip_code":"6890217","prefecture_kana":"トットリケン","city_kana":"トットリシ","town_kana":"ケタカチョウサケノツ","prefecture":"鳥取県","city":"鳥取市","town":"気高町酒津"},{"zip_code":"6890224","prefecture_kana":"トットリケン","city_kana":"トットリシ","town_kana":"ケタカチョウシゲタカ","prefecture":"鳥取県","city":"鳥取市","town":"気高町重高"},{"zip_code":"6890221","prefecture_kana":"トットリケン","city_kana":"トットリシ","town_kana":"ケタカチョウシモサカモト","prefecture":"鳥取県","city":"鳥取市","town":"気高町下坂本"},{"zip_code":"6890356","prefecture_kana":"トットリケン","city_kana":"トットリシ","town_kana":"ケタカチョウシモバラ","prefecture":"鳥取県","city":"鳥取市","town":"気高町下原"},{"zip_code":"6890213","prefecture_kana":"トットリケン","city_kana":"トットリシ","town_kana":"ケタカチョウシモミツモト","prefecture":"鳥取県","city":"鳥取市","town":"気高町下光元"},{"zip_code":"6890226","prefecture_kana":"トットリケン","city_kana":"トットリシ","town_kana":"ケタカチョウシュク","prefecture":"鳥取県","city":"鳥取市","town":"気高町宿"},{"zip_code":"6890333","prefecture_kana":"トットリケン","city_kana":"トットリシ","town_kana":"ケタカチョウシンマチ","prefecture":"鳥取県","city":"鳥取市","town":"気高町新町"},{"zip_code":"6890352","prefecture_kana":"トットリケン","city_kana":"トットリシ","town_kana":"ケタカチョウタカエ","prefecture":"鳥取県","city":"鳥取市","town":"気高町高江"},{"zip_code":"6890212","prefecture_kana":"トットリケン","city_kana":"トットリシ","town_kana":"ケタカチョウツネマツ","prefecture":"鳥取県","city":"鳥取市","town":"気高町常松"},{"zip_code":"6890225","prefecture_kana":"トットリケン","city_kana":"トットリシ","town_kana":"ケタカチョウドイ","prefecture":"鳥取県","city":"鳥取市","town":"気高町土居"},{"zip_code":"6890342","prefecture_kana":"トットリケン","city_kana":"トットリシ","town_kana":"ケタカチョウトノ","prefecture":"鳥取県","city":"鳥取市","town":"気高町殿"},{"zip_code":"6890215","prefecture_kana":"トットリケン","city_kana":"トットリシ","town_kana":"ケタカチョウトミヨシ","prefecture":"鳥取県","city":"鳥取市","town":"気高町冨吉"},{"zip_code":"6890222","prefecture_kana":"トットリケン","city_kana":"トットリシ","town_kana":"ケタカチョウニッコウ","prefecture":"鳥取県","city":"鳥取市","town":"気高町日光"},{"zip_code":"6890223","prefecture_kana":"トットリケン","city_kana":"トットリシ","town_kana":"ケタカチョウニホンギ","prefecture":"鳥取県","city":"鳥取市","town":"気高町二本木"},{"zip_code":"6890331","prefecture_kana":"トットリケン","city_kana":"トットリシ","town_kana":"ケタカチョウハマムラ","prefecture":"鳥取県","city":"鳥取市","town":"気高町浜村"},{"zip_code":"6890216","prefecture_kana":"トットリケン","city_kana":"トットリシ","town_kana":"ケタカチョウホウギ","prefecture":"鳥取県","city":"鳥取市","town":"気高町宝木"},{"zip_code":"6890354","prefecture_kana":"トットリケン","city_kana":"トットリシ","town_kana":"ケタカチョウムツオ","prefecture":"鳥取県","city":"鳥取市","town":"気高町睦逢"},{"zip_code":"6890357","prefecture_kana":"トットリケン","city_kana":"トットリシ","town_kana":"ケタカチョウヤツカミ","prefecture":"鳥取県","city":"鳥取市","town":"気高町八束水"},{"zip_code":"6890345","prefecture_kana":"トットリケン","city_kana":"トットリシ","town_kana":"ケタカチョウヤマミヤ","prefecture":"鳥取県","city":"鳥取市","town":"気高町山宮"},{"zip_code":"6890351","prefecture_kana":"トットリケン","city_kana":"トットリシ","town_kana":"ケタカチョウヤワタ","prefecture":"鳥取県","city":"鳥取市","town":"気高町八幡"},{"zip_code":"6800024","prefecture_kana":"トットリケン","city_kana":"トットリシ","town_kana":"ゲンコウチョウ","prefecture":"鳥取県","city":"鳥取市","town":"玄好町"},{"zip_code":"6801133","prefecture_kana":"トットリケン","city_kana":"トットリシ","town_kana":"ゲンタ","prefecture":"鳥取県","city":"鳥取市","town":"源太"},{"zip_code":"6891124","prefecture_kana":"トットリケン","city_kana":"トットリシ","town_kana":"コイジ","prefecture":"鳥取県","city":"鳥取市","town":"越路"},{"zip_code":"6801425","prefecture_kana":"トットリケン","city_kana":"トットリシ","town_kana":"コウチ","prefecture":"鳥取県","city":"鳥取市","town":"河内"},{"zip_code":"6800844","prefecture_kana":"トットリケン","city_kana":"トットリシ","town_kana":"コウナンチョウ","prefecture":"鳥取県","city":"鳥取市","town":"興南町"},{"zip_code":"6801177","prefecture_kana":"トットリケン","city_kana":"トットリシ","town_kana":"コウロ","prefecture":"鳥取県","city":"鳥取市","town":"高路"},{"zip_code":"6800142","prefecture_kana":"トットリケン","city_kana":"トットリシ","town_kana":"コクフチョウアソウ","prefecture":"鳥取県","city":"鳥取市","town":"国府町麻生"},{"zip_code":"6800201","prefecture_kana":"トットリケン","city_kana":"トットリシ","town_kana":"コクフチョウアメダキ","prefecture":"鳥取県","city":"鳥取市","town":"国府町雨滝"},{"zip_code":"6800216","prefecture_kana":"トットリケン","city_kana":"トットリシ","town_kana":"コクフチョウアラフネ","prefecture":"鳥取県","city":"鳥取市","town":"国府町荒舟"},{"zip_code":"6800136","prefecture_kana":"トットリケン","city_kana":"トットリシ","town_kana":"コクフチョウイトタニ","prefecture":"鳥取県","city":"鳥取市","town":"国府町糸谷"},{"zip_code":"6808062","prefecture_kana":"トットリケン","city_kana":"トットリシ","town_kana":"コクフチョウイナバガオカ","prefecture":"鳥取県","city":"鳥取市","town":"国府町稲葉丘"},{"zip_code":"6800202","prefecture_kana":"トットリケン","city_kana":"トットリシ","town_kana":"コクフチョウイワイダニ","prefecture":"鳥取県","city":"鳥取市","town":"国府町石井谷"},{"zip_code":"6800203","prefecture_kana":"トットリケン","city_kana":"トットリシ","town_kana":"コクフチョウオオイシ","prefecture":"鳥取県","city":"鳥取市","town":"国府町大石"},{"zip_code":"6800144","prefecture_kana":"トットリケン","city_kana":"トットリシ","town_kana":"コクフチョウオカマス","prefecture":"鳥取県","city":"鳥取市","town":"国府町岡益"},{"zip_code":"6808063","prefecture_kana":"トットリケン","city_kana":"トットリシ","town_kana":"コクフチョウオクダニ","prefecture":"鳥取県","city":"鳥取市","town":"国府町奥谷"},{"zip_code":"6800214","prefecture_kana":"トットリケン","city_kana":"トットリシ","town_kana":"コクフチョウカミアラフネ","prefecture":"鳥取県","city":"鳥取市","town":"国府町上荒舟"},{"zip_code":"6800213","prefecture_kana":"トットリケン","city_kana":"トットリシ","town_kana":"コクフチョウカミワジ","prefecture":"鳥取県","city":"鳥取市","town":"国府町上上地"},{"zip_code":"6800221","prefecture_kana":"トットリケン","city_kana":"トットリシ","town_kana":"コクフチョウカンゴ","prefecture":"鳥取県","city":"鳥取市","town":"国府町神護"},{"zip_code":"6800208","prefecture_kana":"トットリケン","city_kana":"トットリシ","town_kana":"コクフチョウキハラ","prefecture":"鳥取県","city":"鳥取市","town":"国府町木原"},{"zip_code":"6800132","prefecture_kana":"トットリケン","city_kana":"トットリシ","town_kana":"コクフチョウコウガケ","prefecture":"鳥取県","city":"鳥取市","town":"国府町神垣"},{"zip_code":"6800155","prefecture_kana":"トットリケン","city_kana":"トットリシ","town_kana":"コクフチョウコクブンジ","prefecture":"鳥取県","city":"鳥取市","town":"国府町国分寺"},{"zip_code":"6800154","prefecture_kana":"トットリケン","city_kana":"トットリシ","town_kana":"コクフチョウサンダイジ","prefecture":"鳥取県","city":"鳥取市","town":"国府町三代寺"},{"zip_code":"6800205","prefecture_kana":"トットリケン","city_kana":"トットリシ","town_kana":"コクフチョウジッコク","prefecture":"鳥取県","city":"鳥取市","town":"国府町拾石"},{"zip_code":"6800207","prefecture_kana":"トットリケン","city_kana":"トットリシ","town_kana":"コクフチョウシモキハラ","prefecture":"鳥取県","city":"鳥取市","town":"国府町下木原"},{"zip_code":"6808066","prefecture_kana":"トットリケン","city_kana":"トットリシ","town_kana":"コクフチョウシンドオリ","prefecture":"鳥取県","city":"鳥取市","town":"国府町新通り"},{"zip_code":"6808065","prefecture_kana":"トットリケン","city_kana":"トットリシ","town_kana":"コクフチョウシンマチ","prefecture":"鳥取県","city":"鳥取市","town":"国府町新町"},{"zip_code":"6800211","prefecture_kana":"トットリケン","city_kana":"トットリシ","town_kana":"コクフチョウスガノ","prefecture":"鳥取県","city":"鳥取市","town":"国府町菅野"},{"zip_code":"6800134","prefecture_kana":"トットリケン","city_kana":"トットリシ","town_kana":"コクフチョウスンズ","prefecture":"鳥取県","city":"鳥取市","town":"国府町清水"},{"zip_code":"6800131","prefecture_kana":"トットリケン","city_kana":"トットリシ","town_kana":"コクフチョウタカオカ","prefecture":"鳥取県","city":"鳥取市","town":"国府町高岡"},{"zip_code":"6800135","prefecture_kana":"トットリケン","city_kana":"トットリシ","town_kana":"コクフチョウタニ","prefecture":"鳥取県","city":"鳥取市","town":"国府町谷"},{"zip_code":"6800143","prefecture_kana":"トットリケン","city_kana":"トットリシ","town_kana":"コクフチョウタマボコ","prefecture":"鳥取県","city":"鳥取市","town":"国府町玉鉾"},{"zip_code":"6800156","prefecture_kana":"トットリケン","city_kana":"トットリシ","town_kana":"コクフチョウチュウゴウ","prefecture":"鳥取県","city":"鳥取市","town":"国府町中郷"},{"zip_code":"6800152","prefecture_kana":"トットリケン","city_kana":"トットリシ","town_kana":"コクフチョウチョウ","prefecture":"鳥取県","city":"鳥取市","town":"国府町庁"},{"zip_code":"6800206","prefecture_kana":"トットリケン","city_kana":"トットリシ","town_kana":"コクフチョウトチモト","prefecture":"鳥取県","city":"鳥取市","town":"国府町栃本"},{"zip_code":"6800222","prefecture_kana":"トットリケン","city_kana":"トットリシ","town_kana":"コクフチョウトノ","prefecture":"鳥取県","city":"鳥取市","town":"国府町殿"},{"zip_code":"6800223","prefecture_kana":"トットリケン","city_kana":"トットリシ","town_kana":"コクフチョウナカガワラ","prefecture":"鳥取県","city":"鳥取市","town":"国府町中河原"},{"zip_code":"6800204","prefecture_kana":"トットリケン","city_kana":"トットリシ","town_kana":"コクフチョウナワシロ","prefecture":"鳥取県","city":"鳥取市","town":"国府町楠城"},{"zip_code":"6800226","prefecture_kana":"トットリケン","city_kana":"トットリシ","town_kana":"コクフチョウニイ","prefecture":"鳥取県","city":"鳥取市","town":"国府町新井"},{"zip_code":"6800145","prefecture_kana":"トットリケン","city_kana":"トットリシ","town_kana":"コクフチョウヒロセ","prefecture":"鳥取県","city":"鳥取市","town":"国府町広西"},{"zip_code":"6808064","prefecture_kana":"トットリケン","city_kana":"トットリシ","town_kana":"コクフチョウブンジョウ","prefecture":"鳥取県","city":"鳥取市","town":"国府町分上"},{"zip_code":"6800153","prefecture_kana":"トットリケン","city_kana":"トットリシ","town_kana":"コクフチョウホッケジ","prefecture":"鳥取県","city":"鳥取市","town":"国府町法花寺"},{"zip_code":"6800146","prefecture_kana":"トットリケン","city_kana":"トットリシ","town_kana":"コクフチョウマチヤ","prefecture":"鳥取県","city":"鳥取市","town":"国府町町屋"},{"zip_code":"6800224","prefecture_kana":"トットリケン","city_kana":"トットリシ","town_kana":"コクフチョウマツオ","prefecture":"鳥取県","city":"鳥取市","town":"国府町松尾"},{"zip_code":"6800141","prefecture_kana":"トットリケン","city_kana":"トットリシ","town_kana":"コクフチョウミタニ","prefecture":"鳥取県","city":"鳥取市","town":"国府町美歎"},{"zip_code":"6800151","prefecture_kana":"トットリケン","city_kana":"トットリシ","town_kana":"コクフチョウミヤノシタ","prefecture":"鳥取県","city":"鳥取市","town":"国府町宮下"},{"zip_code":"6800215","prefecture_kana":"トットリケン","city_kana":"トットリシ","town_kana":"コクフチョウヤマサキ","prefecture":"鳥取県","city":"鳥取市","town":"国府町山崎"},{"zip_code":"6800133","prefecture_kana":"トットリケン","city_kana":"トットリシ","town_kana":"コクフチョウヤマネ","prefecture":"鳥取県","city":"鳥取市","town":"国府町山根"},{"zip_code":"6800225","prefecture_kana":"トットリケン","city_kana":"トットリシ","town_kana":"コクフチョウヨシノ","prefecture":"鳥取県","city":"鳥取市","town":"国府町吉野"},{"zip_code":"6800212","prefecture_kana":"トットリケン","city_kana":"トットリシ","town_kana":"コクフチョウワジ","prefecture":"鳥取県","city":"鳥取市","town":"国府町上地"},{"zip_code":"6891125","prefecture_kana":"トットリケン","city_kana":"トットリシ","town_kana":"ココオゲ","prefecture":"鳥取県","city":"鳥取市","town":"古郡家"},{"zip_code":"6800073","prefecture_kana":"トットリケン","city_kana":"トットリシ","town_kana":"コザイ","prefecture":"鳥取県","city":"鳥取市","town":"小西谷"},{"zip_code":"6890207","prefecture_kana":"トットリケン","city_kana":"トットリシ","town_kana":"コゾミ","prefecture":"鳥取県","city":"鳥取市","town":"小沢見"},{"zip_code":"6800932","prefecture_kana":"トットリケン","city_kana":"トットリシ","town_kana":"ゴタンダチョウ","prefecture":"鳥取県","city":"鳥取市","town":"五反田町"},{"zip_code":"6800813","prefecture_kana":"トットリケン","city_kana":"トットリシ","town_kana":"コトブキチョウ","prefecture":"鳥取県","city":"鳥取市","town":"寿町"},{"zip_code":"6800946","prefecture_kana":"トットリケン","city_kana":"トットリシ","town_kana":"コヤマチョウ","prefecture":"鳥取県","city":"鳥取市","town":"湖山町"},{"zip_code":"6800942","prefecture_kana":"トットリケン","city_kana":"トットリシ","town_kana":"コヤマチョウヒガシ","prefecture":"鳥取県","city":"鳥取市","town":"湖山町東"},{"zip_code":"6800947","prefecture_kana":"トットリケン","city_kana":"トットリシ","town_kana":"コヤマチョウニシ","prefecture":"鳥取県","city":"鳥取市","town":"湖山町西"},{"zip_code":"6800945","prefecture_kana":"トットリケン","city_kana":"トットリシ","town_kana":"コヤマチョウミナミ","prefecture":"鳥取県","city":"鳥取市","town":"湖山町南"},{"zip_code":"6800941","prefecture_kana":"トットリケン","city_kana":"トットリシ","town_kana":"コヤマチョウキタ","prefecture":"鳥取県","city":"鳥取市","town":"湖山町北"},{"zip_code":"6800021","prefecture_kana":"トットリケン","city_kana":"トットリシ","town_kana":"ザイモクチョウ","prefecture":"鳥取県","city":"鳥取市","town":"材木町"},{"zip_code":"6800823","prefecture_kana":"トットリケン","city_kana":"トットリシ","town_kana":"サイワイチョウ","prefecture":"鳥取県","city":"鳥取市","town":"幸町"},{"zip_code":"6800831","prefecture_kana":"トットリケン","city_kana":"トットリシ","town_kana":"サカエマチ","prefecture":"鳥取県","city":"鳥取市","town":"栄町"},{"zip_code":"6800853","prefecture_kana":"トットリケン","city_kana":"トットリシ","town_kana":"サクラダニ","prefecture":"鳥取県","city":"鳥取市","town":"桜谷"},{"zip_code":"6891304","prefecture_kana":"トットリケン","city_kana":"トットリシ","town_kana":"サジチョウオオイ","prefecture":"鳥取県","city":"鳥取市","town":"佐治町大井"},{"zip_code":"6891324","prefecture_kana":"トットリケン","city_kana":"トットリシ","town_kana":"サジチョウオワイ","prefecture":"鳥取県","city":"鳥取市","town":"佐治町尾際"},{"zip_code":"6891301","prefecture_kana":"トットリケン","city_kana":"トットリシ","town_kana":"サジチョウカズラタニ","prefecture":"鳥取県","city":"鳥取市","town":"佐治町葛谷"},{"zip_code":"6891313","prefecture_kana":"トットリケン","city_kana":"トットリシ","town_kana":"サジチョウカセギ","prefecture":"鳥取県","city":"鳥取市","town":"佐治町加瀬木"},{"zip_code":"6891314","prefecture_kana":"トットリケン","city_kana":"トットリシ","town_kana":"サジチョウカモ","prefecture":"鳥取県","city":"鳥取市","town":"佐治町加茂"},{"zip_code":"6891303","prefecture_kana":"トットリケン","city_kana":"トットリシ","town_kana":"サジチョウカルチ","prefecture":"鳥取県","city":"鳥取市","town":"佐治町刈地"},{"zip_code":"6891321","prefecture_kana":"トットリケン","city_kana":"トットリシ","town_kana":"サジチョウカワモト","prefecture":"鳥取県","city":"鳥取市","town":"佐治町河本"},{"zip_code":"6891302","prefecture_kana":"トットリケン","city_kana":"トットリシ","town_kana":"サジチョウコバラ","prefecture":"鳥取県","city":"鳥取市","town":"佐治町小原"},{"zip_code":"6891312","prefecture_kana":"トットリケン","city_kana":"トットリシ","town_kana":"サジチョウタカヤマ","prefecture":"鳥取県","city":"鳥取市","town":"佐治町高山"},{"zip_code":"6891322","prefecture_kana":"トットリケン","city_kana":"トットリシ","town_kana":"サジチョウツクダニ","prefecture":"鳥取県","city":"鳥取市","town":"佐治町つく谷"},{"zip_code":"6891307","prefecture_kana":"トットリケン","city_kana":"トットリシ","town_kana":"サジチョウツナシ","prefecture":"鳥取県","city":"鳥取市","town":"佐治町津無"},{"zip_code":"6891311","prefecture_kana":"トットリケン","city_kana":"トットリシ","town_kana":"サジチョウツノ","prefecture":"鳥取県","city":"鳥取市","town":"佐治町津野"},{"zip_code":"6891326","prefecture_kana":"トットリケン","city_kana":"トットリシ","town_kana":"サジチョウトチワラ","prefecture":"鳥取県","city":"鳥取市","town":"佐治町栃原"},{"zip_code":"6891325","prefecture_kana":"トットリケン","city_kana":"トットリシ","town_kana":"サジチョウナカ","prefecture":"鳥取県","city":"鳥取市","town":"佐治町中"},{"zip_code":"6891315","prefecture_kana":"トットリケン","city_kana":"トットリシ","town_kana":"サジチョウハタ","prefecture":"鳥取県","city":"鳥取市","town":"佐治町畑"},{"zip_code":"6891316","prefecture_kana":"トットリケン","city_kana":"トットリシ","town_kana":"サジチョウフクゾノ","prefecture":"鳥取県","city":"鳥取市","town":"佐治町福園"},{"zip_code":"6891306","prefecture_kana":"トットリケン","city_kana":"トットリシ","town_kana":"サジチョウフルイチ","prefecture":"鳥取県","city":"鳥取市","town":"佐治町古市"},{"zip_code":"6891305","prefecture_kana":"トットリケン","city_kana":"トットリシ","town_kana":"サジチョウモリツボ","prefecture":"鳥取県","city":"鳥取市","town":"佐治町森坪"},{"zip_code":"6891323","prefecture_kana":"トットリケン","city_kana":"トットリシ","town_kana":"サジチョウヨド","prefecture":"鳥取県","city":"鳥取市","town":"佐治町余戸"},{"zip_code":"6800935","prefecture_kana":"トットリケン","city_kana":"トットリシ","town_kana":"サトニ","prefecture":"鳥取県","city":"鳥取市","town":"里仁"},{"zip_code":"6890425","prefecture_kana":"トットリケン","city_kana":"トットリシ","town_kana":"シカノチョウイマイチ","prefecture":"鳥取県","city":"鳥取市","town":"鹿野町今市"},{"zip_code":"6890422","prefecture_kana":"トットリケン","city_kana":"トットリシ","town_kana":"シカノチョウオカキ","prefecture":"鳥取県","city":"鳥取市","town":"鹿野町岡木"},{"zip_code":"6890421","prefecture_kana":"トットリケン","city_kana":"トットリシ","town_kana":"シカノチョウオツガセ","prefecture":"鳥取県","city":"鳥取市","town":"鹿野町乙亥正"},{"zip_code":"6890412","prefecture_kana":"トットリケン","city_kana":"トットリシ","town_kana":"シカノチョウコウチ","prefecture":"鳥取県","city":"鳥取市","town":"鹿野町河内"},{"zip_code":"6890413","prefecture_kana":"トットリケン","city_kana":"トットリシ","town_kana":"シカノチョウコベツシヨ","prefecture":"鳥取県","city":"鳥取市","town":"鹿野町小別所"},{"zip_code":"6890405","prefecture_kana":"トットリケン","city_kana":"トットリシ","town_kana":"シカノチョウシカノ","prefecture":"鳥取県","city":"鳥取市","town":"鹿野町鹿野"},{"zip_code":"6890411","prefecture_kana":"トットリケン","city_kana":"トットリシ","town_kana":"シカノチョウジュウボウ","prefecture":"鳥取県","city":"鳥取市","town":"鹿野町鷲峯"},{"zip_code":"6890403","prefecture_kana":"トットリケン","city_kana":"トットリシ","town_kana":"シカノチョウスエモチ","prefecture":"鳥取県","city":"鳥取市","town":"鹿野町末用"},{"zip_code":"6890426","prefecture_kana":"トットリケン","city_kana":"トットリシ","town_kana":"シカノチョウテラウチ","prefecture":"鳥取県","city":"鳥取市","town":"鹿野町寺内"},{"zip_code":"6890402","prefecture_kana":"トットリケン","city_kana":"トットリシ","town_kana":"シカノチョウトジノ","prefecture":"鳥取県","city":"鳥取市","town":"鹿野町閉野"},{"zip_code":"6890423","prefecture_kana":"トットリケン","city_kana":"トットリシ","town_kana":"シカノチョウナカゾノ","prefecture":"鳥取県","city":"鳥取市","town":"鹿野町中園"},{"zip_code":"6890401","prefecture_kana":"トットリケン","city_kana":"トットリシ","town_kana":"シカノチョウヒロギ","prefecture":"鳥取県","city":"鳥取市","town":"鹿野町広木"},{"zip_code":"6890404","prefecture_kana":"トットリケン","city_kana":"トットリシ","town_kana":"シカノチョウミズタニ","prefecture":"鳥取県","city":"鳥取市","town":"鹿野町水谷"},{"zip_code":"6890424","prefecture_kana":"トットリケン","city_kana":"トットリシ","town_kana":"シカノチョウミヤカタ","prefecture":"鳥取県","city":"鳥取市","town":"鹿野町宮方"},{"zip_code":"6801151","prefecture_kana":"トットリケン","city_kana":"トットリシ","town_kana":"シトリ","prefecture":"鳥取県","city":"鳥取市","town":"倭文"},{"zip_code":"6801174","prefecture_kana":"トットリケン","city_kana":"トットリシ","town_kana":"シノザカ","prefecture":"鳥取県","city":"鳥取市","town":"篠坂"},{"zip_code":"6801411","prefecture_kana":"トットリケン","city_kana":"トットリシ","town_kana":"シマ","prefecture":"鳥取県","city":"鳥取市","town":"嶋"},{"zip_code":"6801165","prefecture_kana":"トットリケン","city_kana":"トットリシ","town_kana":"シモアジノ","prefecture":"鳥取県","city":"鳥取市","town":"下味野"},{"zip_code":"6801154","prefecture_kana":"トットリケン","city_kana":"トットリシ","town_kana":"シモスナミ","prefecture":"鳥取県","city":"鳥取市","town":"下砂見"},{"zip_code":"6801414","prefecture_kana":"トットリケン","city_kana":"トットリシ","town_kana":"シモダン","prefecture":"鳥取県","city":"鳥取市","town":"下段"},{"zip_code":"6800912","prefecture_kana":"トットリケン","city_kana":"トットリシ","town_kana":"ショウエイチョウ","prefecture":"鳥取県","city":"鳥取市","town":"商栄町"},{"zip_code":"6891103","prefecture_kana":"トットリケン","city_kana":"トットリシ","town_kana":"ショウザン","prefecture":"鳥取県","city":"鳥取市","town":"生山"},{"zip_code":"6800017","prefecture_kana":"トットリケン","city_kana":"トットリシ","town_kana":"ショウトクチョウ","prefecture":"鳥取県","city":"鳥取市","town":"尚徳町"},{"zip_code":"6800922","prefecture_kana":"トットリケン","city_kana":"トットリシ","town_kana":"ショウブ","prefecture":"鳥取県","city":"鳥取市","town":"菖蒲"},{"zip_code":"6800854","prefecture_kana":"トットリケン","city_kana":"トットリシ","town_kana":"ショウレンジ","prefecture":"鳥取県","city":"鳥取市","town":"正蓮寺"},{"zip_code":"6800056","prefecture_kana":"トットリケン","city_kana":"トットリシ","town_kana":"ショクニンマチ","prefecture":"鳥取県","city":"鳥取市","town":"職人町"},{"zip_code":"6800861","prefecture_kana":"トットリケン","city_kana":"トットリシ","town_kana":"シン","prefecture":"鳥取県","city":"鳥取市","town":"新"},{"zip_code":"6800812","prefecture_kana":"トットリケン","city_kana":"トットリシ","town_kana":"シンホンジチョウ","prefecture":"鳥取県","city":"鳥取市","town":"新品治町"},{"zip_code":"6800035","prefecture_kana":"トットリケン","city_kana":"トットリシ","town_kana":"シンマチ","prefecture":"鳥取県","city":"鳥取市","town":"新町"},{"zip_code":"6800833","prefecture_kana":"トットリケン","city_kana":"トットリシ","town_kana":"スエヒロオンセンチョウ","prefecture":"鳥取県","city":"鳥取市","town":"末広温泉町"},{"zip_code":"6891101","prefecture_kana":"トットリケン","city_kana":"トットリシ","town_kana":"スギザキ","prefecture":"鳥取県","city":"鳥取市","town":"杉崎"},{"zip_code":"6800875","prefecture_kana":"トットリケン","city_kana":"トットリシ","town_kana":"スヅ","prefecture":"鳥取県","city":"鳥取市","town":"数津"},{"zip_code":"6801435","prefecture_kana":"トットリケン","city_kana":"トットリシ","town_kana":"セタグラ","prefecture":"鳥取県","city":"鳥取市","town":"瀬田蔵"},{"zip_code":"6801432","prefecture_kana":"トットリケン","city_kana":"トットリシ","town_kana":"ソウロクバラ","prefecture":"鳥取県","city":"鳥取市","town":"双六原"},{"zip_code":"6801418","prefecture_kana":"トットリケン","city_kana":"トットリシ","town_kana":"ダイカク","prefecture":"鳥取県","city":"鳥取市","town":"大桷"},{"zip_code":"6800863","prefecture_kana":"トットリケン","city_kana":"トットリシ","town_kana":"ダイカクジ","prefecture":"鳥取県","city":"鳥取市","town":"大覚寺"},{"zip_code":"6801416","prefecture_kana":"トットリケン","city_kana":"トットリシ","town_kana":"タカズミ","prefecture":"鳥取県","city":"鳥取市","town":"高住"},{"zip_code":"6800045","prefecture_kana":"トットリケン","city_kana":"トットリシ","town_kana":"ダイクマチガシラ","prefecture":"鳥取県","city":"鳥取市","town":"大工町頭"},{"zip_code":"6800072","prefecture_kana":"トットリケン","city_kana":"トットリシ","town_kana":"タキヤマ","prefecture":"鳥取県","city":"鳥取市","town":"滝山"},{"zip_code":"6801162","prefecture_kana":"トットリケン","city_kana":"トットリシ","town_kana":"タケナリ","prefecture":"鳥取県","city":"鳥取市","town":"竹生"},{"zip_code":"6800804","prefecture_kana":"トットリケン","city_kana":"トットリシ","town_kana":"タシマ","prefecture":"鳥取県","city":"鳥取市","town":"田島"},{"zip_code":"6800061","prefecture_kana":"トットリケン","city_kana":"トットリシ","town_kana":"タチカワチョウ","prefecture":"鳥取県","city":"鳥取市","town":"立川町"},{"zip_code":"6801152","prefecture_kana":"トットリケン","city_kana":"トットリシ","town_kana":"タマヅ","prefecture":"鳥取県","city":"鳥取市","town":"玉津"},{"zip_code":"6800943","prefecture_kana":"トットリケン","city_kana":"トットリシ","town_kana":"タリヤマ","prefecture":"鳥取県","city":"鳥取市","town":"足山"},{"zip_code":"6800032","prefecture_kana":"トットリケン","city_kana":"トットリシ","town_kana":"チャマチ","prefecture":"鳥取県","city":"鳥取市","town":"茶町"},{"zip_code":"6800911","prefecture_kana":"トットリケン","city_kana":"トットリシ","town_kana":"チヨミ","prefecture":"鳥取県","city":"鳥取市","town":"千代水"},{"zip_code":"6891102","prefecture_kana":"トットリケン","city_kana":"トットリシ","town_kana":"ツノイ","prefecture":"鳥取県","city":"鳥取市","town":"津ノ井"},{"zip_code":"6800053","prefecture_kana":"トットリケン","city_kana":"トットリシ","town_kana":"テラマチ","prefecture":"鳥取県","city":"鳥取市","town":"寺町"},{"zip_code":"6800803","prefecture_kana":"トットリケン","city_kana":"トットリシ","town_kana":"デンエンチョウ","prefecture":"鳥取県","city":"鳥取市","town":"田園町"},{"zip_code":"6800847","prefecture_kana":"トットリケン","city_kana":"トットリシ","town_kana":"テンジンチョウ","prefecture":"鳥取県","city":"鳥取市","town":"天神町"},{"zip_code":"6800934","prefecture_kana":"トットリケン","city_kana":"トットリシ","town_kana":"トクノオ","prefecture":"鳥取県","city":"鳥取市","town":"徳尾"},{"zip_code":"6800933","prefecture_kana":"トットリケン","city_kana":"トットリシ","town_kana":"トクヨシ","prefecture":"鳥取県","city":"鳥取市","town":"徳吉"},{"zip_code":"6800845","prefecture_kana":"トットリケン","city_kana":"トットリシ","town_kana":"トミヤス","prefecture":"鳥取県","city":"鳥取市","town":"富安"},{"zip_code":"6891106","prefecture_kana":"トットリケン","city_kana":"トットリシ","town_kana":"ナカオオロ","prefecture":"鳥取県","city":"鳥取市","town":"中大路"},{"zip_code":"6801155","prefecture_kana":"トットリケン","city_kana":"トットリシ","town_kana":"ナカスナミ","prefecture":"鳥取県","city":"鳥取市","town":"中砂見"},{"zip_code":"6800016","prefecture_kana":"トットリケン","city_kana":"トットリシ","town_kana":"ナカマチ","prefecture":"鳥取県","city":"鳥取市","town":"中町"},{"zip_code":"6801175","prefecture_kana":"トットリケン","city_kana":"トットリシ","town_kana":"ナカムラ","prefecture":"鳥取県","city":"鳥取市","town":"中村"},{"zip_code":"6801436","prefecture_kana":"トットリケン","city_kana":"トットリシ","town_kana":"ナガラ","prefecture":"鳥取県","city":"鳥取市","town":"長柄"},{"zip_code":"6891121","prefecture_kana":"トットリケン","city_kana":"トットリシ","town_kana":"ナンエイチョウ","prefecture":"鳥取県","city":"鳥取市","town":"南栄町"},{"zip_code":"6800033","prefecture_kana":"トットリケン","city_kana":"トットリシ","town_kana":"ニカイマチ","prefecture":"鳥取県","city":"鳥取市","town":"二階町"},{"zip_code":"6801173","prefecture_kana":"トットリケン","city_kana":"トットリシ","town_kana":"ニシイマザイケ","prefecture":"鳥取県","city":"鳥取市","town":"西今在家"},{"zip_code":"6801145","prefecture_kana":"トットリケン","city_kana":"トットリシ","town_kana":"ニシエンツウジ","prefecture":"鳥取県","city":"鳥取市","town":"西円通寺"},{"zip_code":"6891107","prefecture_kana":"トットリケン","city_kana":"トットリシ","town_kana":"ニシオオロ","prefecture":"鳥取県","city":"鳥取市","town":"西大路"},{"zip_code":"6800811","prefecture_kana":"トットリケン","city_kana":"トットリシ","town_kana":"ニシホンジ","prefecture":"鳥取県","city":"鳥取市","town":"西品治"},{"zip_code":"6800022","prefecture_kana":"トットリケン","city_kana":"トットリシ","town_kana":"ニシマチ","prefecture":"鳥取県","city":"鳥取市","town":"西町"},{"zip_code":"6891113","prefecture_kana":"トットリケン","city_kana":"トットリシ","town_kana":"ネギダニ","prefecture":"鳥取県","city":"鳥取市","town":"祢宜谷"},{"zip_code":"6801413","prefecture_kana":"トットリケン","city_kana":"トットリシ","town_kana":"ノサカ","prefecture":"鳥取県","city":"鳥取市","town":"野坂"},{"zip_code":"6800924","prefecture_kana":"トットリケン","city_kana":"トットリシ","town_kana":"ノデラ","prefecture":"鳥取県","city":"鳥取市","town":"野寺"},{"zip_code":"6890206","prefecture_kana":"トットリケン","city_kana":"トットリシ","town_kana":"ハクト","prefecture":"鳥取県","city":"鳥取市","town":"白兎"},{"zip_code":"6801142","prefecture_kana":"トットリケン","city_kana":"トットリシ","town_kana":"ハシモト","prefecture":"鳥取県","city":"鳥取市","town":"橋本"},{"zip_code":"6801153","prefecture_kana":"トットリケン","city_kana":"トットリシ","town_kana":"ハセ","prefecture":"鳥取県","city":"鳥取市","town":"長谷"},{"zip_code":"6801143","prefecture_kana":"トットリケン","city_kana":"トットリシ","town_kana":"ハツサカ","prefecture":"鳥取県","city":"鳥取市","town":"八坂"},{"zip_code":"6800923","prefecture_kana":"トットリケン","city_kana":"トットリシ","town_kana":"ハットリ","prefecture":"鳥取県","city":"鳥取市","town":"服部"},{"zip_code":"6801131","prefecture_kana":"トットリケン","city_kana":"トットリシ","town_kana":"ババ","prefecture":"鳥取県","city":"鳥取市","town":"馬場"},{"zip_code":"6800014","prefecture_kana":"トットリケン","city_kana":"トットリシ","town_kana":"ババノチョウ","prefecture":"鳥取県","city":"鳥取市","town":"馬場町"},{"zip_code":"6800001","prefecture_kana":"トットリケン","city_kana":"トットリシ","town_kana":"ハマサカ","prefecture":"鳥取県","city":"鳥取市","town":"浜坂"},{"zip_code":"6800002","prefecture_kana":"トットリケン","city_kana":"トットリシ","town_kana":"ハマサカヒガシ","prefecture":"鳥取県","city":"鳥取市","town":"浜坂東"},{"zip_code":"6800852","prefecture_kana":"トットリケン","city_kana":"トットリシ","town_kana":"ヒガシイマザイケ","prefecture":"鳥取県","city":"鳥取市","town":"東今在家"},{"zip_code":"6891105","prefecture_kana":"トットリケン","city_kana":"トットリシ","town_kana":"ヒガシオオロ","prefecture":"鳥取県","city":"鳥取市","town":"東大路"},{"zip_code":"6800835","prefecture_kana":"トットリケン","city_kana":"トットリシ","town_kana":"ヒガシホンジチョウ","prefecture":"鳥取県","city":"鳥取市","town":"東品治町"},{"zip_code":"6800011","prefecture_kana":"トットリケン","city_kana":"トットリシ","town_kana":"ヒガシマチ","prefecture":"鳥取県","city":"鳥取市","town":"東町"},{"zip_code":"6891123","prefecture_kana":"トットリケン","city_kana":"トットリシ","town_kana":"ヒサスエ","prefecture":"鳥取県","city":"鳥取市","town":"久末"},{"zip_code":"6891116","prefecture_kana":"トットリケン","city_kana":"トットリシ","town_kana":"ヒロオカ","prefecture":"鳥取県","city":"鳥取市","town":"広岡"},{"zip_code":"6801438","prefecture_kana":"トットリケン","city_kana":"トットリシ","town_kana":"フクイ","prefecture":"鳥取県","city":"鳥取市","town":"福井"},{"zip_code":"6890106","prefecture_kana":"トットリケン","city_kana":"トットリシ","town_kana":"フクベチョウアモウ","prefecture":"鳥取県","city":"鳥取市","town":"福部町海士"},{"zip_code":"6890101","prefecture_kana":"トットリケン","city_kana":"トットリシ","town_kana":"フクベチョウイワド","prefecture":"鳥取県","city":"鳥取市","town":"福部町岩戸"},{"zip_code":"6808021","prefecture_kana":"トットリケン","city_kana":"トットリシ","town_kana":"フクベチョウクジラ（ウエノ）","prefecture":"鳥取県","city":"鳥取市","town":"福部町久志羅（上野）"},{"zip_code":"6890113","prefecture_kana":"トットリケン","city_kana":"トットリシ","town_kana":"フクベチョウクジラ（ソノタ）","prefecture":"鳥取県","city":"鳥取市","town":"福部町久志羅（その他）"},{"zip_code":"6890112","prefecture_kana":"トットリケン","city_kana":"トットリシ","town_kana":"フクベチョウクラミ","prefecture":"鳥取県","city":"鳥取市","town":"福部町蔵見"},{"zip_code":"6890111","prefecture_kana":"トットリケン","city_kana":"トットリシ","town_kana":"フクベチョウクリタニ","prefecture":"鳥取県","city":"鳥取市","town":"福部町栗谷"},{"zip_code":"6808022","prefecture_kana":"トットリケン","city_kana":"トットリシ","town_kana":"フクベチョウサコ（ウエノ）","prefecture":"鳥取県","city":"鳥取市","town":"福部町左近（上野）"},{"zip_code":"6890114","prefecture_kana":"トットリケン","city_kana":"トットリシ","town_kana":"フクベチョウサコ（ソノタ）","prefecture":"鳥取県","city":"鳥取市","town":"福部町左近（その他）"},{"zip_code":"6890103","prefecture_kana":"トットリケン","city_kana":"トットリシ","town_kana":"フクベチョウタカエ","prefecture":"鳥取県","city":"鳥取市","town":"福部町高江"},{"zip_code":"6890116","prefecture_kana":"トットリケン","city_kana":"トットリシ","town_kana":"フクベチョウナカ","prefecture":"鳥取県","city":"鳥取市","town":"福部町中"},{"zip_code":"6890117","prefecture_kana":"トットリケン","city_kana":"トットリシ","town_kana":"フクベチョウノウダ","prefecture":"鳥取県","city":"鳥取市","town":"福部町南田"},{"zip_code":"6890102","prefecture_kana":"トットリケン","city_kana":"トットリシ","town_kana":"フクベチョウホソガワ","prefecture":"鳥取県","city":"鳥取市","town":"福部町細川"},{"zip_code":"6890115","prefecture_kana":"トットリケン","city_kana":"トットリシ","town_kana":"フクベチョウヤエバラ","prefecture":"鳥取県","city":"鳥取市","town":"福部町八重原"},{"zip_code":"6890104","prefecture_kana":"トットリケン","city_kana":"トットリシ","town_kana":"フクベチョウヤダニ","prefecture":"鳥取県","city":"鳥取市","town":"福部町箭溪"},{"zip_code":"6890105","prefecture_kana":"トットリケン","city_kana":"トットリシ","town_kana":"フクベチョウユヤマ","prefecture":"鳥取県","city":"鳥取市","town":"福部町湯山"},{"zip_code":"6890201","prefecture_kana":"トットリケン","city_kana":"トットリシ","town_kana":"フシノ","prefecture":"鳥取県","city":"鳥取市","town":"伏野"},{"zip_code":"6800944","prefecture_kana":"トットリケン","city_kana":"トットリシ","town_kana":"フセ","prefecture":"鳥取県","city":"鳥取市","town":"布勢"},{"zip_code":"6891122","prefecture_kana":"トットリケン","city_kana":"トットリシ","town_kana":"フナキ","prefecture":"鳥取県","city":"鳥取市","town":"船木"},{"zip_code":"6800865","prefecture_kana":"トットリケン","city_kana":"トットリシ","town_kana":"フルイチ","prefecture":"鳥取県","city":"鳥取市","town":"古市"},{"zip_code":"6800921","prefecture_kana":"トットリケン","city_kana":"トットリシ","town_kana":"フルミ","prefecture":"鳥取県","city":"鳥取市","town":"古海"},{"zip_code":"6800074","prefecture_kana":"トットリケン","city_kana":"トットリシ","town_kana":"ボウガキ","prefecture":"鳥取県","city":"鳥取市","town":"卯垣"},{"zip_code":"6800042","prefecture_kana":"トットリケン","city_kana":"トットリシ","town_kana":"ホウチョウニンマチ","prefecture":"鳥取県","city":"鳥取市","town":"庖丁人町"},{"zip_code":"6801426","prefecture_kana":"トットリケン","city_kana":"トットリシ","town_kana":"ホソミ","prefecture":"鳥取県","city":"鳥取市","town":"細見"},{"zip_code":"6801434","prefecture_kana":"トットリケン","city_kana":"トットリシ","town_kana":"ホラダニ","prefecture":"鳥取県","city":"鳥取市","town":"洞谷"},{"zip_code":"6800031","prefecture_kana":"トットリケン","city_kana":"トットリシ","town_kana":"ホンマチ","prefecture":"鳥取県","city":"鳥取市","town":"本町"},{"zip_code":"6801424","prefecture_kana":"トットリケン","city_kana":"トットリシ","town_kana":"マキバラ","prefecture":"鳥取県","city":"鳥取市","town":"槇原"},{"zip_code":"6801423","prefecture_kana":"トットリケン","city_kana":"トットリシ","town_kana":"マツガミ","prefecture":"鳥取県","city":"鳥取市","town":"松上"},{"zip_code":"6800801","prefecture_kana":"トットリケン","city_kana":"トットリシ","town_kana":"マツナミチョウ","prefecture":"鳥取県","city":"鳥取市","town":"松並町"},{"zip_code":"6801444","prefecture_kana":"トットリケン","city_kana":"トットリシ","town_kana":"マツバラ","prefecture":"鳥取県","city":"鳥取市","town":"松原"},{"zip_code":"6800873","prefecture_kana":"トットリケン","city_kana":"トットリシ","town_kana":"マトバ","prefecture":"鳥取県","city":"鳥取市","town":"的場"},{"zip_code":"6800006","prefecture_kana":"トットリケン","city_kana":"トットリシ","town_kana":"マルヤマチョウ","prefecture":"鳥取県","city":"鳥取市","town":"丸山町"},{"zip_code":"6890204","prefecture_kana":"トットリケン","city_kana":"トットリシ","town_kana":"ミクマ","prefecture":"鳥取県","city":"鳥取市","town":"御熊"},{"zip_code":"6890203","prefecture_kana":"トットリケン","city_kana":"トットリシ","town_kana":"ミツ","prefecture":"鳥取県","city":"鳥取市","town":"三津"},{"zip_code":"6800915","prefecture_kana":"トットリケン","city_kana":"トットリシ","town_kana":"ミドリガオカ","prefecture":"鳥取県","city":"鳥取市","town":"緑ケ丘"},{"zip_code":"6800906","prefecture_kana":"トットリケン","city_kana":"トットリシ","town_kana":"ミナトマチ","prefecture":"鳥取県","city":"鳥取市","town":"港町"},{"zip_code":"6800903","prefecture_kana":"トットリケン","city_kana":"トットリシ","town_kana":"ミナミガクマ","prefecture":"鳥取県","city":"鳥取市","town":"南隈"},{"zip_code":"6800814","prefecture_kana":"トットリケン","city_kana":"トットリシ","town_kana":"ミナミマチ","prefecture":"鳥取県","city":"鳥取市","town":"南町"},{"zip_code":"6800914","prefecture_kana":"トットリケン","city_kana":"トットリシ","town_kana":"ミナミヤスナガ","prefecture":"鳥取県","city":"鳥取市","town":"南安長"},{"zip_code":"6800843","prefecture_kana":"トットリケン","city_kana":"トットリシ","town_kana":"ミナミヨシカタ","prefecture":"鳥取県","city":"鳥取市","town":"南吉方"},{"zip_code":"6890202","prefecture_kana":"トットリケン","city_kana":"トットリシ","town_kana":"ミハギノ","prefecture":"鳥取県","city":"鳥取市","town":"美萩野"},{"zip_code":"6801412","prefecture_kana":"トットリケン","city_kana":"トットリシ","town_kana":"ミヤダニ","prefecture":"鳥取県","city":"鳥取市","town":"宮谷"},{"zip_code":"6800872","prefecture_kana":"トットリケン","city_kana":"トットリシ","town_kana":"ミヤナガ","prefecture":"鳥取県","city":"鳥取市","town":"宮長"},{"zip_code":"6801428","prefecture_kana":"トットリケン","city_kana":"トットリシ","town_kana":"ミヤマグチ","prefecture":"鳥取県","city":"鳥取市","town":"三山口"},{"zip_code":"6801431","prefecture_kana":"トットリケン","city_kana":"トットリシ","town_kana":"ミョウトクジ","prefecture":"鳥取県","city":"鳥取市","town":"妙徳寺"},{"zip_code":"6891126","prefecture_kana":"トットリケン","city_kana":"トットリシ","town_kana":"ミワ","prefecture":"鳥取県","city":"鳥取市","town":"美和"},{"zip_code":"6801161","prefecture_kana":"トットリケン","city_kana":"トットリシ","town_kana":"ムコウグニヤス","prefecture":"鳥取県","city":"鳥取市","town":"向国安"},{"zip_code":"6891215","prefecture_kana":"トットリケン","city_kana":"トットリシ","town_kana":"モチガセチョウアガナミ","prefecture":"鳥取県","city":"鳥取市","town":"用瀬町赤波"},{"zip_code":"6891214","prefecture_kana":"トットリケン","city_kana":"トットリシ","town_kana":"モチガセチョウアサヒガオカ","prefecture":"鳥取県","city":"鳥取市","town":"用瀬町旭ケ丘"},{"zip_code":"6891227","prefecture_kana":"トットリケン","city_kana":"トットリシ","town_kana":"モチガセチョウアゾウ","prefecture":"鳥取県","city":"鳥取市","town":"用瀬町安蔵"},{"zip_code":"6891222","prefecture_kana":"トットリケン","city_kana":"トットリシ","town_kana":"モチガセチョウイエオク","prefecture":"鳥取県","city":"鳥取市","town":"用瀬町家奥"},{"zip_code":"6891229","prefecture_kana":"トットリケン","city_kana":"トットリシ","town_kana":"モチガセチョウエナミ","prefecture":"鳥取県","city":"鳥取市","town":"用瀬町江波"},{"zip_code":"6891223","prefecture_kana":"トットリケン","city_kana":"トットリシ","town_kana":"モチガセチョウカナヤ","prefecture":"鳥取県","city":"鳥取市","town":"用瀬町金屋"},{"zip_code":"6891226","prefecture_kana":"トットリケン","city_kana":"トットリシ","town_kana":"モチガセチョウカワナカ","prefecture":"鳥取県","city":"鳥取市","town":"用瀬町川中"},{"zip_code":"6891224","prefecture_kana":"トットリケン","city_kana":"トットリシ","town_kana":"モチガセチョウクヌギワラ","prefecture":"鳥取県","city":"鳥取市","town":"用瀬町樟原"},{"zip_code":"6891213","prefecture_kana":"トットリケン","city_kana":"トットリシ","town_kana":"モチガセチョウタカガリ","prefecture":"鳥取県","city":"鳥取市","town":"用瀬町鷹狩"},{"zip_code":"6891221","prefecture_kana":"トットリケン","city_kana":"トットリシ","town_kana":"モチガセチョウフルモチガセ","prefecture":"鳥取県","city":"鳥取市","town":"用瀬町古用瀬"},{"zip_code":"6891211","prefecture_kana":"トットリケン","city_kana":"トットリシ","town_kana":"モチガセチョウベフ","prefecture":"鳥取県","city":"鳥取市","town":"用瀬町別府"},{"zip_code":"6891212","prefecture_kana":"トットリケン","city_kana":"トットリシ","town_kana":"モチガセチョウミナリ","prefecture":"鳥取県","city":"鳥取市","town":"用瀬町美成"},{"zip_code":"6891225","prefecture_kana":"トットリケン","city_kana":"トットリシ","town_kana":"モチガセチョウミヤバラ","prefecture":"鳥取県","city":"鳥取市","town":"用瀬町宮原"},{"zip_code":"6891201","prefecture_kana":"トットリケン","city_kana":"トットリシ","town_kana":"モチガセチョウモチガセ","prefecture":"鳥取県","city":"鳥取市","town":"用瀬町用瀬"},{"zip_code":"6891228","prefecture_kana":"トットリケン","city_kana":"トットリシ","town_kana":"モチガセチョウヤズミ","prefecture":"鳥取県","city":"鳥取市","town":"用瀬町屋住"},{"zip_code":"6800034","prefecture_kana":"トットリケン","city_kana":"トットリシ","town_kana":"モトウオマチ","prefecture":"鳥取県","city":"鳥取市","town":"元魚町"},{"zip_code":"6800046","prefecture_kana":"トットリケン","city_kana":"トットリシ","town_kana":"モトダイクマチ","prefecture":"鳥取県","city":"鳥取市","town":"元大工町"},{"zip_code":"6801171","prefecture_kana":"トットリケン","city_kana":"トットリシ","town_kana":"モトダカ","prefecture":"鳥取県","city":"鳥取市","town":"本高"},{"zip_code":"6800037","prefecture_kana":"トットリケン","city_kana":"トットリシ","town_kana":"モトマチ","prefecture":"鳥取県","city":"鳥取市","town":"元町"},{"zip_code":"6800071","prefecture_kana":"トットリケン","city_kana":"トットリシ","town_kana":"モモダニ","prefecture":"鳥取県","city":"鳥取市","town":"百谷"},{"zip_code":"6800806","prefecture_kana":"トットリケン","city_kana":"トットリシ","town_kana":"ヤクシマチ","prefecture":"鳥取県","city":"鳥取市","town":"薬師町"},{"zip_code":"6800913","prefecture_kana":"トットリケン","city_kana":"トットリシ","town_kana":"ヤスナガ","prefecture":"鳥取県","city":"鳥取市","town":"安長"},{"zip_code":"6801433","prefecture_kana":"トットリケン","city_kana":"トットリシ","town_kana":"ヤハギ","prefecture":"鳥取県","city":"鳥取市","town":"矢矯"},{"zip_code":"6800008","prefecture_kana":"トットリケン","city_kana":"トットリシ","town_kana":"ヤマシロチョウ","prefecture":"鳥取県","city":"鳥取市","town":"山城町"},{"zip_code":"6800832","prefecture_kana":"トットリケン","city_kana":"トットリシ","town_kana":"ヤヨイチョウ","prefecture":"鳥取県","city":"鳥取市","town":"弥生町"},{"zip_code":"6800007","prefecture_kana":"トットリケン","city_kana":"トットリシ","town_kana":"ユトコロチョウ","prefecture":"鳥取県","city":"鳥取市","town":"湯所町"},{"zip_code":"6801163","prefecture_kana":"トットリケン","city_kana":"トットリシ","town_kana":"ヨコマクラ","prefecture":"鳥取県","city":"鳥取市","town":"横枕"},{"zip_code":"6801442","prefecture_kana":"トットリケン","city_kana":"トットリシ","town_kana":"ヨシオカオンセンチョウ","prefecture":"鳥取県","city":"鳥取市","town":"吉岡温泉町"},{"zip_code":"6800842","prefecture_kana":"トットリケン","city_kana":"トットリシ","town_kana":"ヨシカタ","prefecture":"鳥取県","city":"鳥取市","town":"吉方"},{"zip_code":"6800841","prefecture_kana":"トットリケン","city_kana":"トットリシ","town_kana":"ヨシカタオンセン","prefecture":"鳥取県","city":"鳥取市","town":"吉方温泉"},{"zip_code":"6800062","prefecture_kana":"トットリケン","city_kana":"トットリシ","town_kana":"ヨシカタチョウ","prefecture":"鳥取県","city":"鳥取市","town":"吉方町"},{"zip_code":"6801441","prefecture_kana":"トットリケン","city_kana":"トットリシ","town_kana":"ヨシダ","prefecture":"鳥取県","city":"鳥取市","town":"良田"},{"zip_code":"6800864","prefecture_kana":"トットリケン","city_kana":"トットリシ","town_kana":"ヨシナリ","prefecture":"鳥取県","city":"鳥取市","town":"吉成"},{"zip_code":"6800871","prefecture_kana":"トットリケン","city_kana":"トットリシ","town_kana":"ヨシナリミナミマチ","prefecture":"鳥取県","city":"鳥取市","town":"吉成南町"},{"zip_code":"6801443","prefecture_kana":"トットリケン","city_kana":"トットリシ","town_kana":"ロクタンダ","prefecture":"鳥取県","city":"鳥取市","town":"六反田"},{"zip_code":"6800051","prefecture_kana":"トットリケン","city_kana":"トットリシ","town_kana":"ワカサマチ","prefecture":"鳥取県","city":"鳥取市","town":"若桜町"},{"zip_code":"6891112","prefecture_kana":"トットリケン","city_kana":"トットリシ","town_kana":"ワカバダイミナミ","prefecture":"鳥取県","city":"鳥取市","town":"若葉台南"},{"zip_code":"6891111","prefecture_kana":"トットリケン","city_kana":"トットリシ","town_kana":"ワカバダイキタ","prefecture":"鳥取県","city":"鳥取市","town":"若葉台北"},{"zip_code":"6830000","prefecture_kana":"トットリケン","city_kana":"ヨナゴシ","town_kana":"イカニケイサイガナイバアイ","prefecture":"鳥取県","city":"米子市","town":"以下に掲載がない場合"},{"zip_code":"6830252","prefecture_kana":"トットリケン","city_kana":"ヨナゴシ","town_kana":"アオキ","prefecture":"鳥取県","city":"米子市","town":"青木"},{"zip_code":"6893515","prefecture_kana":"トットリケン","city_kana":"ヨナゴシ","town_kana":"アカイデ","prefecture":"鳥取県","city":"米子市","town":"赤井手"},{"zip_code":"6830813","prefecture_kana":"トットリケン","city_kana":"ヨナゴシ","town_kana":"アサヒマチ","prefecture":"鳥取県","city":"米子市","town":"朝日町"},{"zip_code":"6830046","prefecture_kana":"トットリケン","city_kana":"ヨナゴシ","town_kana":"アタゴチョウ","prefecture":"鳥取県","city":"米子市","town":"愛宕町"},{"zip_code":"6830846","prefecture_kana":"トットリケン","city_kana":"ヨナゴシ","town_kana":"アベ","prefecture":"鳥取県","city":"米子市","town":"安倍"},{"zip_code":"6830021","prefecture_kana":"トットリケン","city_kana":"ヨナゴシ","town_kana":"イシイ","prefecture":"鳥取県","city":"米子市","town":"石井"},{"zip_code":"6893512","prefecture_kana":"トットリケン","city_kana":"ヨナゴシ","town_kana":"イズミ","prefecture":"鳥取県","city":"米子市","town":"泉"},{"zip_code":"6893533","prefecture_kana":"トットリケン","city_kana":"ヨナゴシ","town_kana":"イチブ","prefecture":"鳥取県","city":"米子市","town":"一部"},{"zip_code":"6893542","prefecture_kana":"トットリケン","city_kana":"ヨナゴシ","town_kana":"イマザイケ","prefecture":"鳥取県","city":"米子市","town":"今在家"},{"zip_code":"6830833","prefecture_kana":"トットリケン","city_kana":"ヨナゴシ","town_kana":"イワクラマチ","prefecture":"鳥取県","city":"米子市","town":"岩倉町"},{"zip_code":"6830027","prefecture_kana":"トットリケン","city_kana":"ヨナゴシ","town_kana":"インダチョウ","prefecture":"鳥取県","city":"米子市","town":"陰田町"},{"zip_code":"6830834","prefecture_kana":"トットリケン","city_kana":"ヨナゴシ","town_kana":"ウチマチ","prefecture":"鳥取県","city":"米子市","town":"内町"},{"zip_code":"6893544","prefecture_kana":"トットリケン","city_kana":"ヨナゴシ","town_kana":"ウラツ","prefecture":"鳥取県","city":"米子市","town":"浦津"},{"zip_code":"6830257","prefecture_kana":"トットリケン","city_kana":"ヨナゴシ","town_kana":"エノキハラ","prefecture":"鳥取県","city":"米子市","town":"榎原"},{"zip_code":"6830104","prefecture_kana":"トットリケン","city_kana":"ヨナゴシ","town_kana":"オオザキ","prefecture":"鳥取県","city":"米子市","town":"大崎"},{"zip_code":"6830101","prefecture_kana":"トットリケン","city_kana":"ヨナゴシ","town_kana":"オオシノヅチョウ","prefecture":"鳥取県","city":"米子市","town":"大篠津町"},{"zip_code":"6830045","prefecture_kana":"トットリケン","city_kana":"ヨナゴシ","town_kana":"オオダニチョウ","prefecture":"鳥取県","city":"米子市","town":"大谷町"},{"zip_code":"6830256","prefecture_kana":"トットリケン","city_kana":"ヨナゴシ","town_kana":"オオブクロ","prefecture":"鳥取県","city":"米子市","town":"大袋"},{"zip_code":"6893513","prefecture_kana":"トットリケン","city_kana":"ヨナゴシ","town_kana":"オカナリ","prefecture":"鳥取県","city":"米子市","town":"岡成"},{"zip_code":"6830016","prefecture_kana":"トットリケン","city_kana":"ヨナゴシ","town_kana":"オクノタニ","prefecture":"鳥取県","city":"米子市","town":"奥谷"},{"zip_code":"6893514","prefecture_kana":"トットリケン","city_kana":"ヨナゴシ","town_kana":"オダカ","prefecture":"鳥取県","city":"米子市","town":"尾高"},{"zip_code":"6830814","prefecture_kana":"トットリケン","city_kana":"ヨナゴシ","town_kana":"オダカマチ","prefecture":"鳥取県","city":"米子市","town":"尾高町"},{"zip_code":"6830003","prefecture_kana":"トットリケン","city_kana":"ヨナゴシ","town_kana":"カイケ","prefecture":"鳥取県","city":"米子市","town":"皆生"},{"zip_code":"6830001","prefecture_kana":"トットリケン","city_kana":"ヨナゴシ","town_kana":"カイケオンセン","prefecture":"鳥取県","city":"米子市","town":"皆生温泉"},{"zip_code":"6830002","prefecture_kana":"トットリケン","city_kana":"ヨナゴシ","town_kana":"カイケシンデン","prefecture":"鳥取県","city":"米子市","town":"皆生新田"},{"zip_code":"6830812","prefecture_kana":"トットリケン","city_kana":"ヨナゴシ","town_kana":"カクバンチョウ","prefecture":"鳥取県","city":"米子市","town":"角盤町"},{"zip_code":"6830251","prefecture_kana":"トットリケン","city_kana":"ヨナゴシ","town_kana":"カネヒサ","prefecture":"鳥取県","city":"米子市","town":"兼久"},{"zip_code":"6830255","prefecture_kana":"トットリケン","city_kana":"ヨナゴシ","town_kana":"カミアズマ","prefecture":"鳥取県","city":"米子市","town":"上安曇"},{"zip_code":"6830841","prefecture_kana":"トットリケン","city_kana":"ヨナゴシ","town_kana":"カミゴトウ","prefecture":"鳥取県","city":"米子市","town":"上後藤"},{"zip_code":"6893532","prefecture_kana":"トットリケン","city_kana":"ヨナゴシ","town_kana":"カミシイ","prefecture":"鳥取県","city":"米子市","town":"上新印"},{"zip_code":"6830004","prefecture_kana":"トットリケン","city_kana":"ヨナゴシ","town_kana":"カミフクバラ","prefecture":"鳥取県","city":"米子市","town":"上福原"},{"zip_code":"6830823","prefecture_kana":"トットリケン","city_kana":"ヨナゴシ","town_kana":"カモチョウ","prefecture":"鳥取県","city":"米子市","town":"加茂町"},{"zip_code":"6893543","prefecture_kana":"トットリケン","city_kana":"ヨナゴシ","town_kana":"カヤ","prefecture":"鳥取県","city":"米子市","town":"蚊屋"},{"zip_code":"6893521","prefecture_kana":"トットリケン","city_kana":"ヨナゴシ","town_kana":"カワオカ","prefecture":"鳥取県","city":"米子市","town":"河岡"},{"zip_code":"6830852","prefecture_kana":"トットリケン","city_kana":"ヨナゴシ","town_kana":"カワサキ","prefecture":"鳥取県","city":"米子市","town":"河崎"},{"zip_code":"6830051","prefecture_kana":"トットリケン","city_kana":"ヨナゴシ","town_kana":"カンダマチ","prefecture":"鳥取県","city":"米子市","town":"勝田町"},{"zip_code":"6830007","prefecture_kana":"トットリケン","city_kana":"ヨナゴシ","town_kana":"カンノンジ","prefecture":"鳥取県","city":"米子市","town":"観音寺"},{"zip_code":"6830009","prefecture_kana":"トットリケン","city_kana":"ヨナゴシ","town_kana":"カンノンジシンマチ","prefecture":"鳥取県","city":"米子市","town":"観音寺新町"},{"zip_code":"6830047","prefecture_kana":"トットリケン","city_kana":"ヨナゴシ","town_kana":"ギオンチョウ","prefecture":"鳥取県","city":"米子市","town":"祇園町"},{"zip_code":"6830844","prefecture_kana":"トットリケン","city_kana":"ヨナゴシ","town_kana":"ギホウチョウ","prefecture":"鳥取県","city":"米子市","town":"義方町"},{"zip_code":"6830825","prefecture_kana":"トットリケン","city_kana":"ヨナゴシ","town_kana":"キンカイチョウ","prefecture":"鳥取県","city":"米子市","town":"錦海町"},{"zip_code":"6893522","prefecture_kana":"トットリケン","city_kana":"ヨナゴシ","town_kana":"クサカ","prefecture":"鳥取県","city":"米子市","town":"日下"},{"zip_code":"6830006","prefecture_kana":"トットリケン","city_kana":"ヨナゴシ","town_kana":"クズモ","prefecture":"鳥取県","city":"米子市","town":"車尾"},{"zip_code":"6830008","prefecture_kana":"トットリケン","city_kana":"ヨナゴシ","town_kana":"クズモミナミ","prefecture":"鳥取県","city":"米子市","town":"車尾南"},{"zip_code":"6893546","prefecture_kana":"トットリケン","city_kana":"ヨナゴシ","town_kana":"クマントウ","prefecture":"鳥取県","city":"米子市","town":"熊党"},{"zip_code":"6830824","prefecture_kana":"トットリケン","city_kana":"ヨナゴシ","town_kana":"クメチョウ","prefecture":"鳥取県","city":"米子市","town":"久米町"},{"zip_code":"6830054","prefecture_kana":"トットリケン","city_kana":"ヨナゴシ","town_kana":"コウジマチ","prefecture":"鳥取県","city":"米子市","town":"糀町"},{"zip_code":"6830062","prefecture_kana":"トットリケン","city_kana":"ヨナゴシ","town_kana":"コウヤマチ","prefecture":"鳥取県","city":"米子市","town":"紺屋町"},{"zip_code":"6893537","prefecture_kana":"トットリケン","city_kana":"ヨナゴシ","town_kana":"コホウチ","prefecture":"鳥取県","city":"米子市","town":"古豊千"},{"zip_code":"6830842","prefecture_kana":"トットリケン","city_kana":"ヨナゴシ","town_kana":"サンボンマツ","prefecture":"鳥取県","city":"米子市","town":"三本松"},{"zip_code":"6830042","prefecture_kana":"トットリケン","city_kana":"ヨナゴシ","town_kana":"シオマチ","prefecture":"鳥取県","city":"米子市","town":"塩町"},{"zip_code":"6830253","prefecture_kana":"トットリケン","city_kana":"ヨナゴシ","town_kana":"シモアズマ","prefecture":"鳥取県","city":"米子市","town":"下安曇"},{"zip_code":"6893531","prefecture_kana":"トットリケン","city_kana":"ヨナゴシ","town_kana":"シモシイ","prefecture":"鳥取県","city":"米子市","town":"下新印"},{"zip_code":"6893511","prefecture_kana":"トットリケン","city_kana":"ヨナゴシ","town_kana":"シモノゴウ","prefecture":"鳥取県","city":"米子市","town":"下郷"},{"zip_code":"6830037","prefecture_kana":"トットリケン","city_kana":"ヨナゴシ","town_kana":"ショウワチョウ","prefecture":"鳥取県","city":"米子市","town":"昭和町"},{"zip_code":"6830801","prefecture_kana":"トットリケン","city_kana":"ヨナゴシ","town_kana":"シンカイ","prefecture":"鳥取県","city":"米子市","town":"新開"},{"zip_code":"6830043","prefecture_kana":"トットリケン","city_kana":"ヨナゴシ","town_kana":"スエヒロチョウ","prefecture":"鳥取県","city":"米子市","town":"末広町"},{"zip_code":"6830013","prefecture_kana":"トットリケン","city_kana":"ヨナゴシ","town_kana":"スワ","prefecture":"鳥取県","city":"米子市","town":"諏訪"},{"zip_code":"6893524","prefecture_kana":"トットリケン","city_kana":"ヨナゴシ","town_kana":"セキシュウフ","prefecture":"鳥取県","city":"米子市","town":"石州府"},{"zip_code":"6830044","prefecture_kana":"トットリケン","city_kana":"ヨナゴシ","town_kana":"ダイクマチ","prefecture":"鳥取県","city":"米子市","town":"大工町"},{"zip_code":"6893536","prefecture_kana":"トットリケン","city_kana":"ヨナゴシ","town_kana":"タカシマ","prefecture":"鳥取県","city":"米子市","town":"高島"},{"zip_code":"6830832","prefecture_kana":"トットリケン","city_kana":"ヨナゴシ","town_kana":"タテマチ","prefecture":"鳥取県","city":"米子市","town":"立町"},{"zip_code":"6830041","prefecture_kana":"トットリケン","city_kana":"ヨナゴシ","town_kana":"チャマチ","prefecture":"鳥取県","city":"米子市","town":"茶町"},{"zip_code":"6830831","prefecture_kana":"トットリケン","city_kana":"ヨナゴシ","town_kana":"テラマチ","prefecture":"鳥取県","city":"米子市","town":"寺町"},{"zip_code":"6830821","prefecture_kana":"トットリケン","city_kana":"ヨナゴシ","town_kana":"テンジンマチ","prefecture":"鳥取県","city":"米子市","town":"天神町"},{"zip_code":"6830064","prefecture_kana":"トットリケン","city_kana":"ヨナゴシ","town_kana":"ドウショウマチ","prefecture":"鳥取県","city":"米子市","town":"道笑町"},{"zip_code":"6830103","prefecture_kana":"トットリケン","city_kana":"ヨナゴシ","town_kana":"トミマスチョウ","prefecture":"鳥取県","city":"米子市","town":"富益町"},{"zip_code":"6830005","prefecture_kana":"トットリケン","city_kana":"ヨナゴシ","town_kana":"ナカシマ","prefecture":"鳥取県","city":"米子市","town":"中島"},{"zip_code":"6830822","prefecture_kana":"トットリケン","city_kana":"ヨナゴシ","town_kana":"ナカマチ","prefecture":"鳥取県","city":"米子市","town":"中町"},{"zip_code":"6830014","prefecture_kana":"トットリケン","city_kana":"ヨナゴシ","town_kana":"ナガエ","prefecture":"鳥取県","city":"米子市","town":"永江"},{"zip_code":"6830033","prefecture_kana":"トットリケン","city_kana":"ヨナゴシ","town_kana":"ナガスナチョウ","prefecture":"鳥取県","city":"米子市","town":"長砂町"},{"zip_code":"6830022","prefecture_kana":"トットリケン","city_kana":"ヨナゴシ","town_kana":"ナギラ","prefecture":"鳥取県","city":"米子市","town":"奈喜良"},{"zip_code":"6830835","prefecture_kana":"トットリケン","city_kana":"ヨナゴシ","town_kana":"ナダマチ","prefecture":"鳥取県","city":"米子市","town":"灘町"},{"zip_code":"6830026","prefecture_kana":"トットリケン","city_kana":"ヨナゴシ","town_kana":"ニイヤマ","prefecture":"鳥取県","city":"米子市","town":"新山"},{"zip_code":"6830811","prefecture_kana":"トットリケン","city_kana":"ヨナゴシ","town_kana":"ニシキチョウ","prefecture":"鳥取県","city":"米子市","town":"錦町"},{"zip_code":"6830816","prefecture_kana":"トットリケン","city_kana":"ヨナゴシ","town_kana":"ニシクラヨシマチ","prefecture":"鳥取県","city":"米子市","town":"西倉吉町"},{"zip_code":"6830826","prefecture_kana":"トットリケン","city_kana":"ヨナゴシ","town_kana":"ニシチョウ","prefecture":"鳥取県","city":"米子市","town":"西町"},{"zip_code":"6830805","prefecture_kana":"トットリケン","city_kana":"ヨナゴシ","town_kana":"ニシフクバラ","prefecture":"鳥取県","city":"米子市","town":"西福原"},{"zip_code":"6893541","prefecture_kana":"トットリケン","city_kana":"ヨナゴシ","town_kana":"ニホンギ","prefecture":"鳥取県","city":"米子市","town":"二本木"},{"zip_code":"6830052","prefecture_kana":"トットリケン","city_kana":"ヨナゴシ","town_kana":"バクロウマチ","prefecture":"鳥取県","city":"米子市","town":"博労町"},{"zip_code":"6830023","prefecture_kana":"トットリケン","city_kana":"ヨナゴシ","town_kana":"ハシモト","prefecture":"鳥取県","city":"米子市","town":"橋本"},{"zip_code":"6830845","prefecture_kana":"トットリケン","city_kana":"ヨナゴシ","town_kana":"ハタガサキ","prefecture":"鳥取県","city":"米子市","town":"旗ヶ崎"},{"zip_code":"6830836","prefecture_kana":"トットリケン","city_kana":"ヨナゴシ","town_kana":"ハナゾノチョウ","prefecture":"鳥取県","city":"米子市","town":"花園町"},{"zip_code":"6830815","prefecture_kana":"トットリケン","city_kana":"ヨナゴシ","town_kana":"ヒガシクラヨシマチ","prefecture":"鳥取県","city":"米子市","town":"東倉吉町"},{"zip_code":"6830067","prefecture_kana":"トットリケン","city_kana":"ヨナゴシ","town_kana":"ヒガシチョウ","prefecture":"鳥取県","city":"米子市","town":"東町"},{"zip_code":"6830802","prefecture_kana":"トットリケン","city_kana":"ヨナゴシ","town_kana":"ヒガシフクバラ","prefecture":"鳥取県","city":"米子市","town":"東福原"},{"zip_code":"6830031","prefecture_kana":"トットリケン","city_kana":"ヨナゴシ","town_kana":"ヒガシヤマチョウ","prefecture":"鳥取県","city":"米子市","town":"東山町"},{"zip_code":"6893535","prefecture_kana":"トットリケン","city_kana":"ヨナゴシ","town_kana":"ヒガシヤワタ","prefecture":"鳥取県","city":"米子市","town":"東八幡"},{"zip_code":"6830855","prefecture_kana":"トットリケン","city_kana":"ヨナゴシ","town_kana":"ヒコナシンデン","prefecture":"鳥取県","city":"米子市","town":"彦名新田"},{"zip_code":"6830854","prefecture_kana":"トットリケン","city_kana":"ヨナゴシ","town_kana":"ヒコナチョウ","prefecture":"鳥取県","city":"米子市","town":"彦名町"},{"zip_code":"6830803","prefecture_kana":"トットリケン","city_kana":"ヨナゴシ","town_kana":"ヒノデチョウ","prefecture":"鳥取県","city":"米子市","town":"日ノ出町"},{"zip_code":"6830066","prefecture_kana":"トットリケン","city_kana":"ヨナゴシ","town_kana":"ヒノマチ","prefecture":"鳥取県","city":"米子市","town":"日野町"},{"zip_code":"6830015","prefecture_kana":"トットリケン","city_kana":"ヨナゴシ","town_kana":"ヒバラ","prefecture":"鳥取県","city":"米子市","town":"日原"},{"zip_code":"6830011","prefecture_kana":"トットリケン","city_kana":"ヨナゴシ","town_kana":"フクイチ","prefecture":"鳥取県","city":"米子市","town":"福市"},{"zip_code":"6893523","prefecture_kana":"トットリケン","city_kana":"ヨナゴシ","town_kana":"フクマン","prefecture":"鳥取県","city":"米子市","town":"福万"},{"zip_code":"6830055","prefecture_kana":"トットリケン","city_kana":"ヨナゴシ","town_kana":"フジミチョウ","prefecture":"鳥取県","city":"米子市","town":"冨士見町"},{"zip_code":"6830025","prefecture_kana":"トットリケン","city_kana":"ヨナゴシ","town_kana":"フルイチ","prefecture":"鳥取県","city":"米子市","town":"古市"},{"zip_code":"6830254","prefecture_kana":"トットリケン","city_kana":"ヨナゴシ","town_kana":"ベッショ","prefecture":"鳥取県","city":"米子市","town":"別所"},{"zip_code":"6830063","prefecture_kana":"トットリケン","city_kana":"ヨナゴシ","town_kana":"ホツショウジマチ","prefecture":"鳥取県","city":"米子市","town":"法勝寺町"},{"zip_code":"6830065","prefecture_kana":"トットリケン","city_kana":"ヨナゴシ","town_kana":"マンノウチョウ","prefecture":"鳥取県","city":"米子市","town":"万能町"},{"zip_code":"6893534","prefecture_kana":"トットリケン","city_kana":"ヨナゴシ","town_kana":"ミズハマ","prefecture":"鳥取県","city":"米子市","town":"水浜"},{"zip_code":"6893516","prefecture_kana":"トットリケン","city_kana":"ヨナゴシ","town_kana":"ミノリチョウ","prefecture":"鳥取県","city":"米子市","town":"みのり町"},{"zip_code":"6830843","prefecture_kana":"トットリケン","city_kana":"ヨナゴシ","town_kana":"ミハタチョウ","prefecture":"鳥取県","city":"米子市","town":"三旗町"},{"zip_code":"6830034","prefecture_kana":"トットリケン","city_kana":"ヨナゴシ","town_kana":"ミヨシ","prefecture":"鳥取県","city":"米子市","town":"美吉"},{"zip_code":"6830017","prefecture_kana":"トットリケン","city_kana":"ヨナゴシ","town_kana":"ムナカタ","prefecture":"鳥取県","city":"米子市","town":"宗像"},{"zip_code":"6830053","prefecture_kana":"トットリケン","city_kana":"ヨナゴシ","town_kana":"メイジチョウ","prefecture":"鳥取県","city":"米子市","town":"明治町"},{"zip_code":"6830035","prefecture_kana":"トットリケン","city_kana":"ヨナゴシ","town_kana":"メグミチョウ","prefecture":"鳥取県","city":"米子市","town":"目久美町"},{"zip_code":"6830036","prefecture_kana":"トットリケン","city_kana":"ヨナゴシ","town_kana":"ヤヨイチョウ","prefecture":"鳥取県","city":"米子市","town":"弥生町"},{"zip_code":"6830012","prefecture_kana":"トットリケン","city_kana":"ヨナゴシ","town_kana":"ヤワタ","prefecture":"鳥取県","city":"米子市","town":"八幡"},{"zip_code":"6830032","prefecture_kana":"トットリケン","city_kana":"ヨナゴシ","town_kana":"ヨウデンチョウ","prefecture":"鳥取県","city":"米子市","town":"陽田町"},{"zip_code":"6893545","prefecture_kana":"トットリケン","city_kana":"ヨナゴシ","town_kana":"ヨシオカ","prefecture":"鳥取県","city":"米子市","town":"吉岡"},{"zip_code":"6830024","prefecture_kana":"トットリケン","city_kana":"ヨナゴシ","town_kana":"ヨシタニ","prefecture":"鳥取県","city":"米子市","town":"吉谷"},{"zip_code":"6830105","prefecture_kana":"トットリケン","city_kana":"ヨナゴシ","town_kana":"ヨシヅ","prefecture":"鳥取県","city":"米子市","town":"葭津"},{"zip_code":"6830061","prefecture_kana":"トットリケン","city_kana":"ヨナゴシ","town_kana":"ヨッカイチマチ","prefecture":"鳥取県","city":"米子市","town":"四日市町"},{"zip_code":"6893412","prefecture_kana":"トットリケン","city_kana":"ヨナゴシ","town_kana":"ヨドエチョウイナヨシ","prefecture":"鳥取県","city":"米子市","town":"淀江町稲吉"},{"zip_code":"6893401","prefecture_kana":"トットリケン","city_kana":"ヨナゴシ","town_kana":"ヨドエチョウイマヅ","prefecture":"鳥取県","city":"米子市","town":"淀江町今津"},{"zip_code":"6893423","prefecture_kana":"トットリケン","city_kana":"ヨナゴシ","town_kana":"ヨドエチョウコナミ","prefecture":"鳥取県","city":"米子市","town":"淀江町小波"},{"zip_code":"6893425","prefecture_kana":"トットリケン","city_kana":"ヨナゴシ","town_kana":"ヨドエチョウサダ","prefecture":"鳥取県","city":"米子市","town":"淀江町佐陀"},{"zip_code":"6893418","prefecture_kana":"トットリケン","city_kana":"ヨナゴシ","town_kana":"ヨドエチョウタカイダニ","prefecture":"鳥取県","city":"米子市","town":"淀江町高井谷"},{"zip_code":"6893415","prefecture_kana":"トットリケン","city_kana":"ヨナゴシ","town_kana":"ヨドエチョウトミシゲ","prefecture":"鳥取県","city":"米子市","town":"淀江町富繁"},{"zip_code":"6893417","prefecture_kana":"トットリケン","city_kana":"ヨナゴシ","town_kana":"ヨドエチョウナカニシオ","prefecture":"鳥取県","city":"米子市","town":"淀江町中西尾"},{"zip_code":"6893424","prefecture_kana":"トットリケン","city_kana":"ヨナゴシ","town_kana":"ヨドエチョウナカマ","prefecture":"鳥取県","city":"米子市","town":"淀江町中間"},{"zip_code":"6893414","prefecture_kana":"トットリケン","city_kana":"ヨナゴシ","town_kana":"ヨドエチョウニシオハラ","prefecture":"鳥取県","city":"米子市","town":"淀江町西尾原"},{"zip_code":"6893403","prefecture_kana":"トットリケン","city_kana":"ヨナゴシ","town_kana":"ヨドエチョウニシバラ","prefecture":"鳥取県","city":"米子市","town":"淀江町西原"},{"zip_code":"6893422","prefecture_kana":"トットリケン","city_kana":"ヨナゴシ","town_kana":"ヨドエチョウヒラオカ","prefecture":"鳥取県","city":"米子市","town":"淀江町平岡"},{"zip_code":"6893416","prefecture_kana":"トットリケン","city_kana":"ヨナゴシ","town_kana":"ヨドエチョウフクイ","prefecture":"鳥取県","city":"米子市","town":"淀江町福井"},{"zip_code":"6893411","prefecture_kana":"トットリケン","city_kana":"ヨナゴシ","town_kana":"ヨドエチョウフクオカ","prefecture":"鳥取県","city":"米子市","town":"淀江町福岡"},{"zip_code":"6893421","prefecture_kana":"トットリケン","city_kana":"ヨナゴシ","town_kana":"ヨドエチョウフクヨリ","prefecture":"鳥取県","city":"米子市","town":"淀江町福頼"},{"zip_code":"6893413","prefecture_kana":"トットリケン","city_kana":"ヨナゴシ","town_kana":"ヨドエチョウホングウ","prefecture":"鳥取県","city":"米子市","town":"淀江町本宮"},{"zip_code":"6893402","prefecture_kana":"トットリケン","city_kana":"ヨナゴシ","town_kana":"ヨドエチョウヨドエ","prefecture":"鳥取県","city":"米子市","town":"淀江町淀江"},{"zip_code":"6830804","prefecture_kana":"トットリケン","city_kana":"ヨナゴシ","town_kana":"ヨネハラ","prefecture":"鳥取県","city":"米子市","town":"米原"},{"zip_code":"6830851","prefecture_kana":"トットリケン","city_kana":"ヨナゴシ","town_kana":"ヨミチョウ","prefecture":"鳥取県","city":"米子市","town":"夜見町"},{"zip_code":"6893547","prefecture_kana":"トットリケン","city_kana":"ヨナゴシ","town_kana":"リュウツウチョウ","prefecture":"鳥取県","city":"米子市","town":"流通町"},{"zip_code":"6830853","prefecture_kana":"トットリケン","city_kana":"ヨナゴシ","town_kana":"リョウミツヤナギ","prefecture":"鳥取県","city":"米子市","town":"両三柳"},{"zip_code":"6830102","prefecture_kana":"トットリケン","city_kana":"ヨナゴシ","town_kana":"ワダチョウ","prefecture":"鳥取県","city":"米子市","town":"和田町"},{"zip_code":"6820000","prefecture_kana":"トットリケン","city_kana":"クラヨシシ","town_kana":"イカニケイサイガナイバアイ","prefecture":"鳥取県","city":"倉吉市","town":"以下に掲載がない場合"},{"zip_code":"6820822","prefecture_kana":"トットリケン","city_kana":"クラヨシシ","town_kana":"アオイマチ","prefecture":"鳥取県","city":"倉吉市","town":"葵町"},{"zip_code":"6820021","prefecture_kana":"トットリケン","city_kana":"クラヨシシ","town_kana":"アゲイ","prefecture":"鳥取県","city":"倉吉市","town":"上井"},{"zip_code":"6820022","prefecture_kana":"トットリケン","city_kana":"クラヨシシ","town_kana":"アゲイチョウ","prefecture":"鳥取県","city":"倉吉市","town":"上井町"},{"zip_code":"6820871","prefecture_kana":"トットリケン","city_kana":"クラヨシシ","town_kana":"アサヒダチョウ","prefecture":"鳥取県","city":"倉吉市","town":"旭田町"},{"zip_code":"6820001","prefecture_kana":"トットリケン","city_kana":"クラヨシシ","town_kana":"アナクボ","prefecture":"鳥取県","city":"倉吉市","town":"穴窪"},{"zip_code":"6820901","prefecture_kana":"トットリケン","city_kana":"クラヨシシ","town_kana":"アナザワ","prefecture":"鳥取県","city":"倉吉市","town":"穴沢"},{"zip_code":"6820024","prefecture_kana":"トットリケン","city_kana":"クラヨシシ","town_kana":"イギ","prefecture":"鳥取県","city":"倉吉市","town":"伊木"},{"zip_code":"6820855","prefecture_kana":"トットリケン","city_kana":"クラヨシシ","town_kana":"イクタ","prefecture":"鳥取県","city":"倉吉市","town":"生田"},{"zip_code":"6820933","prefecture_kana":"トットリケン","city_kana":"クラヨシシ","town_kana":"イシヅカ","prefecture":"鳥取県","city":"倉吉市","town":"石塚"},{"zip_code":"6820006","prefecture_kana":"トットリケン","city_kana":"クラヨシシ","town_kana":"イデバタ","prefecture":"鳥取県","city":"倉吉市","town":"井手畑"},{"zip_code":"6820641","prefecture_kana":"トットリケン","city_kana":"クラヨシシ","town_kana":"イマザイケ","prefecture":"鳥取県","city":"倉吉市","town":"今在家"},{"zip_code":"6820801","prefecture_kana":"トットリケン","city_kana":"クラヨシシ","town_kana":"イワキ","prefecture":"鳥取県","city":"倉吉市","town":"巌城"},{"zip_code":"6820842","prefecture_kana":"トットリケン","city_kana":"クラヨシシ","town_kana":"イワクラ","prefecture":"鳥取県","city":"倉吉市","town":"岩倉"},{"zip_code":"6820821","prefecture_kana":"トットリケン","city_kana":"クラヨシシ","town_kana":"ウオマチ","prefecture":"鳥取県","city":"倉吉市","town":"魚町"},{"zip_code":"6820811","prefecture_kana":"トットリケン","city_kana":"クラヨシシ","town_kana":"ウワナダチョウ","prefecture":"鳥取県","city":"倉吉市","town":"上灘町"},{"zip_code":"6820865","prefecture_kana":"トットリケン","city_kana":"クラヨシシ","town_kana":"エッチュウマチ","prefecture":"鳥取県","city":"倉吉市","town":"越中町"},{"zip_code":"6820813","prefecture_kana":"トットリケン","city_kana":"クラヨシシ","town_kana":"エンダニチョウ","prefecture":"鳥取県","city":"倉吉市","town":"円谷町"},{"zip_code":"6820623","prefecture_kana":"トットリケン","city_kana":"クラヨシシ","town_kana":"オオカチ","prefecture":"鳥取県","city":"倉吉市","town":"大河内"},{"zip_code":"6820947","prefecture_kana":"トットリケン","city_kana":"クラヨシシ","town_kana":"オオサワ","prefecture":"鳥取県","city":"倉吉市","town":"大沢"},{"zip_code":"6820632","prefecture_kana":"トットリケン","city_kana":"クラヨシシ","town_kana":"オオタチ","prefecture":"鳥取県","city":"倉吉市","town":"大立"},{"zip_code":"6820941","prefecture_kana":"トットリケン","city_kana":"クラヨシシ","town_kana":"オオタニ","prefecture":"鳥取県","city":"倉吉市","town":"大谷"},{"zip_code":"6820948","prefecture_kana":"トットリケン","city_kana":"クラヨシシ","town_kana":"オオタニチャヤ","prefecture":"鳥取県","city":"倉吉市","town":"大谷茶屋"},{"zip_code":"6820011","prefecture_kana":"トットリケン","city_kana":"クラヨシシ","town_kana":"オオツカ","prefecture":"鳥取県","city":"倉吉市","town":"大塚"},{"zip_code":"6820042","prefecture_kana":"トットリケン","city_kana":"クラヨシシ","town_kana":"オオヒラチョウ","prefecture":"鳥取県","city":"倉吉市","town":"大平町"},{"zip_code":"6820841","prefecture_kana":"トットリケン","city_kana":"クラヨシシ","town_kana":"オオミヤ","prefecture":"鳥取県","city":"倉吉市","town":"大宮"},{"zip_code":"6820645","prefecture_kana":"トットリケン","city_kana":"クラヨシシ","town_kana":"オカ","prefecture":"鳥取県","city":"倉吉市","town":"岡"},{"zip_code":"6820931","prefecture_kana":"トットリケン","city_kana":"クラヨシシ","town_kana":"オガモ","prefecture":"鳥取県","city":"倉吉市","town":"小鴨"},{"zip_code":"6820607","prefecture_kana":"トットリケン","city_kana":"クラヨシシ","town_kana":"オダ","prefecture":"鳥取県","city":"倉吉市","town":"尾田"},{"zip_code":"6820034","prefecture_kana":"トットリケン","city_kana":"クラヨシシ","town_kana":"オハラ","prefecture":"鳥取県","city":"倉吉市","town":"大原"},{"zip_code":"6820904","prefecture_kana":"トットリケン","city_kana":"クラヨシシ","town_kana":"オワラ","prefecture":"鳥取県","city":"倉吉市","town":"尾原"},{"zip_code":"6820014","prefecture_kana":"トットリケン","city_kana":"クラヨシシ","town_kana":"カイダヒガシマチ","prefecture":"鳥取県","city":"倉吉市","town":"海田東町"},{"zip_code":"6820016","prefecture_kana":"トットリケン","city_kana":"クラヨシシ","town_kana":"カイダニシマチ","prefecture":"鳥取県","city":"倉吉市","town":"海田西町"},{"zip_code":"6820015","prefecture_kana":"トットリケン","city_kana":"クラヨシシ","town_kana":"カイダミナミマチ","prefecture":"鳥取県","city":"倉吉市","town":"海田南町"},{"zip_code":"6820864","prefecture_kana":"トットリケン","city_kana":"クラヨシシ","town_kana":"カジマチ","prefecture":"鳥取県","city":"倉吉市","town":"鍛冶町"},{"zip_code":"6820902","prefecture_kana":"トットリケン","city_kana":"クラヨシシ","town_kana":"カズワ","prefecture":"鳥取県","city":"倉吉市","town":"上神"},{"zip_code":"6820621","prefecture_kana":"トットリケン","city_kana":"クラヨシシ","town_kana":"カセダニ","prefecture":"鳥取県","city":"倉吉市","town":"忰谷"},{"zip_code":"6820875","prefecture_kana":"トットリケン","city_kana":"クラヨシシ","town_kana":"カナモリチョウ","prefecture":"鳥取県","city":"倉吉市","town":"金森町"},{"zip_code":"6820041","prefecture_kana":"トットリケン","city_kana":"クラヨシシ","town_kana":"カホクチョウ","prefecture":"鳥取県","city":"倉吉市","town":"河北町"},{"zip_code":"6820631","prefecture_kana":"トットリケン","city_kana":"クラヨシシ","town_kana":"カミオオタチ","prefecture":"鳥取県","city":"倉吉市","town":"上大立"},{"zip_code":"6820642","prefecture_kana":"トットリケン","city_kana":"クラヨシシ","town_kana":"カミフクダ","prefecture":"鳥取県","city":"倉吉市","town":"上福田"},{"zip_code":"6820934","prefecture_kana":"トットリケン","city_kana":"クラヨシシ","town_kana":"カミフルカワ","prefecture":"鳥取県","city":"倉吉市","town":"上古川"},{"zip_code":"6820032","prefecture_kana":"トットリケン","city_kana":"クラヨシシ","town_kana":"カミヨド","prefecture":"鳥取県","city":"倉吉市","town":"上余戸"},{"zip_code":"6820602","prefecture_kana":"トットリケン","city_kana":"クラヨシシ","town_kana":"カミヨナヅミ","prefecture":"鳥取県","city":"倉吉市","town":"上米積"},{"zip_code":"6820923","prefecture_kana":"トットリケン","city_kana":"クラヨシシ","town_kana":"カモガワチョウ","prefecture":"鳥取県","city":"倉吉市","town":"鴨川町"},{"zip_code":"6820846","prefecture_kana":"トットリケン","city_kana":"クラヨシシ","town_kana":"カモゴウチ","prefecture":"鳥取県","city":"倉吉市","town":"鴨河内"},{"zip_code":"6820633","prefecture_kana":"トットリケン","city_kana":"クラヨシシ","town_kana":"カワクルミ","prefecture":"鳥取県","city":"倉吉市","town":"河来見"},{"zip_code":"6820924","prefecture_kana":"トットリケン","city_kana":"クラヨシシ","town_kana":"カワラマチ","prefecture":"鳥取県","city":"倉吉市","town":"河原町"},{"zip_code":"6820857","prefecture_kana":"トットリケン","city_kana":"クラヨシシ","town_kana":"キタノ","prefecture":"鳥取県","city":"倉吉市","town":"北野"},{"zip_code":"6820903","prefecture_kana":"トットリケン","city_kana":"クラヨシシ","town_kana":"キタモ","prefecture":"鳥取県","city":"倉吉市","town":"北面"},{"zip_code":"6820932","prefecture_kana":"トットリケン","city_kana":"クラヨシシ","town_kana":"クラウチ","prefecture":"鳥取県","city":"倉吉市","town":"蔵内"},{"zip_code":"6820033","prefecture_kana":"トットリケン","city_kana":"クラヨシシ","town_kana":"クリオ","prefecture":"鳥取県","city":"倉吉市","town":"栗尾"},{"zip_code":"6820945","prefecture_kana":"トットリケン","city_kana":"クラヨシシ","town_kana":"クロミ","prefecture":"鳥取県","city":"倉吉市","town":"黒見"},{"zip_code":"6820942","prefecture_kana":"トットリケン","city_kana":"クラヨシシ","town_kana":"コウ","prefecture":"鳥取県","city":"倉吉市","town":"国府"},{"zip_code":"6820035","prefecture_kana":"トットリケン","city_kana":"クラヨシシ","town_kana":"コウエイチョウ","prefecture":"鳥取県","city":"倉吉市","town":"広栄町"},{"zip_code":"6820883","prefecture_kana":"トットリケン","city_kana":"クラヨシシ","town_kana":"コウジンチョウ","prefecture":"鳥取県","city":"倉吉市","town":"荒神町"},{"zip_code":"6820943","prefecture_kana":"トットリケン","city_kana":"クラヨシシ","town_kana":"コクブンジ","prefecture":"鳥取県","city":"倉吉市","town":"国分寺"},{"zip_code":"6820867","prefecture_kana":"トットリケン","city_kana":"クラヨシシ","town_kana":"コシドノチョウ","prefecture":"鳥取県","city":"倉吉市","town":"越殿町"},{"zip_code":"6820044","prefecture_kana":"トットリケン","city_kana":"クラヨシシ","town_kana":"コダ","prefecture":"鳥取県","city":"倉吉市","town":"小田"},{"zip_code":"6820045","prefecture_kana":"トットリケン","city_kana":"クラヨシシ","town_kana":"コダヒガシ","prefecture":"鳥取県","city":"倉吉市","town":"小田東"},{"zip_code":"6820807","prefecture_kana":"トットリケン","city_kana":"クラヨシシ","town_kana":"サイワイマチ","prefecture":"鳥取県","city":"倉吉市","town":"幸町"},{"zip_code":"6820885","prefecture_kana":"トットリケン","city_kana":"クラヨシシ","town_kana":"サカエマチ","prefecture":"鳥取県","city":"倉吉市","town":"堺町"},{"zip_code":"6820634","prefecture_kana":"トットリケン","city_kana":"クラヨシシ","town_kana":"サクラ","prefecture":"鳥取県","city":"倉吉市","town":"桜"},{"zip_code":"6820606","prefecture_kana":"トットリケン","city_kana":"クラヨシシ","town_kana":"サワダニ","prefecture":"鳥取県","city":"倉吉市","town":"沢谷"},{"zip_code":"6820613","prefecture_kana":"トットリケン","city_kana":"クラヨシシ","town_kana":"シツ","prefecture":"鳥取県","city":"倉吉市","town":"志津"},{"zip_code":"6820837","prefecture_kana":"トットリケン","city_kana":"クラヨシシ","town_kana":"シモオオエ","prefecture":"鳥取県","city":"倉吉市","town":"下大江"},{"zip_code":"6820812","prefecture_kana":"トットリケン","city_kana":"クラヨシシ","town_kana":"シモタナカチョウ","prefecture":"鳥取県","city":"倉吉市","town":"下田中町"},{"zip_code":"6820643","prefecture_kana":"トットリケン","city_kana":"クラヨシシ","town_kana":"シモフクダ","prefecture":"鳥取県","city":"倉吉市","town":"下福田"},{"zip_code":"6820005","prefecture_kana":"トットリケン","city_kana":"クラヨシシ","town_kana":"シモフルカワ","prefecture":"鳥取県","city":"倉吉市","town":"下古川"},{"zip_code":"6820031","prefecture_kana":"トットリケン","city_kana":"クラヨシシ","town_kana":"シモヨド","prefecture":"鳥取県","city":"倉吉市","town":"下余戸"},{"zip_code":"6820601","prefecture_kana":"トットリケン","city_kana":"クラヨシシ","town_kana":"シモヨナヅミ","prefecture":"鳥取県","city":"倉吉市","town":"下米積"},{"zip_code":"6820925","prefecture_kana":"トットリケン","city_kana":"クラヨシシ","town_kana":"シュウキ","prefecture":"鳥取県","city":"倉吉市","town":"秋喜"},{"zip_code":"6820926","prefecture_kana":"トットリケン","city_kana":"クラヨシシ","town_kana":"シュウキニシマチ","prefecture":"鳥取県","city":"倉吉市","town":"秋喜西町"},{"zip_code":"6820806","prefecture_kana":"トットリケン","city_kana":"クラヨシシ","town_kana":"ショウワマチ","prefecture":"鳥取県","city":"倉吉市","town":"昭和町"},{"zip_code":"6820003","prefecture_kana":"トットリケン","city_kana":"クラヨシシ","town_kana":"シンデン","prefecture":"鳥取県","city":"倉吉市","town":"新田"},{"zip_code":"6820861","prefecture_kana":"トットリケン","city_kana":"クラヨシシ","town_kana":"シンマチ","prefecture":"鳥取県","city":"倉吉市","town":"新町"},{"zip_code":"6820815","prefecture_kana":"トットリケン","city_kana":"クラヨシシ","town_kana":"シンヨウチョウ","prefecture":"鳥取県","city":"倉吉市","town":"新陽町"},{"zip_code":"6820952","prefecture_kana":"トットリケン","city_kana":"クラヨシシ","town_kana":"スキ","prefecture":"鳥取県","city":"倉吉市","town":"鋤"},{"zip_code":"6820611","prefecture_kana":"トットリケン","city_kana":"クラヨシシ","town_kana":"スギノ","prefecture":"鳥取県","city":"倉吉市","town":"杉野"},{"zip_code":"6820843","prefecture_kana":"トットリケン","city_kana":"クラヨシシ","town_kana":"スゲガハラ","prefecture":"鳥取県","city":"倉吉市","town":"菅原"},{"zip_code":"6820817","prefecture_kana":"トットリケン","city_kana":"クラヨシシ","town_kana":"スミヨシチョウ","prefecture":"鳥取県","city":"倉吉市","town":"住吉町"},{"zip_code":"6820012","prefecture_kana":"トットリケン","city_kana":"クラヨシシ","town_kana":"セイダニ","prefecture":"鳥取県","city":"倉吉市","town":"清谷"},{"zip_code":"6820017","prefecture_kana":"トットリケン","city_kana":"クラヨシシ","town_kana":"セイダニチョウ","prefecture":"鳥取県","city":"倉吉市","town":"清谷町"},{"zip_code":"6820401","prefecture_kana":"トットリケン","city_kana":"クラヨシシ","town_kana":"セキガネチョウアブ","prefecture":"鳥取県","city":"倉吉市","town":"関金町安歩"},{"zip_code":"6820421","prefecture_kana":"トットリケン","city_kana":"クラヨシシ","town_kana":"セキガネチョウイマニシ","prefecture":"鳥取県","city":"倉吉市","town":"関金町今西"},{"zip_code":"6820402","prefecture_kana":"トットリケン","city_kana":"クラヨシシ","town_kana":"セキガネチョウオオドリイ","prefecture":"鳥取県","city":"倉吉市","town":"関金町大鳥居"},{"zip_code":"6820433","prefecture_kana":"トットリケン","city_kana":"クラヨシシ","town_kana":"セキガネチョウコイズミ","prefecture":"鳥取県","city":"倉吉市","town":"関金町小泉"},{"zip_code":"6820413","prefecture_kana":"トットリケン","city_kana":"クラヨシシ","town_kana":"セキガネチョウコオゲ","prefecture":"鳥取県","city":"倉吉市","town":"関金町郡家"},{"zip_code":"6820411","prefecture_kana":"トットリケン","city_kana":"クラヨシシ","town_kana":"セキガネチョウセキガネシュク","prefecture":"鳥取県","city":"倉吉市","town":"関金町関金宿"},{"zip_code":"6820404","prefecture_kana":"トットリケン","city_kana":"クラヨシシ","town_kana":"セキガネチョウタイキュウジ","prefecture":"鳥取県","city":"倉吉市","town":"関金町泰久寺"},{"zip_code":"6820434","prefecture_kana":"トットリケン","city_kana":"クラヨシシ","town_kana":"セキガネチョウノゾエ","prefecture":"鳥取県","city":"倉吉市","town":"関金町野添"},{"zip_code":"6820432","prefecture_kana":"トットリケン","city_kana":"クラヨシシ","town_kana":"セキガネチョウフクハラ","prefecture":"鳥取県","city":"倉吉市","town":"関金町福原"},{"zip_code":"6820422","prefecture_kana":"トットリケン","city_kana":"クラヨシシ","town_kana":"セキガネチョウホリ","prefecture":"鳥取県","city":"倉吉市","town":"関金町堀"},{"zip_code":"6820403","prefecture_kana":"トットリケン","city_kana":"クラヨシシ","town_kana":"セキガネチョウマツガワラ","prefecture":"鳥取県","city":"倉吉市","town":"関金町松河原"},{"zip_code":"6820423","prefecture_kana":"トットリケン","city_kana":"クラヨシシ","town_kana":"セキガネチョウミョウコウ","prefecture":"鳥取県","city":"倉吉市","town":"関金町明高"},{"zip_code":"6820412","prefecture_kana":"トットリケン","city_kana":"クラヨシシ","town_kana":"セキガネチョウヤマグチ","prefecture":"鳥取県","city":"倉吉市","town":"関金町山口"},{"zip_code":"6820431","prefecture_kana":"トットリケン","city_kana":"クラヨシシ","town_kana":"セキガネチョウヨネドメ","prefecture":"鳥取県","city":"倉吉市","town":"関金町米富"},{"zip_code":"6820863","prefecture_kana":"トットリケン","city_kana":"クラヨシシ","town_kana":"セサキマチ","prefecture":"鳥取県","city":"倉吉市","town":"瀬崎町"},{"zip_code":"6820886","prefecture_kana":"トットリケン","city_kana":"クラヨシシ","town_kana":"タイショウマチ","prefecture":"鳥取県","city":"倉吉市","town":"大正町"},{"zip_code":"6820816","prefecture_kana":"トットリケン","city_kana":"クラヨシシ","town_kana":"ダキョウジチョウ","prefecture":"鳥取県","city":"倉吉市","town":"駄経寺町"},{"zip_code":"6820626","prefecture_kana":"トットリケン","city_kana":"クラヨシシ","town_kana":"タテミ","prefecture":"鳥取県","city":"倉吉市","town":"立見"},{"zip_code":"6820954","prefecture_kana":"トットリケン","city_kana":"クラヨシシ","town_kana":"タニ","prefecture":"鳥取県","city":"倉吉市","town":"谷"},{"zip_code":"6820951","prefecture_kana":"トットリケン","city_kana":"クラヨシシ","town_kana":"ツワラ","prefecture":"鳥取県","city":"倉吉市","town":"津原"},{"zip_code":"6820911","prefecture_kana":"トットリケン","city_kana":"クラヨシシ","town_kana":"テラダニ","prefecture":"鳥取県","city":"倉吉市","town":"寺谷"},{"zip_code":"6820043","prefecture_kana":"トットリケン","city_kana":"クラヨシシ","town_kana":"テンジンチョウ","prefecture":"鳥取県","city":"倉吉市","town":"天神町"},{"zip_code":"6820884","prefecture_kana":"トットリケン","city_kana":"クラヨシシ","town_kana":"トギヤマチ","prefecture":"鳥取県","city":"倉吉市","town":"研屋町"},{"zip_code":"6820832","prefecture_kana":"トットリケン","city_kana":"クラヨシシ","town_kana":"トドミ","prefecture":"鳥取県","city":"倉吉市","town":"富海"},{"zip_code":"6820002","prefecture_kana":"トットリケン","city_kana":"クラヨシシ","town_kana":"ナカエ","prefecture":"鳥取県","city":"倉吉市","town":"中江"},{"zip_code":"6820856","prefecture_kana":"トットリケン","city_kana":"クラヨシシ","town_kana":"ナカガワラ","prefecture":"鳥取県","city":"倉吉市","town":"中河原"},{"zip_code":"6820612","prefecture_kana":"トットリケン","city_kana":"クラヨシシ","town_kana":"ナカノ","prefecture":"鳥取県","city":"倉吉市","town":"中野"},{"zip_code":"6820824","prefecture_kana":"トットリケン","city_kana":"クラヨシシ","town_kana":"ナカノチョウ","prefecture":"鳥取県","city":"倉吉市","town":"仲ノ町"},{"zip_code":"6820836","prefecture_kana":"トットリケン","city_kana":"クラヨシシ","town_kana":"ナガサカシンマチ","prefecture":"鳥取県","city":"倉吉市","town":"長坂新町"},{"zip_code":"6820835","prefecture_kana":"トットリケン","city_kana":"クラヨシシ","town_kana":"ナガサカチョウ","prefecture":"鳥取県","city":"倉吉市","town":"長坂町"},{"zip_code":"6820622","prefecture_kana":"トットリケン","city_kana":"クラヨシシ","town_kana":"ナガタニ","prefecture":"鳥取県","city":"倉吉市","town":"長谷"},{"zip_code":"6820874","prefecture_kana":"トットリケン","city_kana":"クラヨシシ","town_kana":"ニシイワクラマチ","prefecture":"鳥取県","city":"倉吉市","town":"西岩倉町"},{"zip_code":"6820851","prefecture_kana":"トットリケン","city_kana":"クラヨシシ","town_kana":"ニシクラヨシチョウ","prefecture":"鳥取県","city":"倉吉市","town":"西倉吉町"},{"zip_code":"6820825","prefecture_kana":"トットリケン","city_kana":"クラヨシシ","town_kana":"ニシナカマチ","prefecture":"鳥取県","city":"倉吉市","town":"西仲町"},{"zip_code":"6820921","prefecture_kana":"トットリケン","city_kana":"クラヨシシ","town_kana":"ニシフクモリチョウ","prefecture":"鳥取県","city":"倉吉市","town":"西福守町"},{"zip_code":"6820862","prefecture_kana":"トットリケン","city_kana":"クラヨシシ","town_kana":"ニシマチ","prefecture":"鳥取県","city":"倉吉市","town":"西町"},{"zip_code":"6820036","prefecture_kana":"トットリケン","city_kana":"クラヨシシ","town_kana":"ニジガオカチョウ","prefecture":"鳥取県","city":"倉吉市","town":"虹ケ丘町"},{"zip_code":"6820831","prefecture_kana":"トットリケン","city_kana":"クラヨシシ","town_kana":"ハチマンチョウ","prefecture":"鳥取県","city":"倉吉市","town":"八幡町"},{"zip_code":"6820635","prefecture_kana":"トットリケン","city_kana":"クラヨシシ","town_kana":"ハットリ","prefecture":"鳥取県","city":"倉吉市","town":"服部"},{"zip_code":"6820953","prefecture_kana":"トットリケン","city_kana":"クラヨシシ","town_kana":"ハンザカ","prefecture":"鳥取県","city":"倉吉市","town":"半坂"},{"zip_code":"6820914","prefecture_kana":"トットリケン","city_kana":"クラヨシシ","town_kana":"ババチョウ","prefecture":"鳥取県","city":"倉吉市","town":"馬場町"},{"zip_code":"6820624","prefecture_kana":"トットリケン","city_kana":"クラヨシシ","town_kana":"ハンニャ","prefecture":"鳥取県","city":"倉吉市","town":"般若"},{"zip_code":"6820802","prefecture_kana":"トットリケン","city_kana":"クラヨシシ","town_kana":"ヒガシイワキチョウ","prefecture":"鳥取県","city":"倉吉市","town":"東巌城町"},{"zip_code":"6820873","prefecture_kana":"トットリケン","city_kana":"クラヨシシ","town_kana":"ヒガシイワクラマチ","prefecture":"鳥取県","city":"倉吉市","town":"東岩倉町"},{"zip_code":"6820834","prefecture_kana":"トットリケン","city_kana":"クラヨシシ","town_kana":"ヒガシガモ","prefecture":"鳥取県","city":"倉吉市","town":"東鴨"},{"zip_code":"6820833","prefecture_kana":"トットリケン","city_kana":"クラヨシシ","town_kana":"ヒガシガモシンマチ","prefecture":"鳥取県","city":"倉吉市","town":"東鴨新町"},{"zip_code":"6820804","prefecture_kana":"トットリケン","city_kana":"クラヨシシ","town_kana":"ヒガシショウワマチ","prefecture":"鳥取県","city":"倉吉市","town":"東昭和町"},{"zip_code":"6820826","prefecture_kana":"トットリケン","city_kana":"クラヨシシ","town_kana":"ヒガシナカマチ","prefecture":"鳥取県","city":"倉吉市","town":"東仲町"},{"zip_code":"6820823","prefecture_kana":"トットリケン","city_kana":"クラヨシシ","town_kana":"ヒガシマチ","prefecture":"鳥取県","city":"倉吉市","town":"東町"},{"zip_code":"6820844","prefecture_kana":"トットリケン","city_kana":"クラヨシシ","town_kana":"ヒロセ","prefecture":"鳥取県","city":"倉吉市","town":"広瀬"},{"zip_code":"6820866","prefecture_kana":"トットリケン","city_kana":"クラヨシシ","town_kana":"ヒロセマチ","prefecture":"鳥取県","city":"倉吉市","town":"広瀬町"},{"zip_code":"6820644","prefecture_kana":"トットリケン","city_kana":"クラヨシシ","town_kana":"フクヅミ","prefecture":"鳥取県","city":"倉吉市","town":"福積"},{"zip_code":"6820605","prefecture_kana":"トットリケン","city_kana":"クラヨシシ","town_kana":"フクドミ","prefecture":"鳥取県","city":"倉吉市","town":"福富"},{"zip_code":"6820013","prefecture_kana":"トットリケン","city_kana":"クラヨシシ","town_kana":"フクバ","prefecture":"鳥取県","city":"倉吉市","town":"福庭"},{"zip_code":"6820018","prefecture_kana":"トットリケン","city_kana":"クラヨシシ","town_kana":"フクバチョウ","prefecture":"鳥取県","city":"倉吉市","town":"福庭町"},{"zip_code":"6820944","prefecture_kana":"トットリケン","city_kana":"クラヨシシ","town_kana":"フクミツ","prefecture":"鳥取県","city":"倉吉市","town":"福光"},{"zip_code":"6820604","prefecture_kana":"トットリケン","city_kana":"クラヨシシ","town_kana":"フクモト","prefecture":"鳥取県","city":"倉吉市","town":"福本"},{"zip_code":"6820922","prefecture_kana":"トットリケン","city_kana":"クラヨシシ","town_kana":"フクモリチョウ","prefecture":"鳥取県","city":"倉吉市","town":"福守町"},{"zip_code":"6820847","prefecture_kana":"トットリケン","city_kana":"クラヨシシ","town_kana":"フクヤマ","prefecture":"鳥取県","city":"倉吉市","town":"福山"},{"zip_code":"6820872","prefecture_kana":"トットリケン","city_kana":"クラヨシシ","town_kana":"フクヨシチョウ","prefecture":"鳥取県","city":"倉吉市","town":"福吉町"},{"zip_code":"6820915","prefecture_kana":"トットリケン","city_kana":"クラヨシシ","town_kana":"フニオカ","prefecture":"鳥取県","city":"倉吉市","town":"不入岡"},{"zip_code":"6820004","prefecture_kana":"トットリケン","city_kana":"クラヨシシ","town_kana":"フルカワサワ","prefecture":"鳥取県","city":"倉吉市","town":"古川沢"},{"zip_code":"6820905","prefecture_kana":"トットリケン","city_kana":"クラヨシシ","town_kana":"ベッシヨ","prefecture":"鳥取県","city":"倉吉市","town":"別所"},{"zip_code":"6820852","prefecture_kana":"トットリケン","city_kana":"クラヨシシ","town_kana":"マルヤマチョウ","prefecture":"鳥取県","city":"倉吉市","town":"丸山町"},{"zip_code":"6820603","prefecture_kana":"トットリケン","city_kana":"クラヨシシ","town_kana":"ミエ","prefecture":"鳥取県","city":"倉吉市","town":"三江"},{"zip_code":"6820854","prefecture_kana":"トットリケン","city_kana":"クラヨシシ","town_kana":"ミドリマチ","prefecture":"鳥取県","city":"倉吉市","town":"みどり町"},{"zip_code":"6820882","prefecture_kana":"トットリケン","city_kana":"クラヨシシ","town_kana":"ミナトマチ","prefecture":"鳥取県","city":"倉吉市","town":"湊町"},{"zip_code":"6820805","prefecture_kana":"トットリケン","city_kana":"クラヨシシ","town_kana":"ミナミショウワマチ","prefecture":"鳥取県","city":"倉吉市","town":"南昭和町"},{"zip_code":"6820845","prefecture_kana":"トットリケン","city_kana":"クラヨシシ","town_kana":"ミミ","prefecture":"鳥取県","city":"倉吉市","town":"耳"},{"zip_code":"6820881","prefecture_kana":"トットリケン","city_kana":"クラヨシシ","town_kana":"ミヤガワチョウ","prefecture":"鳥取県","city":"倉吉市","town":"宮川町"},{"zip_code":"6820803","prefecture_kana":"トットリケン","city_kana":"クラヨシシ","town_kana":"ミルカチョウ","prefecture":"鳥取県","city":"倉吉市","town":"見日町"},{"zip_code":"6820887","prefecture_kana":"トットリケン","city_kana":"クラヨシシ","town_kana":"メイジマチ","prefecture":"鳥取県","city":"倉吉市","town":"明治町"},{"zip_code":"6820625","prefecture_kana":"トットリケン","city_kana":"クラヨシシ","town_kana":"モクナミ","prefecture":"鳥取県","city":"倉吉市","town":"椋波"},{"zip_code":"6820615","prefecture_kana":"トットリケン","city_kana":"クラヨシシ","town_kana":"モリ","prefecture":"鳥取県","city":"倉吉市","town":"森"},{"zip_code":"6820025","prefecture_kana":"トットリケン","city_kana":"クラヨシシ","town_kana":"ヤツヤ","prefecture":"鳥取県","city":"倉吉市","town":"八屋"},{"zip_code":"6820023","prefecture_kana":"トットリケン","city_kana":"クラヨシシ","town_kana":"ヤマネ","prefecture":"鳥取県","city":"倉吉市","town":"山根"},{"zip_code":"6820946","prefecture_kana":"トットリケン","city_kana":"クラヨシシ","town_kana":"ヨコタ","prefecture":"鳥取県","city":"倉吉市","town":"横田"},{"zip_code":"6820853","prefecture_kana":"トットリケン","city_kana":"クラヨシシ","town_kana":"ヨドヤチョウ","prefecture":"鳥取県","city":"倉吉市","town":"余戸谷町"},{"zip_code":"6820814","prefecture_kana":"トットリケン","city_kana":"クラヨシシ","town_kana":"ヨネダチョウ","prefecture":"鳥取県","city":"倉吉市","town":"米田町"},{"zip_code":"6820912","prefecture_kana":"トットリケン","city_kana":"クラヨシシ","town_kana":"ワダ","prefecture":"鳥取県","city":"倉吉市","town":"和田"},{"zip_code":"6820913","prefecture_kana":"トットリケン","city_kana":"クラヨシシ","town_kana":"ワダヒガシマチ","prefecture":"鳥取県","city":"倉吉市","town":"和田東町"},{"zip_code":"6840000","prefecture_kana":"トットリケン","city_kana":"サカイミナトシ","town_kana":"イカニケイサイガナイバアイ","prefecture":"鳥取県","city":"境港市","town":"以下に掲載がない場合"},{"zip_code":"6840011","prefecture_kana":"トットリケン","city_kana":"サカイミナトシ","town_kana":"アイオイチョウ","prefecture":"鳥取県","city":"境港市","town":"相生町"},{"zip_code":"6840033","prefecture_kana":"トットリケン","city_kana":"サカイミナトシ","town_kana":"アガリミチチョウ","prefecture":"鳥取県","city":"境港市","town":"上道町"},{"zip_code":"6840013","prefecture_kana":"トットリケン","city_kana":"サカイミナトシ","town_kana":"アサヒマチ","prefecture":"鳥取県","city":"境港市","town":"朝日町"},{"zip_code":"6840006","prefecture_kana":"トットリケン","city_kana":"サカイミナトシ","town_kana":"エイマチ","prefecture":"鳥取県","city":"境港市","town":"栄町"},{"zip_code":"6840023","prefecture_kana":"トットリケン","city_kana":"サカイミナトシ","town_kana":"キョウマチ","prefecture":"鳥取県","city":"境港市","town":"京町"},{"zip_code":"6840056","prefecture_kana":"トットリケン","city_kana":"サカイミナトシ","town_kana":"コウジンチョウ","prefecture":"鳥取県","city":"境港市","town":"幸神町"},{"zip_code":"6840053","prefecture_kana":"トットリケン","city_kana":"サカイミナトシ","town_kana":"コシノヅチョウ","prefecture":"鳥取県","city":"境港市","town":"小篠津町"},{"zip_code":"6840055","prefecture_kana":"トットリケン","city_kana":"サカイミナトシ","town_kana":"サイノカミチョウ","prefecture":"鳥取県","city":"境港市","town":"佐斐神町"},{"zip_code":"6840054","prefecture_kana":"トットリケン","city_kana":"サカイミナトシ","town_kana":"サイノキチョウ","prefecture":"鳥取県","city":"境港市","town":"財ノ木町"},{"zip_code":"6840064","prefecture_kana":"トットリケン","city_kana":"サカイミナトシ","town_kana":"サンゲンヤチョウ","prefecture":"鳥取県","city":"境港市","town":"三軒屋町"},{"zip_code":"6840074","prefecture_kana":"トットリケン","city_kana":"サカイミナトシ","town_kana":"シオミチョウ","prefecture":"鳥取県","city":"境港市","town":"潮見町"},{"zip_code":"6840015","prefecture_kana":"トットリケン","city_kana":"サカイミナトシ","town_kana":"シノノメチョウ","prefecture":"鳥取県","city":"境港市","town":"東雲町"},{"zip_code":"6840066","prefecture_kana":"トットリケン","city_kana":"サカイミナトシ","town_kana":"シバチョウ","prefecture":"鳥取県","city":"境港市","town":"芝町"},{"zip_code":"6840001","prefecture_kana":"トットリケン","city_kana":"サカイミナトシ","town_kana":"シミズチョウ","prefecture":"鳥取県","city":"境港市","town":"清水町"},{"zip_code":"6840034","prefecture_kana":"トットリケン","city_kana":"サカイミナトシ","town_kana":"ショウワマチ","prefecture":"鳥取県","city":"境港市","town":"昭和町"},{"zip_code":"6840026","prefecture_kana":"トットリケン","city_kana":"サカイミナトシ","town_kana":"スエヒロチョウ","prefecture":"鳥取県","city":"境港市","town":"末広町"},{"zip_code":"6840063","prefecture_kana":"トットリケン","city_kana":"サカイミナトシ","town_kana":"セイドウチョウ","prefecture":"鳥取県","city":"境港市","town":"誠道町"},{"zip_code":"6840004","prefecture_kana":"トットリケン","city_kana":"サカイミナトシ","town_kana":"タイショウマチ","prefecture":"鳥取県","city":"境港市","town":"大正町"},{"zip_code":"6840045","prefecture_kana":"トットリケン","city_kana":"サカイミナトシ","town_kana":"タカマツチョウ","prefecture":"鳥取県","city":"境港市","town":"高松町"},{"zip_code":"6840046","prefecture_kana":"トットリケン","city_kana":"サカイミナトシ","town_kana":"タケノウチダンチ","prefecture":"鳥取県","city":"境港市","town":"竹内団地"},{"zip_code":"6840043","prefecture_kana":"トットリケン","city_kana":"サカイミナトシ","town_kana":"タケノウチチョウ","prefecture":"鳥取県","city":"境港市","town":"竹内町"},{"zip_code":"6840071","prefecture_kana":"トットリケン","city_kana":"サカイミナトシ","town_kana":"トノエチョウ","prefecture":"鳥取県","city":"境港市","town":"外江町"},{"zip_code":"6840073","prefecture_kana":"トットリケン","city_kana":"サカイミナトシ","town_kana":"ナカウミカンタクチ","prefecture":"鳥取県","city":"境港市","town":"中海干拓地"},{"zip_code":"6840041","prefecture_kana":"トットリケン","city_kana":"サカイミナトシ","town_kana":"ナカノチョウ","prefecture":"鳥取県","city":"境港市","town":"中野町"},{"zip_code":"6840012","prefecture_kana":"トットリケン","city_kana":"サカイミナトシ","town_kana":"ナカマチ","prefecture":"鳥取県","city":"境港市","town":"中町"},{"zip_code":"6840051","prefecture_kana":"トットリケン","city_kana":"サカイミナトシ","town_kana":"ニイヤチョウ","prefecture":"鳥取県","city":"境港市","town":"新屋町"},{"zip_code":"6840075","prefecture_kana":"トットリケン","city_kana":"サカイミナトシ","town_kana":"ニシコウギョウダンチ","prefecture":"鳥取県","city":"境港市","town":"西工業団地"},{"zip_code":"6840014","prefecture_kana":"トットリケン","city_kana":"サカイミナトシ","town_kana":"ニュウセンチョウ","prefecture":"鳥取県","city":"境港市","town":"入船町"},{"zip_code":"6840062","prefecture_kana":"トットリケン","city_kana":"サカイミナトシ","town_kana":"ハスイケチョウ","prefecture":"鳥取県","city":"境港市","town":"蓮池町"},{"zip_code":"6840016","prefecture_kana":"トットリケン","city_kana":"サカイミナトシ","town_kana":"ハナマチ","prefecture":"鳥取県","city":"境港市","town":"花町"},{"zip_code":"6840021","prefecture_kana":"トットリケン","city_kana":"サカイミナトシ","town_kana":"ババサキチョウ","prefecture":"鳥取県","city":"境港市","town":"馬場崎町"},{"zip_code":"6840003","prefecture_kana":"トットリケン","city_kana":"サカイミナトシ","town_kana":"ハマノチョウ","prefecture":"鳥取県","city":"境港市","town":"浜ノ町"},{"zip_code":"6840027","prefecture_kana":"トットリケン","city_kana":"サカイミナトシ","town_kana":"ヒガシホンマチ","prefecture":"鳥取県","city":"境港市","town":"東本町"},{"zip_code":"6840024","prefecture_kana":"トットリケン","city_kana":"サカイミナトシ","town_kana":"ヒノデチョウ","prefecture":"鳥取県","city":"境港市","town":"日ノ出町"},{"zip_code":"6840042","prefecture_kana":"トットリケン","city_kana":"サカイミナトシ","town_kana":"フクサダチョウ","prefecture":"鳥取県","city":"境港市","town":"福定町"},{"zip_code":"6840025","prefecture_kana":"トットリケン","city_kana":"サカイミナトシ","town_kana":"ホンマチ","prefecture":"鳥取県","city":"境港市","town":"本町"},{"zip_code":"6840005","prefecture_kana":"トットリケン","city_kana":"サカイミナトシ","town_kana":"マツガエチョウ","prefecture":"鳥取県","city":"境港市","town":"松ケ枝町"},{"zip_code":"6840017","prefecture_kana":"トットリケン","city_kana":"サカイミナトシ","town_kana":"ミサキチョウ","prefecture":"鳥取県","city":"境港市","town":"岬町"},{"zip_code":"6840031","prefecture_kana":"トットリケン","city_kana":"サカイミナトシ","town_kana":"ミナトマチ","prefecture":"鳥取県","city":"境港市","town":"湊町"},{"zip_code":"6840044","prefecture_kana":"トットリケン","city_kana":"サカイミナトシ","town_kana":"ミホチョウ","prefecture":"鳥取県","city":"境港市","town":"美保町"},{"zip_code":"6840052","prefecture_kana":"トットリケン","city_kana":"サカイミナトシ","town_kana":"ムギカキチョウ","prefecture":"鳥取県","city":"境港市","town":"麦垣町"},{"zip_code":"6840022","prefecture_kana":"トットリケン","city_kana":"サカイミナトシ","town_kana":"メイジマチ","prefecture":"鳥取県","city":"境港市","town":"明治町"},{"zip_code":"6840032","prefecture_kana":"トットリケン","city_kana":"サカイミナトシ","town_kana":"モトマチ","prefecture":"鳥取県","city":"境港市","town":"元町"},{"zip_code":"6840065","prefecture_kana":"トットリケン","city_kana":"サカイミナトシ","town_kana":"モリオカチョウ","prefecture":"鳥取県","city":"境港市","town":"森岡町"},{"zip_code":"6840002","prefecture_kana":"トットリケン","city_kana":"サカイミナトシ","town_kana":"ヤヨイチョウ","prefecture":"鳥取県","city":"境港市","town":"弥生町"},{"zip_code":"6840076","prefecture_kana":"トットリケン","city_kana":"サカイミナトシ","town_kana":"ユウヒガオカ","prefecture":"鳥取県","city":"境港市","town":"夕日ケ丘"},{"zip_code":"6840061","prefecture_kana":"トットリケン","city_kana":"サカイミナトシ","town_kana":"ヨネガワチョウ","prefecture":"鳥取県","city":"境港市","town":"米川町"},{"zip_code":"6840072","prefecture_kana":"トットリケン","city_kana":"サカイミナトシ","town_kana":"ワタリチョウ","prefecture":"鳥取県","city":"境港市","town":"渡町"},{"zip_code":"6810000","prefecture_kana":"トットリケン","city_kana":"イワミグンイワミチョウ","town_kana":"イカニケイサイガナイバアイ","prefecture":"鳥取県","city":"岩美郡岩美町","town":"以下に掲載がない場合"},{"zip_code":"6810002","prefecture_kana":"トットリケン","city_kana":"イワミグンイワミチョウ","town_kana":"アイダニ","prefecture":"鳥取県","city":"岩美郡岩美町","town":"相谷"},{"zip_code":"6810036","prefecture_kana":"トットリケン","city_kana":"イワミグンイワミチョウ","town_kana":"アイヤマ","prefecture":"鳥取県","city":"岩美郡岩美町","town":"相山"},{"zip_code":"6810074","prefecture_kana":"トットリケン","city_kana":"イワミグンイワミチョウ","town_kana":"アジロ","prefecture":"鳥取県","city":"岩美郡岩美町","town":"網代"},{"zip_code":"6810032","prefecture_kana":"トットリケン","city_kana":"イワミグンイワミチョウ","town_kana":"アライ","prefecture":"鳥取県","city":"岩美郡岩美町","town":"洗井"},{"zip_code":"6810055","prefecture_kana":"トットリケン","city_kana":"イワミグンイワミチョウ","town_kana":"アラカネ","prefecture":"鳥取県","city":"岩美郡岩美町","town":"荒金"},{"zip_code":"6810047","prefecture_kana":"トットリケン","city_kana":"イワミグンイワミチョウ","town_kana":"イケダニ","prefecture":"鳥取県","city":"岩美郡岩美町","town":"池谷"},{"zip_code":"6810024","prefecture_kana":"トットリケン","city_kana":"イワミグンイワミチョウ","town_kana":"イワイ","prefecture":"鳥取県","city":"岩美郡岩美町","town":"岩井"},{"zip_code":"6810052","prefecture_kana":"トットリケン","city_kana":"イワミグンイワミチョウ","town_kana":"イワツネ","prefecture":"鳥取県","city":"岩美郡岩美町","town":"岩常"},{"zip_code":"6810072","prefecture_kana":"トットリケン","city_kana":"イワミグンイワミチョウ","town_kana":"イワモト","prefecture":"鳥取県","city":"岩美郡岩美町","town":"岩本"},{"zip_code":"6810054","prefecture_kana":"トットリケン","city_kana":"イワミグンイワミチョウ","town_kana":"インナイ","prefecture":"鳥取県","city":"岩美郡岩美町","town":"院内"},{"zip_code":"6810025","prefecture_kana":"トットリケン","city_kana":"イワミグンイワミチョウ","town_kana":"ウジ","prefecture":"鳥取県","city":"岩美郡岩美町","town":"宇治"},{"zip_code":"6810003","prefecture_kana":"トットリケン","city_kana":"イワミグンイワミチョウ","town_kana":"ウラドメ","prefecture":"鳥取県","city":"岩美郡岩美町","town":"浦富"},{"zip_code":"6810046","prefecture_kana":"トットリケン","city_kana":"イワミグンイワミチョウ","town_kana":"エンゴウジ","prefecture":"鳥取県","city":"岩美郡岩美町","town":"延興寺"},{"zip_code":"6810043","prefecture_kana":"トットリケン","city_kana":"イワミグンイワミチョウ","town_kana":"オオサカ","prefecture":"鳥取県","city":"岩美郡岩美町","town":"大坂"},{"zip_code":"6810063","prefecture_kana":"トットリケン","city_kana":"イワミグンイワミチョウ","town_kana":"オオタ","prefecture":"鳥取県","city":"岩美郡岩美町","town":"太田"},{"zip_code":"6810073","prefecture_kana":"トットリケン","city_kana":"イワミグンイワミチョウ","town_kana":"オオタニ","prefecture":"鳥取県","city":"岩美郡岩美町","town":"大谷"},{"zip_code":"6810014","prefecture_kana":"トットリケン","city_kana":"イワミグンイワミチョウ","town_kana":"オオバネオ","prefecture":"鳥取県","city":"岩美郡岩美町","town":"大羽尾"},{"zip_code":"6810042","prefecture_kana":"トットリケン","city_kana":"イワミグンイワミチョウ","town_kana":"オダ","prefecture":"鳥取県","city":"岩美郡岩美町","town":"小田"},{"zip_code":"6810062","prefecture_kana":"トットリケン","city_kana":"イワミグンイワミチョウ","town_kana":"オンジ","prefecture":"鳥取県","city":"岩美郡岩美町","town":"恩志"},{"zip_code":"6810031","prefecture_kana":"トットリケン","city_kana":"イワミグンイワミチョウ","town_kana":"ガモウ","prefecture":"鳥取県","city":"岩美郡岩美町","town":"蒲生"},{"zip_code":"6810045","prefecture_kana":"トットリケン","city_kana":"イワミグンイワミチョウ","town_kana":"カラカワ","prefecture":"鳥取県","city":"岩美郡岩美町","town":"唐川"},{"zip_code":"6810051","prefecture_kana":"トットリケン","city_kana":"イワミグンイワミチョウ","town_kana":"カワサキ","prefecture":"鳥取県","city":"岩美郡岩美町","town":"河崎"},{"zip_code":"6810034","prefecture_kana":"トットリケン","city_kana":"イワミグンイワミチョウ","town_kana":"ギンザン","prefecture":"鳥取県","city":"岩美郡岩美町","town":"銀山"},{"zip_code":"6810011","prefecture_kana":"トットリケン","city_kana":"イワミグンイワミチョウ","town_kana":"クガミ","prefecture":"鳥取県","city":"岩美郡岩美町","town":"陸上"},{"zip_code":"6810041","prefecture_kana":"トットリケン","city_kana":"イワミグンイワミチョウ","town_kana":"クロダニ","prefecture":"鳥取県","city":"岩美郡岩美町","town":"黒谷"},{"zip_code":"6810013","prefecture_kana":"トットリケン","city_kana":"イワミグンイワミチョウ","town_kana":"コバネオ","prefecture":"鳥取県","city":"岩美郡岩美町","town":"小羽尾"},{"zip_code":"6810022","prefecture_kana":"トットリケン","city_kana":"イワミグンイワミチョウ","town_kana":"シラジ","prefecture":"鳥取県","city":"岩美郡岩美町","town":"白地"},{"zip_code":"6810053","prefecture_kana":"トットリケン","city_kana":"イワミグンイワミチョウ","town_kana":"タカズミ","prefecture":"鳥取県","city":"岩美郡岩美町","town":"高住"},{"zip_code":"6810061","prefecture_kana":"トットリケン","city_kana":"イワミグンイワミチョウ","town_kana":"タカヤマ","prefecture":"鳥取県","city":"岩美郡岩美町","town":"高山"},{"zip_code":"6810071","prefecture_kana":"トットリケン","city_kana":"イワミグンイワミチョウ","town_kana":"タジリ","prefecture":"鳥取県","city":"岩美郡岩美町","town":"田後"},{"zip_code":"6810012","prefecture_kana":"トットリケン","city_kana":"イワミグンイワミチョウ","town_kana":"タノコウジ","prefecture":"鳥取県","city":"岩美郡岩美町","town":"田河内"},{"zip_code":"6810056","prefecture_kana":"トットリケン","city_kana":"イワミグンイワミチョウ","town_kana":"チョウゴウ","prefecture":"鳥取県","city":"岩美郡岩美町","town":"長郷"},{"zip_code":"6810044","prefecture_kana":"トットリケン","city_kana":"イワミグンイワミチョウ","town_kana":"トノムラ","prefecture":"鳥取県","city":"岩美郡岩美町","town":"外邑"},{"zip_code":"6810033","prefecture_kana":"トットリケン","city_kana":"イワミグンイワミチョウ","town_kana":"トリゴエ","prefecture":"鳥取県","city":"岩美郡岩美町","town":"鳥越"},{"zip_code":"6810021","prefecture_kana":"トットリケン","city_kana":"イワミグンイワミチョウ","town_kana":"ナガタニ","prefecture":"鳥取県","city":"岩美郡岩美町","town":"長谷"},{"zip_code":"6810065","prefecture_kana":"トットリケン","city_kana":"イワミグンイワミチョウ","town_kana":"ニイ","prefecture":"鳥取県","city":"岩美郡岩美町","town":"新井"},{"zip_code":"6810035","prefecture_kana":"トットリケン","city_kana":"イワミグンイワミチョウ","town_kana":"ババ","prefecture":"鳥取県","city":"岩美郡岩美町","town":"馬場"},{"zip_code":"6810064","prefecture_kana":"トットリケン","city_kana":"イワミグンイワミチョウ","town_kana":"ホンジョウ","prefecture":"鳥取県","city":"岩美郡岩美町","town":"本庄"},{"zip_code":"6810001","prefecture_kana":"トットリケン","city_kana":"イワミグンイワミチョウ","town_kana":"マキダニ","prefecture":"鳥取県","city":"岩美郡岩美町","town":"牧谷"},{"zip_code":"6810023","prefecture_kana":"トットリケン","city_kana":"イワミグンイワミチョウ","town_kana":"マナ","prefecture":"鳥取県","city":"岩美郡岩美町","town":"真名"},{"zip_code":"6800700","prefecture_kana":"トットリケン","city_kana":"ヤズグンワカサチョウ","town_kana":"イカニケイサイガナイバアイ","prefecture":"鳥取県","city":"八頭郡若桜町","town":"以下に掲載がない場合"},{"zip_code":"6800713","prefecture_kana":"トットリケン","city_kana":"ヤズグンワカサチョウ","town_kana":"アカマツ","prefecture":"鳥取県","city":"八頭郡若桜町","town":"赤松"},{"zip_code":"6800722","prefecture_kana":"トットリケン","city_kana":"ヤズグンワカサチョウ","town_kana":"アサイ","prefecture":"鳥取県","city":"八頭郡若桜町","town":"浅井"},{"zip_code":"6800743","prefecture_kana":"トットリケン","city_kana":"ヤズグンワカサチョウ","town_kana":"イトシロミ","prefecture":"鳥取県","city":"八頭郡若桜町","town":"糸白見"},{"zip_code":"6800731","prefecture_kana":"トットリケン","city_kana":"ヤズグンワカサチョウ","town_kana":"イワヤドウ","prefecture":"鳥取県","city":"八頭郡若桜町","town":"岩屋堂"},{"zip_code":"6800741","prefecture_kana":"トットリケン","city_kana":"ヤズグンワカサチョウ","town_kana":"オオイ","prefecture":"鳥取県","city":"八頭郡若桜町","town":"大炊"},{"zip_code":"6800733","prefecture_kana":"トットリケン","city_kana":"ヤズグンワカサチョウ","town_kana":"オオノ","prefecture":"鳥取県","city":"八頭郡若桜町","town":"大野"},{"zip_code":"6800735","prefecture_kana":"トットリケン","city_kana":"ヤズグンワカサチョウ","town_kana":"オチオリ","prefecture":"鳥取県","city":"八頭郡若桜町","town":"落折"},{"zip_code":"6800734","prefecture_kana":"トットリケン","city_kana":"ヤズグンワカサチョウ","town_kana":"オブネ","prefecture":"鳥取県","city":"八頭郡若桜町","town":"小船"},{"zip_code":"6800742","prefecture_kana":"トットリケン","city_kana":"ヤズグンワカサチョウ","town_kana":"キシノ","prefecture":"鳥取県","city":"八頭郡若桜町","town":"岸野"},{"zip_code":"6800714","prefecture_kana":"トットリケン","city_kana":"ヤズグンワカサチョウ","town_kana":"クルミノ","prefecture":"鳥取県","city":"八頭郡若桜町","town":"来見野"},{"zip_code":"6800723","prefecture_kana":"トットリケン","city_kana":"ヤズグンワカサチョウ","town_kana":"コウダ","prefecture":"鳥取県","city":"八頭郡若桜町","town":"香田"},{"zip_code":"6800745","prefecture_kana":"トットリケン","city_kana":"ヤズグンワカサチョウ","town_kana":"ススミ","prefecture":"鳥取県","city":"八頭郡若桜町","town":"須澄"},{"zip_code":"6800712","prefecture_kana":"トットリケン","city_kana":"ヤズグンワカサチョウ","town_kana":"タカノ","prefecture":"鳥取県","city":"八頭郡若桜町","town":"高野"},{"zip_code":"6800728","prefecture_kana":"トットリケン","city_kana":"ヤズグンワカサチョウ","town_kana":"ツクヨネ","prefecture":"鳥取県","city":"八頭郡若桜町","town":"つく米"},{"zip_code":"6800732","prefecture_kana":"トットリケン","city_kana":"ヤズグンワカサチョウ","town_kana":"ナカハラ","prefecture":"鳥取県","city":"八頭郡若桜町","town":"中原"},{"zip_code":"6800724","prefecture_kana":"トットリケン","city_kana":"ヤズグンワカサチョウ","town_kana":"ナガスナ","prefecture":"鳥取県","city":"八頭郡若桜町","town":"長砂"},{"zip_code":"6800744","prefecture_kana":"トットリケン","city_kana":"ヤズグンワカサチョウ","town_kana":"ネヤス","prefecture":"鳥取県","city":"八頭郡若桜町","town":"根安"},{"zip_code":"6800726","prefecture_kana":"トットリケン","city_kana":"ヤズグンワカサチョウ","town_kana":"フチミ","prefecture":"鳥取県","city":"八頭郡若桜町","town":"淵見"},{"zip_code":"6800711","prefecture_kana":"トットリケン","city_kana":"ヤズグンワカサチョウ","town_kana":"ミクラ","prefecture":"鳥取県","city":"八頭郡若桜町","town":"三倉"},{"zip_code":"6800727","prefecture_kana":"トットリケン","city_kana":"ヤズグンワカサチョウ","town_kana":"ミョウガダニ","prefecture":"鳥取県","city":"八頭郡若桜町","town":"茗荷谷"},{"zip_code":"6800715","prefecture_kana":"トットリケン","city_kana":"ヤズグンワカサチョウ","town_kana":"モロガ","prefecture":"鳥取県","city":"八頭郡若桜町","town":"諸鹿"},{"zip_code":"6800721","prefecture_kana":"トットリケン","city_kana":"ヤズグンワカサチョウ","town_kana":"ヤドラ","prefecture":"鳥取県","city":"八頭郡若桜町","town":"屋堂羅"},{"zip_code":"6800725","prefecture_kana":"トットリケン","city_kana":"ヤズグンワカサチョウ","town_kana":"ユワラ","prefecture":"鳥取県","city":"八頭郡若桜町","town":"湯原"},{"zip_code":"6800746","prefecture_kana":"トットリケン","city_kana":"ヤズグンワカサチョウ","town_kana":"ヨシカワ","prefecture":"鳥取県","city":"八頭郡若桜町","town":"吉川"},{"zip_code":"6800701","prefecture_kana":"トットリケン","city_kana":"ヤズグンワカサチョウ","town_kana":"ワカサ","prefecture":"鳥取県","city":"八頭郡若桜町","town":"若桜"},{"zip_code":"6891400","prefecture_kana":"トットリケン","city_kana":"ヤズグンチヅチョウ","town_kana":"イカニケイサイガナイバアイ","prefecture":"鳥取県","city":"八頭郡智頭町","town":"以下に掲載がない場合"},{"zip_code":"6891412","prefecture_kana":"トットリケン","city_kana":"ヤズグンチヅチョウ","town_kana":"アシヅ","prefecture":"鳥取県","city":"八頭郡智頭町","town":"芦津"},{"zip_code":"6891401","prefecture_kana":"トットリケン","city_kana":"ヤズグンチヅチョウ","town_kana":"イチノセ","prefecture":"鳥取県","city":"八頭郡智頭町","town":"市瀬"},{"zip_code":"6891404","prefecture_kana":"トットリケン","city_kana":"ヤズグンチヅチョウ","town_kana":"イワガミ","prefecture":"鳥取県","city":"八頭郡智頭町","town":"岩神"},{"zip_code":"6891465","prefecture_kana":"トットリケン","city_kana":"ヤズグンチヅチョウ","town_kana":"ウナミ","prefecture":"鳥取県","city":"八頭郡智頭町","town":"宇波"},{"zip_code":"6891451","prefecture_kana":"トットリケン","city_kana":"ヤズグンチヅチョウ","town_kana":"オオセ","prefecture":"鳥取県","city":"八頭郡智頭町","town":"大背"},{"zip_code":"6891421","prefecture_kana":"トットリケン","city_kana":"ヤズグンチヅチョウ","town_kana":"オオチ","prefecture":"鳥取県","city":"八頭郡智頭町","town":"大内"},{"zip_code":"6891442","prefecture_kana":"トットリケン","city_kana":"ヤズグンチヅチョウ","town_kana":"オオヤ","prefecture":"鳥取県","city":"八頭郡智頭町","town":"大屋"},{"zip_code":"6891413","prefecture_kana":"トットリケン","city_kana":"ヤズグンチヅチョウ","town_kana":"オオロ","prefecture":"鳥取県","city":"八頭郡智頭町","town":"大呂"},{"zip_code":"6891452","prefecture_kana":"トットリケン","city_kana":"ヤズグンチヅチョウ","town_kana":"オクモト","prefecture":"鳥取県","city":"八頭郡智頭町","town":"奥本"},{"zip_code":"6891422","prefecture_kana":"トットリケン","city_kana":"ヤズグンチヅチョウ","town_kana":"オミ","prefecture":"鳥取県","city":"八頭郡智頭町","town":"尾見"},{"zip_code":"6891436","prefecture_kana":"トットリケン","city_kana":"ヤズグンチヅチョウ","town_kana":"キハラ","prefecture":"鳥取県","city":"八頭郡智頭町","town":"木原"},{"zip_code":"6891464","prefecture_kana":"トットリケン","city_kana":"ヤズグンチヅチョウ","town_kana":"クチウナミ","prefecture":"鳥取県","city":"八頭郡智頭町","town":"口宇波"},{"zip_code":"6891467","prefecture_kana":"トットリケン","city_kana":"ヤズグンチヅチョウ","town_kana":"クチハタ","prefecture":"鳥取県","city":"八頭郡智頭町","town":"口波多"},{"zip_code":"6891441","prefecture_kana":"トットリケン","city_kana":"ヤズグンチヅチョウ","town_kana":"ケイジョ","prefecture":"鳥取県","city":"八頭郡智頭町","town":"慶所"},{"zip_code":"6891416","prefecture_kana":"トットリケン","city_kana":"ヤズグンチヅチョウ","town_kana":"ケダニ","prefecture":"鳥取県","city":"八頭郡智頭町","town":"毛谷"},{"zip_code":"6891454","prefecture_kana":"トットリケン","city_kana":"ヤズグンチヅチョウ","town_kana":"コウヅワラ","prefecture":"鳥取県","city":"八頭郡智頭町","town":"河津原"},{"zip_code":"6891415","prefecture_kana":"トットリケン","city_kana":"ヤズグンチヅチョウ","town_kana":"ゴウバラ","prefecture":"鳥取県","city":"八頭郡智頭町","town":"郷原"},{"zip_code":"6891424","prefecture_kana":"トットリケン","city_kana":"ヤズグンチヅチョウ","town_kana":"コマガエリ","prefecture":"鳥取県","city":"八頭郡智頭町","town":"駒帰"},{"zip_code":"6891461","prefecture_kana":"トットリケン","city_kana":"ヤズグンチヅチョウ","town_kana":"サカワラ","prefecture":"鳥取県","city":"八頭郡智頭町","town":"坂原"},{"zip_code":"6891417","prefecture_kana":"トットリケン","city_kana":"ヤズグンチヅチョウ","town_kana":"シノザカ","prefecture":"鳥取県","city":"八頭郡智頭町","town":"篠坂"},{"zip_code":"6891468","prefecture_kana":"トットリケン","city_kana":"ヤズグンチヅチョウ","town_kana":"ソウチ","prefecture":"鳥取県","city":"八頭郡智頭町","town":"惣地"},{"zip_code":"6891402","prefecture_kana":"トットリケン","city_kana":"ヤズグンチヅチョウ","town_kana":"チズ","prefecture":"鳥取県","city":"八頭郡智頭町","town":"智頭"},{"zip_code":"6891462","prefecture_kana":"トットリケン","city_kana":"ヤズグンチヅチョウ","town_kana":"ナカダ","prefecture":"鳥取県","city":"八頭郡智頭町","town":"中田"},{"zip_code":"6891423","prefecture_kana":"トットリケン","city_kana":"ヤズグンチヅチョウ","town_kana":"ナカバラ","prefecture":"鳥取県","city":"八頭郡智頭町","town":"中原"},{"zip_code":"6891463","prefecture_kana":"トットリケン","city_kana":"ヤズグンチヅチョウ","town_kana":"ニイミ","prefecture":"鳥取県","city":"八頭郡智頭町","town":"新見"},{"zip_code":"6891455","prefecture_kana":"トットリケン","city_kana":"ヤズグンチヅチョウ","town_kana":"ニシウヅカ","prefecture":"鳥取県","city":"八頭郡智頭町","town":"西宇塚"},{"zip_code":"6891426","prefecture_kana":"トットリケン","city_kana":"ヤズグンチヅチョウ","town_kana":"ニシダニ","prefecture":"鳥取県","city":"八頭郡智頭町","town":"西谷"},{"zip_code":"6891414","prefecture_kana":"トットリケン","city_kana":"ヤズグンチヅチョウ","town_kana":"ニシノ","prefecture":"鳥取県","city":"八頭郡智頭町","town":"西野"},{"zip_code":"6891444","prefecture_kana":"トットリケン","city_kana":"ヤズグンチヅチョウ","town_kana":"ノバラ","prefecture":"鳥取県","city":"八頭郡智頭町","town":"野原"},{"zip_code":"6891466","prefecture_kana":"トットリケン","city_kana":"ヤズグンチヅチョウ","town_kana":"ハタ","prefecture":"鳥取県","city":"八頭郡智頭町","town":"波多"},{"zip_code":"6891433","prefecture_kana":"トットリケン","city_kana":"ヤズグンチヅチョウ","town_kana":"ハニシ","prefecture":"鳥取県","city":"八頭郡智頭町","town":"埴師"},{"zip_code":"6891445","prefecture_kana":"トットリケン","city_kana":"ヤズグンチヅチョウ","town_kana":"ハヤセ","prefecture":"鳥取県","city":"八頭郡智頭町","town":"早瀬"},{"zip_code":"6891453","prefecture_kana":"トットリケン","city_kana":"ヤズグンチヅチョウ","town_kana":"ヒガシウヅカ","prefecture":"鳥取県","city":"八頭郡智頭町","town":"東宇塚"},{"zip_code":"6891425","prefecture_kana":"トットリケン","city_kana":"ヤズグンチヅチョウ","town_kana":"フクワラ","prefecture":"鳥取県","city":"八頭郡智頭町","town":"福原"},{"zip_code":"6891432","prefecture_kana":"トットリケン","city_kana":"ヤズグンチヅチョウ","town_kana":"ホノミ","prefecture":"鳥取県","city":"八頭郡智頭町","town":"穂見"},{"zip_code":"6891443","prefecture_kana":"トットリケン","city_kana":"ヤズグンチヅチョウ","town_kana":"マガノ","prefecture":"鳥取県","city":"八頭郡智頭町","town":"真鹿野"},{"zip_code":"6891437","prefecture_kana":"トットリケン","city_kana":"ヤズグンチヅチョウ","town_kana":"ミタ","prefecture":"鳥取県","city":"八頭郡智頭町","town":"三田"},{"zip_code":"6891403","prefecture_kana":"トットリケン","city_kana":"ヤズグンチヅチョウ","town_kana":"ミナミガタ","prefecture":"鳥取県","city":"八頭郡智頭町","town":"南方"},{"zip_code":"6891434","prefecture_kana":"トットリケン","city_kana":"ヤズグンチヅチョウ","town_kana":"ミヨシ","prefecture":"鳥取県","city":"八頭郡智頭町","town":"三吉"},{"zip_code":"6891411","prefecture_kana":"トットリケン","city_kana":"ヤズグンチヅチョウ","town_kana":"ヤコウダニ","prefecture":"鳥取県","city":"八頭郡智頭町","town":"八河谷"},{"zip_code":"6891431","prefecture_kana":"トットリケン","city_kana":"ヤズグンチヅチョウ","town_kana":"ヤマネ","prefecture":"鳥取県","city":"八頭郡智頭町","town":"山根"},{"zip_code":"6891435","prefecture_kana":"トットリケン","city_kana":"ヤズグンチヅチョウ","town_kana":"ヨコタ","prefecture":"鳥取県","city":"八頭郡智頭町","town":"横田"},{"zip_code":"6800400","prefecture_kana":"トットリケン","city_kana":"ヤズグンヤズチョウ","town_kana":"イカニケイサイガナイバアイ","prefecture":"鳥取県","city":"八頭郡八頭町","town":"以下に掲載がない場合"},{"zip_code":"6800302","prefecture_kana":"トットリケン","city_kana":"ヤズグンヤズチョウ","town_kana":"アケナベ","prefecture":"鳥取県","city":"八頭郡八頭町","town":"明辺"},{"zip_code":"6800305","prefecture_kana":"トットリケン","city_kana":"ヤズグンヤズチョウ","town_kana":"アソウ","prefecture":"鳥取県","city":"八頭郡八頭町","town":"麻生"},{"zip_code":"6800452","prefecture_kana":"トットリケン","city_kana":"ヤズグンヤズチョウ","town_kana":"イケダ","prefecture":"鳥取県","city":"八頭郡八頭町","town":"池田"},{"zip_code":"6800425","prefecture_kana":"トットリケン","city_kana":"ヤズグンヤズチョウ","town_kana":"イゴ","prefecture":"鳥取県","city":"八頭郡八頭町","town":"井古"},{"zip_code":"6800454","prefecture_kana":"トットリケン","city_kana":"ヤズグンヤズチョウ","town_kana":"イシダモモイ","prefecture":"鳥取県","city":"八頭郡八頭町","town":"石田百井"},{"zip_code":"6800442","prefecture_kana":"トットリケン","city_kana":"ヤズグンヤズチョウ","town_kana":"イチノタニ","prefecture":"鳥取県","city":"八頭郡八頭町","town":"市谷"},{"zip_code":"6800311","prefecture_kana":"トットリケン","city_kana":"ヤズグンヤズチョウ","town_kana":"イチバ","prefecture":"鳥取県","city":"八頭郡八頭町","town":"市場"},{"zip_code":"6800424","prefecture_kana":"トットリケン","city_kana":"ヤズグンヤズチョウ","town_kana":"イナリ","prefecture":"鳥取県","city":"八頭郡八頭町","town":"稲荷"},{"zip_code":"6800537","prefecture_kana":"トットリケン","city_kana":"ヤズグンヤズチョウ","town_kana":"イワブチ","prefecture":"鳥取県","city":"八頭郡八頭町","town":"岩淵"},{"zip_code":"6800434","prefecture_kana":"トットリケン","city_kana":"ヤズグンヤズチョウ","town_kana":"エンメイジ","prefecture":"鳥取県","city":"八頭郡八頭町","town":"延命寺"},{"zip_code":"6800416","prefecture_kana":"トットリケン","city_kana":"ヤズグンヤズチョウ","town_kana":"オオエ","prefecture":"鳥取県","city":"八頭郡八頭町","town":"大江"},{"zip_code":"6800435","prefecture_kana":"トットリケン","city_kana":"ヤズグンヤズチョウ","town_kana":"オオツボ","prefecture":"鳥取県","city":"八頭郡八頭町","town":"大坪"},{"zip_code":"6800427","prefecture_kana":"トットリケン","city_kana":"ヤズグンヤズチョウ","town_kana":"オクダニ","prefecture":"鳥取県","city":"八頭郡八頭町","town":"奥谷"},{"zip_code":"6800543","prefecture_kana":"トットリケン","city_kana":"ヤズグンヤズチョウ","town_kana":"オクノ","prefecture":"鳥取県","city":"八頭郡八頭町","town":"奥野"},{"zip_code":"6800303","prefecture_kana":"トットリケン","city_kana":"ヤズグンヤズチョウ","town_kana":"オチイワ","prefecture":"鳥取県","city":"八頭郡八頭町","town":"落岩"},{"zip_code":"6800426","prefecture_kana":"トットリケン","city_kana":"ヤズグンヤズチョウ","town_kana":"オリサカ","prefecture":"鳥取県","city":"八頭郡八頭町","town":"下坂"},{"zip_code":"6800533","prefecture_kana":"トットリケン","city_kana":"ヤズグンヤズチョウ","town_kana":"カイハラ","prefecture":"鳥取県","city":"八頭郡八頭町","town":"皆原"},{"zip_code":"6800545","prefecture_kana":"トットリケン","city_kana":"ヤズグンヤズチョウ","town_kana":"カキハラ","prefecture":"鳥取県","city":"八頭郡八頭町","town":"柿原"},{"zip_code":"6800312","prefecture_kana":"トットリケン","city_kana":"ヤズグンヤズチョウ","town_kana":"カクオウジ","prefecture":"鳥取県","city":"八頭郡八頭町","town":"覚王寺"},{"zip_code":"6800534","prefecture_kana":"トットリケン","city_kana":"ヤズグンヤズチョウ","town_kana":"カジヤ","prefecture":"鳥取県","city":"八頭郡八頭町","town":"鍛冶屋"},{"zip_code":"6800422","prefecture_kana":"トットリケン","city_kana":"ヤズグンヤズチョウ","town_kana":"カドオ","prefecture":"鳥取県","city":"八頭郡八頭町","town":"門尾"},{"zip_code":"6800313","prefecture_kana":"トットリケン","city_kana":"ヤズグンヤズチョウ","town_kana":"カミツグロ","prefecture":"鳥取県","city":"八頭郡八頭町","town":"上津黒"},{"zip_code":"6800401","prefecture_kana":"トットリケン","city_kana":"ヤズグンヤズチョウ","town_kana":"カミノ","prefecture":"鳥取県","city":"八頭郡八頭町","town":"上野"},{"zip_code":"6800432","prefecture_kana":"トットリケン","city_kana":"ヤズグンヤズチョウ","town_kana":"カミミネデラ","prefecture":"鳥取県","city":"八頭郡八頭町","town":"上峰寺"},{"zip_code":"6800601","prefecture_kana":"トットリケン","city_kana":"ヤズグンヤズチョウ","town_kana":"キタヤマ","prefecture":"鳥取県","city":"八頭郡八頭町","town":"北山"},{"zip_code":"6800526","prefecture_kana":"トットリケン","city_kana":"ヤズグンヤズチョウ","town_kana":"クサカベ","prefecture":"鳥取県","city":"八頭郡八頭町","town":"日下部"},{"zip_code":"6800457","prefecture_kana":"トットリケン","city_kana":"ヤズグンヤズチョウ","town_kana":"クニナカ","prefecture":"鳥取県","city":"八頭郡八頭町","town":"国中"},{"zip_code":"6800451","prefecture_kana":"トットリケン","city_kana":"ヤズグンヤズチョウ","town_kana":"クノウジ","prefecture":"鳥取県","city":"八頭郡八頭町","town":"久能寺"},{"zip_code":"6800443","prefecture_kana":"トットリケン","city_kana":"ヤズグンヤズチョウ","town_kana":"コウゲトノ","prefecture":"鳥取県","city":"八頭郡八頭町","town":"郡家殿"},{"zip_code":"6800461","prefecture_kana":"トットリケン","city_kana":"ヤズグンヤズチョウ","town_kana":"コオゲ","prefecture":"鳥取県","city":"八頭郡八頭町","town":"郡家"},{"zip_code":"6800523","prefecture_kana":"トットリケン","city_kana":"ヤズグンヤズチョウ","town_kana":"コベフ","prefecture":"鳥取県","city":"八頭郡八頭町","town":"小別府"},{"zip_code":"6800531","prefecture_kana":"トットリケン","city_kana":"ヤズグンヤズチョウ","town_kana":"サイタイ","prefecture":"鳥取県","city":"八頭郡八頭町","town":"才代"},{"zip_code":"6800473","prefecture_kana":"トットリケン","city_kana":"ヤズグンヤズチョウ","town_kana":"サカダ","prefecture":"鳥取県","city":"八頭郡八頭町","town":"坂田"},{"zip_code":"6800527","prefecture_kana":"トットリケン","city_kana":"ヤズグンヤズチョウ","town_kana":"サクラガオカ","prefecture":"鳥取県","city":"八頭郡八頭町","town":"桜ヶ丘"},{"zip_code":"6800544","prefecture_kana":"トットリケン","city_kana":"ヤズグンヤズチョウ","town_kana":"ササキ","prefecture":"鳥取県","city":"八頭郡八頭町","town":"佐崎"},{"zip_code":"6800316","prefecture_kana":"トットリケン","city_kana":"ヤズグンヤズチョウ","town_kana":"ササナミ","prefecture":"鳥取県","city":"八頭郡八頭町","town":"篠波"},{"zip_code":"6800413","prefecture_kana":"トットリケン","city_kana":"ヤズグンヤズチョウ","town_kana":"シオノウエ","prefecture":"鳥取県","city":"八頭郡八頭町","town":"塩上"},{"zip_code":"6800606","prefecture_kana":"トットリケン","city_kana":"ヤズグンヤズチョウ","town_kana":"シゲエダ","prefecture":"鳥取県","city":"八頭郡八頭町","town":"重枝"},{"zip_code":"6800407","prefecture_kana":"トットリケン","city_kana":"ヤズグンヤズチョウ","town_kana":"シコベ","prefecture":"鳥取県","city":"八頭郡八頭町","town":"志子部"},{"zip_code":"6800612","prefecture_kana":"トットリケン","city_kana":"ヤズグンヤズチョウ","town_kana":"シタニ","prefecture":"鳥取県","city":"八頭郡八頭町","town":"志谷"},{"zip_code":"6800605","prefecture_kana":"トットリケン","city_kana":"ヤズグンヤズチョウ","town_kana":"シマ","prefecture":"鳥取県","city":"八頭郡八頭町","town":"島"},{"zip_code":"6800421","prefecture_kana":"トットリケン","city_kana":"ヤズグンヤズチョウ","town_kana":"シモカドオ","prefecture":"鳥取県","city":"八頭郡八頭町","town":"下門尾"},{"zip_code":"6800314","prefecture_kana":"トットリケン","city_kana":"ヤズグンヤズチョウ","town_kana":"シモツグロ","prefecture":"鳥取県","city":"八頭郡八頭町","town":"下津黒"},{"zip_code":"6800415","prefecture_kana":"トットリケン","city_kana":"ヤズグンヤズチョウ","town_kana":"シモツケ","prefecture":"鳥取県","city":"八頭郡八頭町","town":"下野"},{"zip_code":"6800472","prefecture_kana":"トットリケン","city_kana":"ヤズグンヤズチョウ","town_kana":"シモノ","prefecture":"鳥取県","city":"八頭郡八頭町","town":"下濃"},{"zip_code":"6800431","prefecture_kana":"トットリケン","city_kana":"ヤズグンヤズチョウ","town_kana":"シモミネデラ","prefecture":"鳥取県","city":"八頭郡八頭町","town":"下峰寺"},{"zip_code":"6800522","prefecture_kana":"トットリケン","city_kana":"ヤズグンヤズチョウ","town_kana":"シンゴウジ","prefecture":"鳥取県","city":"八頭郡八頭町","town":"新興寺"},{"zip_code":"6800541","prefecture_kana":"トットリケン","city_kana":"ヤズグンヤズチョウ","town_kana":"セイトク","prefecture":"鳥取県","city":"八頭郡八頭町","town":"清徳"},{"zip_code":"6800445","prefecture_kana":"トットリケン","city_kana":"ヤズグンヤズチョウ","town_kana":"ダイモン","prefecture":"鳥取県","city":"八頭郡八頭町","town":"大門"},{"zip_code":"6800607","prefecture_kana":"トットリケン","city_kana":"ヤズグンヤズチョウ","town_kana":"トクマル","prefecture":"鳥取県","city":"八頭郡八頭町","town":"徳丸"},{"zip_code":"6800611","prefecture_kana":"トットリケン","city_kana":"ヤズグンヤズチョウ","town_kana":"トミエダ","prefecture":"鳥取県","city":"八頭郡八頭町","town":"富枝"},{"zip_code":"6800614","prefecture_kana":"トットリケン","city_kana":"ヤズグンヤズチョウ","town_kana":"ナカ","prefecture":"鳥取県","city":"八頭郡八頭町","town":"中"},{"zip_code":"6800408","prefecture_kana":"トットリケン","city_kana":"ヤズグンヤズチョウ","town_kana":"ニシダニ","prefecture":"鳥取県","city":"八頭郡八頭町","town":"西谷"},{"zip_code":"6800441","prefecture_kana":"トットリケン","city_kana":"ヤズグンヤズチョウ","town_kana":"ニシミカド","prefecture":"鳥取県","city":"八頭郡八頭町","town":"西御門"},{"zip_code":"6800306","prefecture_kana":"トットリケン","city_kana":"ヤズグンヤズチョウ","town_kana":"ノマチ","prefecture":"鳥取県","city":"八頭郡八頭町","town":"野町"},{"zip_code":"6800414","prefecture_kana":"トットリケン","city_kana":"ヤズグンヤズチョウ","town_kana":"ハシモト","prefecture":"鳥取県","city":"八頭郡八頭町","town":"橋本"},{"zip_code":"6800455","prefecture_kana":"トットリケン","city_kana":"ヤズグンヤズチョウ","town_kana":"ハジモモイ","prefecture":"鳥取県","city":"八頭郡八頭町","town":"土師百井"},{"zip_code":"6800444","prefecture_kana":"トットリケン","city_kana":"ヤズグンヤズチョウ","town_kana":"ハナ","prefecture":"鳥取県","city":"八頭郡八頭町","town":"花"},{"zip_code":"6800437","prefecture_kana":"トットリケン","city_kana":"ヤズグンヤズチョウ","town_kana":"ハナバラ","prefecture":"鳥取県","city":"八頭郡八頭町","town":"花原"},{"zip_code":"6800402","prefecture_kana":"トットリケン","city_kana":"ヤズグンヤズチョウ","town_kana":"ハヤフク","prefecture":"鳥取県","city":"八頭郡八頭町","town":"隼福"},{"zip_code":"6800405","prefecture_kana":"トットリケン","city_kana":"ヤズグンヤズチョウ","town_kana":"ハヤブサコオゲ","prefecture":"鳥取県","city":"八頭郡八頭町","town":"隼郡家"},{"zip_code":"6800613","prefecture_kana":"トットリケン","city_kana":"ヤズグンヤズチョウ","town_kana":"ヒエダニ","prefecture":"鳥取県","city":"八頭郡八頭町","town":"稗谷"},{"zip_code":"6800532","prefecture_kana":"トットリケン","city_kana":"ヤズグンヤズチョウ","town_kana":"ヒガシ","prefecture":"鳥取県","city":"八頭郡八頭町","town":"東"},{"zip_code":"6800603","prefecture_kana":"トットリケン","city_kana":"ヤズグンヤズチョウ","town_kana":"ヒダ","prefecture":"鳥取県","city":"八頭郡八頭町","town":"日田"},{"zip_code":"6800301","prefecture_kana":"トットリケン","city_kana":"ヤズグンヤズチョウ","town_kana":"ヒメジ","prefecture":"鳥取県","city":"八頭郡八頭町","town":"姫路"},{"zip_code":"6800403","prefecture_kana":"トットリケン","city_kana":"ヤズグンヤズチョウ","town_kana":"フクイ","prefecture":"鳥取県","city":"八頭郡八頭町","town":"福井"},{"zip_code":"6800307","prefecture_kana":"トットリケン","city_kana":"ヤズグンヤズチョウ","town_kana":"フクチ","prefecture":"鳥取県","city":"八頭郡八頭町","town":"福地"},{"zip_code":"6800462","prefecture_kana":"トットリケン","city_kana":"ヤズグンヤズチョウ","town_kana":"フクモト","prefecture":"鳥取県","city":"八頭郡八頭町","town":"福本"},{"zip_code":"6800471","prefecture_kana":"トットリケン","city_kana":"ヤズグンヤズチョウ","town_kana":"フナオカ","prefecture":"鳥取県","city":"八頭郡八頭町","town":"船岡"},{"zip_code":"6800411","prefecture_kana":"トットリケン","city_kana":"ヤズグンヤズチョウ","town_kana":"フナオカトノ","prefecture":"鳥取県","city":"八頭郡八頭町","town":"船岡殿"},{"zip_code":"6800315","prefecture_kana":"トットリケン","city_kana":"ヤズグンヤズチョウ","town_kana":"ベフ","prefecture":"鳥取県","city":"八頭郡八頭町","town":"別府"},{"zip_code":"6800423","prefecture_kana":"トットリケン","city_kana":"ヤズグンヤズチョウ","town_kana":"ホリゴシ","prefecture":"鳥取県","city":"八頭郡八頭町","town":"堀越"},{"zip_code":"6800453","prefecture_kana":"トットリケン","city_kana":"ヤズグンヤズチョウ","town_kana":"マンタイジ","prefecture":"鳥取県","city":"八頭郡八頭町","town":"万代寺"},{"zip_code":"6800536","prefecture_kana":"トットリケン","city_kana":"ヤズグンヤズチョウ","town_kana":"ミウラ","prefecture":"鳥取県","city":"八頭郡八頭町","town":"三浦"},{"zip_code":"6800406","prefecture_kana":"トットリケン","city_kana":"ヤズグンヤズチョウ","town_kana":"ミヅキ","prefecture":"鳥取県","city":"八頭郡八頭町","town":"見槻"},{"zip_code":"6800404","prefecture_kana":"トットリケン","city_kana":"ヤズグンヤズチョウ","town_kana":"ミヅキナカ","prefecture":"鳥取県","city":"八頭郡八頭町","town":"見槻中"},{"zip_code":"6800412","prefecture_kana":"トットリケン","city_kana":"ヤズグンヤズチョウ","town_kana":"ミナクチ","prefecture":"鳥取県","city":"八頭郡八頭町","town":"水口"},{"zip_code":"6800604","prefecture_kana":"トットリケン","city_kana":"ヤズグンヤズチョウ","town_kana":"ミナミ","prefecture":"鳥取県","city":"八頭郡八頭町","town":"南"},{"zip_code":"6800463","prefecture_kana":"トットリケン","city_kana":"ヤズグンヤズチョウ","town_kana":"ミヤダニ","prefecture":"鳥取県","city":"八頭郡八頭町","town":"宮谷"},{"zip_code":"6800535","prefecture_kana":"トットリケン","city_kana":"ヤズグンヤズチョウ","town_kana":"ミヤマグチ","prefecture":"鳥取県","city":"八頭郡八頭町","town":"三山口"},{"zip_code":"6800524","prefecture_kana":"トットリケン","city_kana":"ヤズグンヤズチョウ","town_kana":"モダ","prefecture":"鳥取県","city":"八頭郡八頭町","town":"茂田"},{"zip_code":"6800542","prefecture_kana":"トットリケン","city_kana":"ヤズグンヤズチョウ","town_kana":"モタニ","prefecture":"鳥取県","city":"八頭郡八頭町","town":"茂谷"},{"zip_code":"6800521","prefecture_kana":"トットリケン","city_kana":"ヤズグンヤズチョウ","town_kana":"ヤスイシュク","prefecture":"鳥取県","city":"八頭郡八頭町","town":"安井宿"},{"zip_code":"6800436","prefecture_kana":"トットリケン","city_kana":"ヤズグンヤズチョウ","town_kana":"ヤマジ","prefecture":"鳥取県","city":"八頭郡八頭町","town":"山路"},{"zip_code":"6800304","prefecture_kana":"トットリケン","city_kana":"ヤズグンヤズチョウ","town_kana":"ヤマシダニ","prefecture":"鳥取県","city":"八頭郡八頭町","town":"山志谷"},{"zip_code":"6800438","prefecture_kana":"トットリケン","city_kana":"ヤズグンヤズチョウ","town_kana":"ヤマダ","prefecture":"鳥取県","city":"八頭郡八頭町","town":"山田"},{"zip_code":"6800433","prefecture_kana":"トットリケン","city_kana":"ヤズグンヤズチョウ","town_kana":"ヤマノウエ","prefecture":"鳥取県","city":"八頭郡八頭町","town":"山上"},{"zip_code":"6800602","prefecture_kana":"トットリケン","city_kana":"ヤズグンヤズチョウ","town_kana":"ヨウロ","prefecture":"鳥取県","city":"八頭郡八頭町","town":"用呂"},{"zip_code":"6800525","prefecture_kana":"トットリケン","city_kana":"ヤズグンヤズチョウ","town_kana":"ヨコタ","prefecture":"鳥取県","city":"八頭郡八頭町","town":"横田"},{"zip_code":"6800456","prefecture_kana":"トットリケン","city_kana":"ヤズグンヤズチョウ","town_kana":"ヨネオカ","prefecture":"鳥取県","city":"八頭郡八頭町","town":"米岡"},{"zip_code":"6800474","prefecture_kana":"トットリケン","city_kana":"ヤズグンヤズチョウ","town_kana":"ワレイワ","prefecture":"鳥取県","city":"八頭郡八頭町","town":"破岩"},{"zip_code":"6820100","prefecture_kana":"トットリケン","city_kana":"トウハクグンミササチョウ","town_kana":"イカニケイサイガナイバアイ","prefecture":"鳥取県","city":"東伯郡三朝町","town":"以下に掲載がない場合"},{"zip_code":"6820172","prefecture_kana":"トットリケン","city_kana":"トウハクグンミササチョウ","town_kana":"アカマツ","prefecture":"鳥取県","city":"東伯郡三朝町","town":"赤松"},{"zip_code":"6820303","prefecture_kana":"トットリケン","city_kana":"トウハクグンミササチョウ","town_kana":"アナガモ","prefecture":"鳥取県","city":"東伯郡三朝町","town":"穴鴨"},{"zip_code":"6820151","prefecture_kana":"トットリケン","city_kana":"トウハクグンミササチョウ","town_kana":"イマイズミ","prefecture":"鳥取県","city":"東伯郡三朝町","town":"今泉"},{"zip_code":"6820177","prefecture_kana":"トットリケン","city_kana":"トウハクグンミササチョウ","town_kana":"オオガキ","prefecture":"鳥取県","city":"東伯郡三朝町","town":"大柿"},{"zip_code":"6820121","prefecture_kana":"トットリケン","city_kana":"トウハクグンミササチョウ","town_kana":"オオゼ","prefecture":"鳥取県","city":"東伯郡三朝町","town":"大瀬"},{"zip_code":"6820315","prefecture_kana":"トットリケン","city_kana":"トウハクグンミササチョウ","town_kana":"オオタニ","prefecture":"鳥取県","city":"東伯郡三朝町","town":"大谷"},{"zip_code":"6820157","prefecture_kana":"トットリケン","city_kana":"トウハクグンミササチョウ","town_kana":"オゴチ","prefecture":"鳥取県","city":"東伯郡三朝町","town":"小河内"},{"zip_code":"6820173","prefecture_kana":"トットリケン","city_kana":"トウハクグンミササチョウ","town_kana":"オンジ","prefecture":"鳥取県","city":"東伯郡三朝町","town":"恩地"},{"zip_code":"6820161","prefecture_kana":"トットリケン","city_kana":"トウハクグンミササチョウ","town_kana":"カキダニ","prefecture":"鳥取県","city":"東伯郡三朝町","town":"柿谷"},{"zip_code":"6820135","prefecture_kana":"トットリケン","city_kana":"トウハクグンミササチョウ","town_kana":"カタシバ","prefecture":"鳥取県","city":"東伯郡三朝町","town":"片柴"},{"zip_code":"6820302","prefecture_kana":"トットリケン","city_kana":"トウハクグンミササチョウ","town_kana":"カダニ","prefecture":"鳥取県","city":"東伯郡三朝町","town":"加谷"},{"zip_code":"6820154","prefecture_kana":"トットリケン","city_kana":"トウハクグンミササチョウ","town_kana":"カマダ","prefecture":"鳥取県","city":"東伯郡三朝町","town":"鎌田"},{"zip_code":"6820313","prefecture_kana":"トットリケン","city_kana":"トウハクグンミササチョウ","town_kana":"カミニシダニ","prefecture":"鳥取県","city":"東伯郡三朝町","town":"上西谷"},{"zip_code":"6820142","prefecture_kana":"トットリケン","city_kana":"トウハクグンミササチョウ","town_kana":"カンノクラ","prefecture":"鳥取県","city":"東伯郡三朝町","town":"神倉"},{"zip_code":"6820301","prefecture_kana":"トットリケン","city_kana":"トウハクグンミササチョウ","town_kana":"キジヤマ","prefecture":"鳥取県","city":"東伯郡三朝町","town":"木地山"},{"zip_code":"6820375","prefecture_kana":"トットリケン","city_kana":"トウハクグンミササチョウ","town_kana":"クバラ","prefecture":"鳥取県","city":"東伯郡三朝町","town":"久原"},{"zip_code":"6820123","prefecture_kana":"トットリケン","city_kana":"トウハクグンミササチョウ","town_kana":"コイダニ","prefecture":"鳥取県","city":"東伯郡三朝町","town":"恋谷"},{"zip_code":"6820136","prefecture_kana":"トットリケン","city_kana":"トウハクグンミササチョウ","town_kana":"サカモト","prefecture":"鳥取県","city":"東伯郡三朝町","town":"坂本"},{"zip_code":"6820133","prefecture_kana":"トットリケン","city_kana":"トウハクグンミササチョウ","town_kana":"サクラガオカ","prefecture":"鳥取県","city":"東伯郡三朝町","town":"桜ケ丘"},{"zip_code":"6820156","prefecture_kana":"トットリケン","city_kana":"トウハクグンミササチョウ","town_kana":"シモダニ","prefecture":"鳥取県","city":"東伯郡三朝町","town":"下谷"},{"zip_code":"6820312","prefecture_kana":"トットリケン","city_kana":"トウハクグンミササチョウ","town_kana":"シモニシダニ","prefecture":"鳥取県","city":"東伯郡三朝町","town":"下西谷"},{"zip_code":"6820316","prefecture_kana":"トットリケン","city_kana":"トウハクグンミササチョウ","town_kana":"シモバタ","prefecture":"鳥取県","city":"東伯郡三朝町","town":"下畑"},{"zip_code":"6820176","prefecture_kana":"トットリケン","city_kana":"トウハクグンミササチョウ","town_kana":"スケダニ","prefecture":"鳥取県","city":"東伯郡三朝町","town":"助谷"},{"zip_code":"6820124","prefecture_kana":"トットリケン","city_kana":"トウハクグンミササチョウ","town_kana":"スナワラ","prefecture":"鳥取県","city":"東伯郡三朝町","town":"砂原"},{"zip_code":"6820374","prefecture_kana":"トットリケン","city_kana":"トウハクグンミササチョウ","town_kana":"ソウゲンジ","prefecture":"鳥取県","city":"東伯郡三朝町","town":"曹源寺"},{"zip_code":"6820146","prefecture_kana":"トットリケン","city_kana":"トウハクグンミササチョウ","town_kana":"タカハシ","prefecture":"鳥取県","city":"東伯郡三朝町","town":"高橋"},{"zip_code":"6820314","prefecture_kana":"トットリケン","city_kana":"トウハクグンミササチョウ","town_kana":"タシロ","prefecture":"鳥取県","city":"東伯郡三朝町","town":"田代"},{"zip_code":"6820131","prefecture_kana":"トットリケン","city_kana":"トウハクグンミササチョウ","town_kana":"タワラ","prefecture":"鳥取県","city":"東伯郡三朝町","town":"俵原"},{"zip_code":"6820158","prefecture_kana":"トットリケン","city_kana":"トウハクグンミササチョウ","town_kana":"ツガ","prefecture":"鳥取県","city":"東伯郡三朝町","town":"笏賀"},{"zip_code":"6820153","prefecture_kana":"トットリケン","city_kana":"トウハクグンミササチョウ","town_kana":"テンジン","prefecture":"鳥取県","city":"東伯郡三朝町","town":"天神"},{"zip_code":"6820125","prefecture_kana":"トットリケン","city_kana":"トウハクグンミササチョウ","town_kana":"トクモト","prefecture":"鳥取県","city":"東伯郡三朝町","town":"徳本"},{"zip_code":"6820141","prefecture_kana":"トットリケン","city_kana":"トウハクグンミササチョウ","town_kana":"ナカツ","prefecture":"鳥取県","city":"東伯郡三朝町","town":"中津"},{"zip_code":"6820162","prefecture_kana":"トットリケン","city_kana":"トウハクグンミササチョウ","town_kana":"ナマリヤマ","prefecture":"鳥取県","city":"東伯郡三朝町","town":"鉛山"},{"zip_code":"6820145","prefecture_kana":"トットリケン","city_kana":"トウハクグンミササチョウ","town_kana":"ニシオ","prefecture":"鳥取県","city":"東伯郡三朝町","town":"西尾"},{"zip_code":"6820144","prefecture_kana":"トットリケン","city_kana":"トウハクグンミササチョウ","town_kana":"ニシオシカ","prefecture":"鳥取県","city":"東伯郡三朝町","town":"西小鹿"},{"zip_code":"6820143","prefecture_kana":"トットリケン","city_kana":"トウハクグンミササチョウ","town_kana":"ヒガシオシカ","prefecture":"鳥取県","city":"東伯郡三朝町","town":"東小鹿"},{"zip_code":"6820159","prefecture_kana":"トットリケン","city_kana":"トウハクグンミササチョウ","town_kana":"フクダ","prefecture":"鳥取県","city":"東伯郡三朝町","town":"福田"},{"zip_code":"6820317","prefecture_kana":"トットリケン","city_kana":"トウハクグンミササチョウ","town_kana":"フクモト","prefecture":"鳥取県","city":"東伯郡三朝町","town":"福本"},{"zip_code":"6820311","prefecture_kana":"トットリケン","city_kana":"トウハクグンミササチョウ","town_kana":"フクヤマ","prefecture":"鳥取県","city":"東伯郡三朝町","town":"福山"},{"zip_code":"6820163","prefecture_kana":"トットリケン","city_kana":"トウハクグンミササチョウ","town_kana":"フクヨシ","prefecture":"鳥取県","city":"東伯郡三朝町","town":"福吉"},{"zip_code":"6820178","prefecture_kana":"トットリケン","city_kana":"トウハクグンミササチョウ","town_kana":"マキ","prefecture":"鳥取県","city":"東伯郡三朝町","town":"牧"},{"zip_code":"6820123","prefecture_kana":"トットリケン","city_kana":"トウハクグンミササチョウ","town_kana":"ミササ","prefecture":"鳥取県","city":"東伯郡三朝町","town":"三朝"},{"zip_code":"6820132","prefecture_kana":"トットリケン","city_kana":"トウハクグンミササチョウ","town_kana":"ミトク","prefecture":"鳥取県","city":"東伯郡三朝町","town":"三徳"},{"zip_code":"6820152","prefecture_kana":"トットリケン","city_kana":"トウハクグンミササチョウ","town_kana":"モトイズミ","prefecture":"鳥取県","city":"東伯郡三朝町","town":"本泉"},{"zip_code":"6820153","prefecture_kana":"トットリケン","city_kana":"トウハクグンミササチョウ","town_kana":"モリ","prefecture":"鳥取県","city":"東伯郡三朝町","town":"森"},{"zip_code":"6820122","prefecture_kana":"トットリケン","city_kana":"トウハクグンミササチョウ","town_kana":"ヤマダ","prefecture":"鳥取県","city":"東伯郡三朝町","town":"山田"},{"zip_code":"6820171","prefecture_kana":"トットリケン","city_kana":"トウハクグンミササチョウ","town_kana":"ユタニ","prefecture":"鳥取県","city":"東伯郡三朝町","town":"湯谷"},{"zip_code":"6820125","prefecture_kana":"トットリケン","city_kana":"トウハクグンミササチョウ","town_kana":"ヨコテ","prefecture":"鳥取県","city":"東伯郡三朝町","town":"横手"},{"zip_code":"6820155","prefecture_kana":"トットリケン","city_kana":"トウハクグンミササチョウ","town_kana":"ヨシオ","prefecture":"鳥取県","city":"東伯郡三朝町","town":"吉尾"},{"zip_code":"6820133","prefecture_kana":"トットリケン","city_kana":"トウハクグンミササチョウ","town_kana":"ヨシダ","prefecture":"鳥取県","city":"東伯郡三朝町","town":"吉田"},{"zip_code":"6820134","prefecture_kana":"トットリケン","city_kana":"トウハクグンミササチョウ","town_kana":"ヨド","prefecture":"鳥取県","city":"東伯郡三朝町","town":"余戸"},{"zip_code":"6820151","prefecture_kana":"トットリケン","city_kana":"トウハクグンミササチョウ","town_kana":"ワカミヤ","prefecture":"鳥取県","city":"東伯郡三朝町","town":"若宮"},{"zip_code":"6820700","prefecture_kana":"トットリケン","city_kana":"トウハクグンユリハマチョウ","town_kana":"イカニケイサイガナイバアイ","prefecture":"鳥取県","city":"東伯郡湯梨浜町","town":"以下に掲載がない場合"},{"zip_code":"6820714","prefecture_kana":"トットリケン","city_kana":"トウハクグンユリハマチョウ","town_kana":"アカイケ","prefecture":"鳥取県","city":"東伯郡湯梨浜町","town":"赤池"},{"zip_code":"6890721","prefecture_kana":"トットリケン","city_kana":"トウハクグンユリハマチョウ","town_kana":"アサバタケ","prefecture":"鳥取県","city":"東伯郡湯梨浜町","town":"麻畑"},{"zip_code":"6890713","prefecture_kana":"トットリケン","city_kana":"トウハクグンユリハマチョウ","town_kana":"アサヒ","prefecture":"鳥取県","city":"東伯郡湯梨浜町","town":"旭"},{"zip_code":"6890602","prefecture_kana":"トットリケン","city_kana":"トウハクグンユリハマチョウ","town_kana":"イシワキ","prefecture":"鳥取県","city":"東伯郡湯梨浜町","town":"石脇"},{"zip_code":"6890733","prefecture_kana":"トットリケン","city_kana":"トウハクグンユリハマチョウ","town_kana":"ウエシ","prefecture":"鳥取県","city":"東伯郡湯梨浜町","town":"羽衣石"},{"zip_code":"6890607","prefecture_kana":"トットリケン","city_kana":"トウハクグンユリハマチョウ","town_kana":"ウタニ","prefecture":"鳥取県","city":"東伯郡湯梨浜町","town":"宇谷"},{"zip_code":"6820701","prefecture_kana":"トットリケン","city_kana":"トウハクグンユリハマチョウ","town_kana":"ウノ","prefecture":"鳥取県","city":"東伯郡湯梨浜町","town":"宇野"},{"zip_code":"6890702","prefecture_kana":"トットリケン","city_kana":"トウハクグンユリハマチョウ","town_kana":"ウルシバラ","prefecture":"鳥取県","city":"東伯郡湯梨浜町","town":"漆原"},{"zip_code":"6890729","prefecture_kana":"トットリケン","city_kana":"トウハクグンユリハマチョウ","town_kana":"オシカダニ","prefecture":"鳥取県","city":"東伯郡湯梨浜町","town":"小鹿谷"},{"zip_code":"6890724","prefecture_kana":"トットリケン","city_kana":"トウハクグンユリハマチョウ","town_kana":"カタモ","prefecture":"鳥取県","city":"東伯郡湯梨浜町","town":"方面"},{"zip_code":"6890736","prefecture_kana":"トットリケン","city_kana":"トウハクグンユリハマチョウ","town_kana":"カドタ","prefecture":"鳥取県","city":"東伯郡湯梨浜町","town":"門田"},{"zip_code":"6820712","prefecture_kana":"トットリケン","city_kana":"トウハクグンユリハマチョウ","town_kana":"カミアソヅ","prefecture":"鳥取県","city":"東伯郡湯梨浜町","town":"上浅津"},{"zip_code":"6820703","prefecture_kana":"トットリケン","city_kana":"トウハクグンユリハマチョウ","town_kana":"カミハシヅ","prefecture":"鳥取県","city":"東伯郡湯梨浜町","town":"上橋津"},{"zip_code":"6890722","prefecture_kana":"トットリケン","city_kana":"トウハクグンユリハマチョウ","town_kana":"カワカミ","prefecture":"鳥取県","city":"東伯郡湯梨浜町","town":"川上"},{"zip_code":"6890701","prefecture_kana":"トットリケン","city_kana":"トウハクグンユリハマチョウ","town_kana":"キタフク","prefecture":"鳥取県","city":"東伯郡湯梨浜町","town":"北福"},{"zip_code":"6890726","prefecture_kana":"トットリケン","city_kana":"トウハクグンユリハマチョウ","town_kana":"クニノブ","prefecture":"鳥取県","city":"東伯郡湯梨浜町","town":"国信"},{"zip_code":"6890603","prefecture_kana":"トットリケン","city_kana":"トウハクグンユリハマチョウ","town_kana":"コバマ","prefecture":"鳥取県","city":"東伯郡湯梨浜町","town":"小浜"},{"zip_code":"6890735","prefecture_kana":"トットリケン","city_kana":"トウハクグンユリハマチョウ","town_kana":"サビ","prefecture":"鳥取県","city":"東伯郡湯梨浜町","town":"佐美"},{"zip_code":"6820711","prefecture_kana":"トットリケン","city_kana":"トウハクグンユリハマチョウ","town_kana":"シモアソヅ","prefecture":"鳥取県","city":"東伯郡湯梨浜町","town":"下浅津"},{"zip_code":"6890704","prefecture_kana":"トットリケン","city_kana":"トウハクグンユリハマチョウ","town_kana":"シライシ","prefecture":"鳥取県","city":"東伯郡湯梨浜町","town":"白石"},{"zip_code":"6890605","prefecture_kana":"トットリケン","city_kana":"トウハクグンユリハマチョウ","town_kana":"ソノ","prefecture":"鳥取県","city":"東伯郡湯梨浜町","town":"園"},{"zip_code":"6890723","prefecture_kana":"トットリケン","city_kana":"トウハクグンユリハマチョウ","town_kana":"タカツジ","prefecture":"鳥取県","city":"東伯郡湯梨浜町","town":"高辻"},{"zip_code":"6820721","prefecture_kana":"トットリケン","city_kana":"トウハクグンユリハマチョウ","town_kana":"タジリ","prefecture":"鳥取県","city":"東伯郡湯梨浜町","town":"田後"},{"zip_code":"6890727","prefecture_kana":"トットリケン","city_kana":"トウハクグンユリハマチョウ","town_kana":"タバタケ","prefecture":"鳥取県","city":"東伯郡湯梨浜町","town":"田畑"},{"zip_code":"6890712","prefecture_kana":"トットリケン","city_kana":"トウハクグンユリハマチョウ","town_kana":"チュウコウジ","prefecture":"鳥取県","city":"東伯郡湯梨浜町","town":"中興寺"},{"zip_code":"6890604","prefecture_kana":"トットリケン","city_kana":"トウハクグンユリハマチョウ","town_kana":"ツツジ","prefecture":"鳥取県","city":"東伯郡湯梨浜町","town":"筒地"},{"zip_code":"6890601","prefecture_kana":"トットリケン","city_kana":"トウハクグンユリハマチョウ","town_kana":"トマリ","prefecture":"鳥取県","city":"東伯郡湯梨浜町","town":"泊"},{"zip_code":"6890737","prefecture_kana":"トットリケン","city_kana":"トウハクグンユリハマチョウ","town_kana":"ナガエ","prefecture":"鳥取県","city":"東伯郡湯梨浜町","town":"長江"},{"zip_code":"6890732","prefecture_kana":"トットリケン","city_kana":"トウハクグンユリハマチョウ","town_kana":"ナゴウタ","prefecture":"鳥取県","city":"東伯郡湯梨浜町","town":"長和田"},{"zip_code":"6890705","prefecture_kana":"トットリケン","city_kana":"トウハクグンユリハマチョウ","town_kana":"ノカタ","prefecture":"鳥取県","city":"東伯郡湯梨浜町","town":"野方"},{"zip_code":"6890731","prefecture_kana":"トットリケン","city_kana":"トウハクグンユリハマチョウ","town_kana":"ノキョウ","prefecture":"鳥取県","city":"東伯郡湯梨浜町","town":"野花"},{"zip_code":"6820702","prefecture_kana":"トットリケン","city_kana":"トウハクグンユリハマチョウ","town_kana":"ハシヅ","prefecture":"鳥取県","city":"東伯郡湯梨浜町","town":"橋津"},{"zip_code":"6890734","prefecture_kana":"トットリケン","city_kana":"トウハクグンユリハマチョウ","town_kana":"ハナミ","prefecture":"鳥取県","city":"東伯郡湯梨浜町","town":"埴見"},{"zip_code":"6890606","prefecture_kana":"トットリケン","city_kana":"トウハクグンユリハマチョウ","town_kana":"ハラ","prefecture":"鳥取県","city":"東伯郡湯梨浜町","town":"原"},{"zip_code":"6820715","prefecture_kana":"トットリケン","city_kana":"トウハクグンユリハマチョウ","town_kana":"ハワイオンセン","prefecture":"鳥取県","city":"東伯郡湯梨浜町","town":"はわい温泉"},{"zip_code":"6820722","prefecture_kana":"トットリケン","city_kana":"トウハクグンユリハマチョウ","town_kana":"ハワイナガセ","prefecture":"鳥取県","city":"東伯郡湯梨浜町","town":"はわい長瀬"},{"zip_code":"6890715","prefecture_kana":"トットリケン","city_kana":"トウハクグンユリハマチョウ","town_kana":"ヒキジ","prefecture":"鳥取県","city":"東伯郡湯梨浜町","town":"引地"},{"zip_code":"6820723","prefecture_kana":"トットリケン","city_kana":"トウハクグンユリハマチョウ","town_kana":"ヒサドメ","prefecture":"鳥取県","city":"東伯郡湯梨浜町","town":"久留"},{"zip_code":"6890728","prefecture_kana":"トットリケン","city_kana":"トウハクグンユリハマチョウ","town_kana":"ヒサミ","prefecture":"鳥取県","city":"東伯郡湯梨浜町","town":"久見"},{"zip_code":"6890706","prefecture_kana":"トットリケン","city_kana":"トウハクグンユリハマチョウ","town_kana":"フジツ","prefecture":"鳥取県","city":"東伯郡湯梨浜町","town":"藤津"},{"zip_code":"6890725","prefecture_kana":"トットリケン","city_kana":"トウハクグンユリハマチョウ","town_kana":"ベッショ","prefecture":"鳥取県","city":"東伯郡湯梨浜町","town":"別所"},{"zip_code":"6890703","prefecture_kana":"トットリケン","city_kana":"トウハクグンユリハマチョウ","town_kana":"ホウジ","prefecture":"鳥取県","city":"東伯郡湯梨浜町","town":"方地"},{"zip_code":"6890711","prefecture_kana":"トットリケン","city_kana":"トウハクグンユリハマチョウ","town_kana":"マツザキ","prefecture":"鳥取県","city":"東伯郡湯梨浜町","town":"松崎"},{"zip_code":"6820724","prefecture_kana":"トットリケン","city_kana":"トウハクグンユリハマチョウ","town_kana":"ミズオチ","prefecture":"鳥取県","city":"東伯郡湯梨浜町","town":"水下"},{"zip_code":"6820713","prefecture_kana":"トットリケン","city_kana":"トウハクグンユリハマチョウ","town_kana":"ミツヨシ","prefecture":"鳥取県","city":"東伯郡湯梨浜町","town":"光吉"},{"zip_code":"6820704","prefecture_kana":"トットリケン","city_kana":"トウハクグンユリハマチョウ","town_kana":"ミナミダニ","prefecture":"鳥取県","city":"東伯郡湯梨浜町","town":"南谷"},{"zip_code":"6890707","prefecture_kana":"トットリケン","city_kana":"トウハクグンユリハマチョウ","town_kana":"ミヤウチ","prefecture":"鳥取県","city":"東伯郡湯梨浜町","town":"宮内"},{"zip_code":"6890714","prefecture_kana":"トットリケン","city_kana":"トウハクグンユリハマチョウ","town_kana":"リュウトウ","prefecture":"鳥取県","city":"東伯郡湯梨浜町","town":"龍島"},{"zip_code":"6892300","prefecture_kana":"トットリケン","city_kana":"トウハクグンコトウラチョウ","town_kana":"イカニケイサイガナイバアイ","prefecture":"鳥取県","city":"東伯郡琴浦町","town":"以下に掲載がない場合"},{"zip_code":"6892501","prefecture_kana":"トットリケン","city_kana":"トウハクグンコトウラチョウ","town_kana":"アカサキ","prefecture":"鳥取県","city":"東伯郡琴浦町","town":"赤碕"},{"zip_code":"6892511","prefecture_kana":"トットリケン","city_kana":"トウハクグンコトウラチョウ","town_kana":"イデカミ","prefecture":"鳥取県","city":"東伯郡琴浦町","town":"出上"},{"zip_code":"6892543","prefecture_kana":"トットリケン","city_kana":"トウハクグンコトウラチョウ","town_kana":"ウメダ","prefecture":"鳥取県","city":"東伯郡琴浦町","town":"梅田"},{"zip_code":"6892352","prefecture_kana":"トットリケン","city_kana":"トウハクグンコトウラチョウ","town_kana":"ウラヤス","prefecture":"鳥取県","city":"東伯郡琴浦町","town":"浦安"},{"zip_code":"6892344","prefecture_kana":"トットリケン","city_kana":"トウハクグンコトウラチョウ","town_kana":"オオスギ","prefecture":"鳥取県","city":"東伯郡琴浦町","town":"大杉"},{"zip_code":"6892304","prefecture_kana":"トットリケン","city_kana":"トウハクグンコトウラチョウ","town_kana":"オオツカ","prefecture":"鳥取県","city":"東伯郡琴浦町","town":"逢束"},{"zip_code":"6892524","prefecture_kana":"トットリケン","city_kana":"トウハクグンコトウラチョウ","town_kana":"オオブ","prefecture":"鳥取県","city":"東伯郡琴浦町","town":"大父"},{"zip_code":"6892535","prefecture_kana":"トットリケン","city_kana":"トウハクグンコトウラチョウ","town_kana":"オワリ","prefecture":"鳥取県","city":"東伯郡琴浦町","town":"尾張"},{"zip_code":"6892306","prefecture_kana":"トットリケン","city_kana":"トウハクグンコトウラチョウ","town_kana":"カサミ","prefecture":"鳥取県","city":"東伯郡琴浦町","town":"笠見"},{"zip_code":"6892512","prefecture_kana":"トットリケン","city_kana":"トウハクグンコトウラチョウ","town_kana":"カツタ","prefecture":"鳥取県","city":"東伯郡琴浦町","town":"勝田"},{"zip_code":"6892312","prefecture_kana":"トットリケン","city_kana":"トウハクグンコトウラチョウ","town_kana":"カナヤ","prefecture":"鳥取県","city":"東伯郡琴浦町","town":"金屋"},{"zip_code":"6892315","prefecture_kana":"トットリケン","city_kana":"トウハクグンコトウラチョウ","town_kana":"カミイセ","prefecture":"鳥取県","city":"東伯郡琴浦町","town":"上伊勢"},{"zip_code":"6892342","prefecture_kana":"トットリケン","city_kana":"トウハクグンコトウラチョウ","town_kana":"クモン","prefecture":"鳥取県","city":"東伯郡琴浦町","town":"公文"},{"zip_code":"6892341","prefecture_kana":"トットリケン","city_kana":"トウハクグンコトウラチョウ","town_kana":"クラサカ","prefecture":"鳥取県","city":"東伯郡琴浦町","town":"倉坂"},{"zip_code":"6892355","prefecture_kana":"トットリケン","city_kana":"トウハクグンコトウラチョウ","town_kana":"コガネ","prefecture":"鳥取県","city":"東伯郡琴浦町","town":"釛"},{"zip_code":"6892531","prefecture_kana":"トットリケン","city_kana":"トウハクグンコトウラチョウ","town_kana":"サザキ","prefecture":"鳥取県","city":"東伯郡琴浦町","town":"佐崎"},{"zip_code":"6892334","prefecture_kana":"トットリケン","city_kana":"トウハクグンコトウラチョウ","town_kana":"サンボンスギ","prefecture":"鳥取県","city":"東伯郡琴浦町","town":"三本杉"},{"zip_code":"6892316","prefecture_kana":"トットリケン","city_kana":"トウハクグンコトウラチョウ","town_kana":"シモイセ","prefecture":"鳥取県","city":"東伯郡琴浦町","town":"下伊勢"},{"zip_code":"6892314","prefecture_kana":"トットリケン","city_kana":"トウハクグンコトウラチョウ","town_kana":"シモオオエ","prefecture":"鳥取県","city":"東伯郡琴浦町","town":"下大江"},{"zip_code":"6892331","prefecture_kana":"トットリケン","city_kana":"トウハクグンコトウラチョウ","town_kana":"スギジ","prefecture":"鳥取県","city":"東伯郡琴浦町","town":"杉地"},{"zip_code":"6892313","prefecture_kana":"トットリケン","city_kana":"トウハクグンコトウラチョウ","town_kana":"スギシタ","prefecture":"鳥取県","city":"東伯郡琴浦町","town":"杉下"},{"zip_code":"6892532","prefecture_kana":"トットリケン","city_kana":"トウハクグンコトウラチョウ","town_kana":"タイチガキ","prefecture":"鳥取県","city":"東伯郡琴浦町","town":"太一垣"},{"zip_code":"6892523","prefecture_kana":"トットリケン","city_kana":"トウハクグンコトウラチョウ","town_kana":"タカオカ","prefecture":"鳥取県","city":"東伯郡琴浦町","town":"高岡"},{"zip_code":"6892521","prefecture_kana":"トットリケン","city_kana":"トウハクグンコトウラチョウ","town_kana":"タケウチ","prefecture":"鳥取県","city":"東伯郡琴浦町","town":"竹内"},{"zip_code":"6892356","prefecture_kana":"トットリケン","city_kana":"トウハクグンコトウラチョウ","town_kana":"タコエ","prefecture":"鳥取県","city":"東伯郡琴浦町","town":"田越"},{"zip_code":"6892305","prefecture_kana":"トットリケン","city_kana":"トウハクグンコトウラチョウ","town_kana":"ツキノシタ","prefecture":"鳥取県","city":"東伯郡琴浦町","town":"槻下"},{"zip_code":"6892303","prefecture_kana":"トットリケン","city_kana":"トウハクグンコトウラチョウ","town_kana":"トクマン","prefecture":"鳥取県","city":"東伯郡琴浦町","town":"徳万"},{"zip_code":"6892311","prefecture_kana":"トットリケン","city_kana":"トウハクグンコトウラチョウ","town_kana":"ナカオ","prefecture":"鳥取県","city":"東伯郡琴浦町","town":"中尾"},{"zip_code":"6892335","prefecture_kana":"トットリケン","city_kana":"トウハクグンコトウラチョウ","town_kana":"ナカツハラ","prefecture":"鳥取県","city":"東伯郡琴浦町","town":"中津原"},{"zip_code":"6892533","prefecture_kana":"トットリケン","city_kana":"トウハクグンコトウラチョウ","town_kana":"ナカムラ","prefecture":"鳥取県","city":"東伯郡琴浦町","town":"中村"},{"zip_code":"6892513","prefecture_kana":"トットリケン","city_kana":"トウハクグンコトウラチョウ","town_kana":"ニシミヤ","prefecture":"鳥取県","city":"東伯郡琴浦町","town":"西宮"},{"zip_code":"6892336","prefecture_kana":"トットリケン","city_kana":"トウハクグンコトウラチョウ","town_kana":"ノイグラ","prefecture":"鳥取県","city":"東伯郡琴浦町","town":"野井倉"},{"zip_code":"6892346","prefecture_kana":"トットリケン","city_kana":"トウハクグンコトウラチョウ","town_kana":"ノタ","prefecture":"鳥取県","city":"東伯郡琴浦町","town":"野田"},{"zip_code":"6892544","prefecture_kana":"トットリケン","city_kana":"トウハクグンコトウラチョウ","town_kana":"ノツ","prefecture":"鳥取県","city":"東伯郡琴浦町","town":"箆津"},{"zip_code":"6892322","prefecture_kana":"トットリケン","city_kana":"トウハクグンコトウラチョウ","town_kana":"ハッタンダ","prefecture":"鳥取県","city":"東伯郡琴浦町","town":"八反田"},{"zip_code":"6892345","prefecture_kana":"トットリケン","city_kana":"トウハクグンコトウラチョウ","town_kana":"フクナガ","prefecture":"鳥取県","city":"東伯郡琴浦町","town":"福永"},{"zip_code":"6892332","prefecture_kana":"トットリケン","city_kana":"トウハクグンコトウラチョウ","town_kana":"フルナガ","prefecture":"鳥取県","city":"東伯郡琴浦町","town":"古長"},{"zip_code":"6892502","prefecture_kana":"トットリケン","city_kana":"トウハクグンコトウラチョウ","town_kana":"ベッショ","prefecture":"鳥取県","city":"東伯郡琴浦町","town":"別所"},{"zip_code":"6892333","prefecture_kana":"トットリケン","city_kana":"トウハクグンコトウラチョウ","town_kana":"ベツミヤ","prefecture":"鳥取県","city":"東伯郡琴浦町","town":"別宮"},{"zip_code":"6892351","prefecture_kana":"トットリケン","city_kana":"トウハクグンコトウラチョウ","town_kana":"ホウ","prefecture":"鳥取県","city":"東伯郡琴浦町","town":"保"},{"zip_code":"6892325","prefecture_kana":"トットリケン","city_kana":"トウハクグンコトウラチョウ","town_kana":"ホウマン","prefecture":"鳥取県","city":"東伯郡琴浦町","town":"法万"},{"zip_code":"6892503","prefecture_kana":"トットリケン","city_kana":"トウハクグンコトウラチョウ","town_kana":"マツダニ","prefecture":"鳥取県","city":"東伯郡琴浦町","town":"松谷"},{"zip_code":"6892302","prefecture_kana":"トットリケン","city_kana":"トウハクグンコトウラチョウ","town_kana":"マルオ","prefecture":"鳥取県","city":"東伯郡琴浦町","town":"丸尾"},{"zip_code":"6892534","prefecture_kana":"トットリケン","city_kana":"トウハクグンコトウラチョウ","town_kana":"ミツ","prefecture":"鳥取県","city":"東伯郡琴浦町","town":"光"},{"zip_code":"6892326","prefecture_kana":"トットリケン","city_kana":"トウハクグンコトウラチョウ","town_kana":"ミツヨシ","prefecture":"鳥取県","city":"東伯郡琴浦町","town":"光好"},{"zip_code":"6892353","prefecture_kana":"トットリケン","city_kana":"トウハクグンコトウラチョウ","town_kana":"ミホ","prefecture":"鳥取県","city":"東伯郡琴浦町","town":"三保"},{"zip_code":"6892522","prefecture_kana":"トットリケン","city_kana":"トウハクグンコトウラチョウ","town_kana":"ミヤキ","prefecture":"鳥取県","city":"東伯郡琴浦町","town":"宮木"},{"zip_code":"6892323","prefecture_kana":"トットリケン","city_kana":"トウハクグンコトウラチョウ","town_kana":"ミヤバ","prefecture":"鳥取県","city":"東伯郡琴浦町","town":"宮場"},{"zip_code":"6892354","prefecture_kana":"トットリケン","city_kana":"トウハクグンコトウラチョウ","town_kana":"ミヨシ","prefecture":"鳥取県","city":"東伯郡琴浦町","town":"美好"},{"zip_code":"6892321","prefecture_kana":"トットリケン","city_kana":"トウハクグンコトウラチョウ","town_kana":"モリトウ","prefecture":"鳥取県","city":"東伯郡琴浦町","town":"森藤"},{"zip_code":"6892324","prefecture_kana":"トットリケン","city_kana":"トウハクグンコトウラチョウ","town_kana":"ヤジタ","prefecture":"鳥取県","city":"東伯郡琴浦町","town":"矢下"},{"zip_code":"6892301","prefecture_kana":"トットリケン","city_kana":"トウハクグンコトウラチョウ","town_kana":"ヤバセ","prefecture":"鳥取県","city":"東伯郡琴浦町","town":"八橋"},{"zip_code":"6892525","prefecture_kana":"トットリケン","city_kana":"トウハクグンコトウラチョウ","town_kana":"ヤマガワ","prefecture":"鳥取県","city":"東伯郡琴浦町","town":"山川"},{"zip_code":"6892343","prefecture_kana":"トットリケン","city_kana":"トウハクグンコトウラチョウ","town_kana":"ヤマタ","prefecture":"鳥取県","city":"東伯郡琴浦町","town":"山田"},{"zip_code":"6892541","prefecture_kana":"トットリケン","city_kana":"トウハクグンコトウラチョウ","town_kana":"ヤワタ","prefecture":"鳥取県","city":"東伯郡琴浦町","town":"八幡"},{"zip_code":"6892542","prefecture_kana":"トットリケン","city_kana":"トウハクグンコトウラチョウ","town_kana":"ユザカ","prefecture":"鳥取県","city":"東伯郡琴浦町","town":"湯坂"},{"zip_code":"6892200","prefecture_kana":"トットリケン","city_kana":"トウハクグンホクエイチョウ","town_kana":"イカニケイサイガナイバアイ","prefecture":"鳥取県","city":"東伯郡北栄町","town":"以下に掲載がない場合"},{"zip_code":"6892216","prefecture_kana":"トットリケン","city_kana":"トウハクグンホクエイチョウ","town_kana":"イワツボ","prefecture":"鳥取県","city":"東伯郡北栄町","town":"岩坪"},{"zip_code":"6892101","prefecture_kana":"トットリケン","city_kana":"トウハクグンホクエイチョウ","town_kana":"エキタ","prefecture":"鳥取県","city":"東伯郡北栄町","town":"江北"},{"zip_code":"6892206","prefecture_kana":"トットリケン","city_kana":"トウハクグンホクエイチョウ","town_kana":"オオシマ","prefecture":"鳥取県","city":"東伯郡北栄町","town":"大島"},{"zip_code":"6892223","prefecture_kana":"トットリケン","city_kana":"トウハクグンホクエイチョウ","town_kana":"オオダニ","prefecture":"鳥取県","city":"東伯郡北栄町","town":"大谷"},{"zip_code":"6892213","prefecture_kana":"トットリケン","city_kana":"トウハクグンホクエイチョウ","town_kana":"カミダネ","prefecture":"鳥取県","city":"東伯郡北栄町","town":"上種"},{"zip_code":"6892211","prefecture_kana":"トットリケン","city_kana":"トウハクグンホクエイチョウ","town_kana":"カメダニ","prefecture":"鳥取県","city":"東伯郡北栄町","town":"亀谷"},{"zip_code":"6892114","prefecture_kana":"トットリケン","city_kana":"トウハクグンホクエイチョウ","town_kana":"キタオ","prefecture":"鳥取県","city":"東伯郡北栄町","town":"北尾"},{"zip_code":"6892102","prefecture_kana":"トットリケン","city_kana":"トウハクグンホクエイチョウ","town_kana":"クニサカ","prefecture":"鳥取県","city":"東伯郡北栄町","town":"国坂"},{"zip_code":"6892212","prefecture_kana":"トットリケン","city_kana":"トウハクグンホクエイチョウ","town_kana":"シモダネ","prefecture":"鳥取県","city":"東伯郡北栄町","town":"下種"},{"zip_code":"6892105","prefecture_kana":"トットリケン","city_kana":"トウハクグンホクエイチョウ","town_kana":"シモツワ","prefecture":"鳥取県","city":"東伯郡北栄町","town":"下神"},{"zip_code":"6892205","prefecture_kana":"トットリケン","city_kana":"トウハクグンホクエイチョウ","town_kana":"セト","prefecture":"鳥取県","city":"東伯郡北栄町","town":"瀬戸"},{"zip_code":"6892103","prefecture_kana":"トットリケン","city_kana":"トウハクグンホクエイチョウ","town_kana":"タイ","prefecture":"鳥取県","city":"東伯郡北栄町","town":"田井"},{"zip_code":"6892224","prefecture_kana":"トットリケン","city_kana":"トウハクグンホクエイチョウ","town_kana":"ツマナミ","prefecture":"鳥取県","city":"東伯郡北栄町","town":"妻波"},{"zip_code":"6892201","prefecture_kana":"トットリケン","city_kana":"トウハクグンホクエイチョウ","town_kana":"ニシソノ","prefecture":"鳥取県","city":"東伯郡北栄町","town":"西園"},{"zip_code":"6892215","prefecture_kana":"トットリケン","city_kana":"トウハクグンホクエイチョウ","town_kana":"ニシタカオ","prefecture":"鳥取県","city":"東伯郡北栄町","town":"西高尾"},{"zip_code":"6892207","prefecture_kana":"トットリケン","city_kana":"トウハクグンホクエイチョウ","town_kana":"ニシホナミ","prefecture":"鳥取県","city":"東伯郡北栄町","town":"西穂波"},{"zip_code":"6892111","prefecture_kana":"トットリケン","city_kana":"トウハクグンホクエイチョウ","town_kana":"ハシタ","prefecture":"鳥取県","city":"東伯郡北栄町","town":"土下"},{"zip_code":"6892203","prefecture_kana":"トットリケン","city_kana":"トウハクグンホクエイチョウ","town_kana":"ハラ","prefecture":"鳥取県","city":"東伯郡北栄町","town":"原"},{"zip_code":"6892202","prefecture_kana":"トットリケン","city_kana":"トウハクグンホクエイチョウ","town_kana":"ヒガシソノ","prefecture":"鳥取県","city":"東伯郡北栄町","town":"東園"},{"zip_code":"6892214","prefecture_kana":"トットリケン","city_kana":"トウハクグンホクエイチョウ","town_kana":"ヒガシタカオ","prefecture":"鳥取県","city":"東伯郡北栄町","town":"東高尾"},{"zip_code":"6892112","prefecture_kana":"トットリケン","city_kana":"トウハクグンホクエイチョウ","town_kana":"ホウジョウシマ","prefecture":"鳥取県","city":"東伯郡北栄町","town":"北条島"},{"zip_code":"6892204","prefecture_kana":"トットリケン","city_kana":"トウハクグンホクエイチョウ","town_kana":"ホナミ","prefecture":"鳥取県","city":"東伯郡北栄町","town":"穂波"},{"zip_code":"6892115","prefecture_kana":"トットリケン","city_kana":"トウハクグンホクエイチョウ","town_kana":"マガリ","prefecture":"鳥取県","city":"東伯郡北栄町","town":"曲"},{"zip_code":"6892106","prefecture_kana":"トットリケン","city_kana":"トウハクグンホクエイチョウ","town_kana":"マツガミ","prefecture":"鳥取県","city":"東伯郡北栄町","town":"松神"},{"zip_code":"6892208","prefecture_kana":"トットリケン","city_kana":"トウハクグンホクエイチョウ","town_kana":"ムツオ","prefecture":"鳥取県","city":"東伯郡北栄町","town":"六尾"},{"zip_code":"6892104","prefecture_kana":"トットリケン","city_kana":"トウハクグンホクエイチョウ","town_kana":"ユミハラ","prefecture":"鳥取県","city":"東伯郡北栄町","town":"弓原"},{"zip_code":"6892221","prefecture_kana":"トットリケン","city_kana":"トウハクグンホクエイチョウ","town_kana":"ユラシュク","prefecture":"鳥取県","city":"東伯郡北栄町","town":"由良宿"},{"zip_code":"6892113","prefecture_kana":"トットリケン","city_kana":"トウハクグンホクエイチョウ","town_kana":"ヨネサト","prefecture":"鳥取県","city":"東伯郡北栄町","town":"米里"},{"zip_code":"6893500","prefecture_kana":"トットリケン","city_kana":"サイハクグンヒエヅソン","town_kana":"イカニケイサイガナイバアイ","prefecture":"鳥取県","city":"西伯郡日吉津村","town":"以下に掲載がない場合"},{"zip_code":"6893551","prefecture_kana":"トットリケン","city_kana":"サイハクグンヒエヅソン","town_kana":"イマヨシ","prefecture":"鳥取県","city":"西伯郡日吉津村","town":"今吉"},{"zip_code":"6893552","prefecture_kana":"トットリケン","city_kana":"サイハクグンヒエヅソン","town_kana":"トミヨシ","prefecture":"鳥取県","city":"西伯郡日吉津村","town":"富吉"},{"zip_code":"6893553","prefecture_kana":"トットリケン","city_kana":"サイハクグンヒエヅソン","town_kana":"ヒエヅ","prefecture":"鳥取県","city":"西伯郡日吉津村","town":"日吉津"},{"zip_code":"6893200","prefecture_kana":"トットリケン","city_kana":"サイハクグンダイセンチョウ","town_kana":"イカニケイサイガナイバアイ","prefecture":"鳥取県","city":"西伯郡大山町","town":"以下に掲載がない場合"},{"zip_code":"6893111","prefecture_kana":"トットリケン","city_kana":"サイハクグンダイセンチョウ","town_kana":"アカザカ","prefecture":"鳥取県","city":"西伯郡大山町","town":"赤坂"},{"zip_code":"6893319","prefecture_kana":"トットリケン","city_kana":"サイハクグンダイセンチョウ","town_kana":"アカマツ","prefecture":"鳥取県","city":"西伯郡大山町","town":"赤松"},{"zip_code":"6893334","prefecture_kana":"トットリケン","city_kana":"サイハクグンダイセンチョウ","town_kana":"イナミツ","prefecture":"鳥取県","city":"西伯郡大山町","town":"稲光"},{"zip_code":"6893314","prefecture_kana":"トットリケン","city_kana":"サイハクグンダイセンチョウ","town_kana":"イマザイケ","prefecture":"鳥取県","city":"西伯郡大山町","town":"今在家"},{"zip_code":"6893102","prefecture_kana":"トットリケン","city_kana":"サイハクグンダイセンチョウ","town_kana":"イワイガキ","prefecture":"鳥取県","city":"西伯郡大山町","town":"石井垣"},{"zip_code":"6893302","prefecture_kana":"トットリケン","city_kana":"サイハクグンダイセンチョウ","town_kana":"ウエノ","prefecture":"鳥取県","city":"西伯郡大山町","town":"上野"},{"zip_code":"6893124","prefecture_kana":"トットリケン","city_kana":"サイハクグンダイセンチョウ","town_kana":"ウワイチ","prefecture":"鳥取県","city":"西伯郡大山町","town":"上市"},{"zip_code":"6893226","prefecture_kana":"トットリケン","city_kana":"サイハクグンダイセンチョウ","town_kana":"オオツカ","prefecture":"鳥取県","city":"西伯郡大山町","town":"大塚"},{"zip_code":"6893121","prefecture_kana":"トットリケン","city_kana":"サイハクグンダイセンチョウ","town_kana":"オカ","prefecture":"鳥取県","city":"西伯郡大山町","town":"岡"},{"zip_code":"6893225","prefecture_kana":"トットリケン","city_kana":"サイハクグンダイセンチョウ","town_kana":"オシナラ","prefecture":"鳥取県","city":"西伯郡大山町","town":"押平"},{"zip_code":"6893214","prefecture_kana":"トットリケン","city_kana":"サイハクグンダイセンチョウ","town_kana":"カモ","prefecture":"鳥取県","city":"西伯郡大山町","town":"加茂"},{"zip_code":"6893305","prefecture_kana":"トットリケン","city_kana":"サイハクグンダイセンチョウ","town_kana":"カンバラ","prefecture":"鳥取県","city":"西伯郡大山町","town":"神原"},{"zip_code":"6893308","prefecture_kana":"トットリケン","city_kana":"サイハクグンダイセンチョウ","town_kana":"キヨハラ","prefecture":"鳥取県","city":"西伯郡大山町","town":"清原"},{"zip_code":"6893309","prefecture_kana":"トットリケン","city_kana":"サイハクグンダイセンチョウ","town_kana":"クニノブ","prefecture":"鳥取県","city":"西伯郡大山町","town":"国信"},{"zip_code":"6893202","prefecture_kana":"トットリケン","city_kana":"サイハクグンダイセンチョウ","town_kana":"クラダニ","prefecture":"鳥取県","city":"西伯郡大山町","town":"倉谷"},{"zip_code":"6893203","prefecture_kana":"トットリケン","city_kana":"サイハクグンダイセンチョウ","town_kana":"コダケ","prefecture":"鳥取県","city":"西伯郡大山町","town":"小竹"},{"zip_code":"6893222","prefecture_kana":"トットリケン","city_kana":"サイハクグンダイセンチョウ","town_kana":"コミドウ","prefecture":"鳥取県","city":"西伯郡大山町","town":"古御堂"},{"zip_code":"6893115","prefecture_kana":"トットリケン","city_kana":"サイハクグンダイセンチョウ","town_kana":"サカエダ","prefecture":"鳥取県","city":"西伯郡大山町","town":"栄田"},{"zip_code":"6893313","prefecture_kana":"トットリケン","city_kana":"サイハクグンダイセンチョウ","town_kana":"サマ","prefecture":"鳥取県","city":"西伯郡大山町","town":"佐摩"},{"zip_code":"6893122","prefecture_kana":"トットリケン","city_kana":"サイハクグンダイセンチョウ","town_kana":"シオツ","prefecture":"鳥取県","city":"西伯郡大山町","town":"塩津"},{"zip_code":"6893125","prefecture_kana":"トットリケン","city_kana":"サイハクグンダイセンチョウ","town_kana":"シモイチ","prefecture":"鳥取県","city":"西伯郡大山町","town":"下市"},{"zip_code":"6893112","prefecture_kana":"トットリケン","city_kana":"サイハクグンダイセンチョウ","town_kana":"シモギ","prefecture":"鳥取県","city":"西伯郡大山町","town":"下甲"},{"zip_code":"6893323","prefecture_kana":"トットリケン","city_kana":"サイハクグンダイセンチョウ","town_kana":"ショウダ","prefecture":"鳥取県","city":"西伯郡大山町","town":"荘田"},{"zip_code":"6893335","prefecture_kana":"トットリケン","city_kana":"サイハクグンダイセンチョウ","town_kana":"ジョウマン","prefecture":"鳥取県","city":"西伯郡大山町","town":"上万"},{"zip_code":"6893332","prefecture_kana":"トットリケン","city_kana":"サイハクグンダイセンチョウ","town_kana":"スエナガ","prefecture":"鳥取県","city":"西伯郡大山町","town":"末長"},{"zip_code":"6893331","prefecture_kana":"トットリケン","city_kana":"サイハクグンダイセンチョウ","town_kana":"スエヨシ","prefecture":"鳥取県","city":"西伯郡大山町","town":"末吉"},{"zip_code":"6893123","prefecture_kana":"トットリケン","city_kana":"サイハクグンダイセンチョウ","town_kana":"スミヨシ","prefecture":"鳥取県","city":"西伯郡大山町","town":"住吉"},{"zip_code":"6893133","prefecture_kana":"トットリケン","city_kana":"サイハクグンダイセンチョウ","town_kana":"タイキュウジ","prefecture":"鳥取県","city":"西伯郡大山町","town":"退休寺"},{"zip_code":"6893318","prefecture_kana":"トットリケン","city_kana":"サイハクグンダイセンチョウ","town_kana":"ダイセン","prefecture":"鳥取県","city":"西伯郡大山町","town":"大山"},{"zip_code":"6893224","prefecture_kana":"トットリケン","city_kana":"サイハクグンダイセンチョウ","town_kana":"タカタ","prefecture":"鳥取県","city":"西伯郡大山町","town":"高田"},{"zip_code":"6893134","prefecture_kana":"トットリケン","city_kana":"サイハクグンダイセンチョウ","town_kana":"タカハシ","prefecture":"鳥取県","city":"西伯郡大山町","town":"高橋"},{"zip_code":"6893317","prefecture_kana":"トットリケン","city_kana":"サイハクグンダイセンチョウ","town_kana":"タタラド","prefecture":"鳥取県","city":"西伯郡大山町","town":"鈑戸"},{"zip_code":"6893114","prefecture_kana":"トットリケン","city_kana":"サイハクグンダイセンチョウ","town_kana":"タナカ","prefecture":"鳥取県","city":"西伯郡大山町","town":"田中"},{"zip_code":"6893223","prefecture_kana":"トットリケン","city_kana":"サイハクグンダイセンチョウ","town_kana":"チャバタ","prefecture":"鳥取県","city":"西伯郡大山町","town":"茶畑"},{"zip_code":"6893101","prefecture_kana":"トットリケン","city_kana":"サイハクグンダイセンチョウ","town_kana":"チョウオンジ","prefecture":"鳥取県","city":"西伯郡大山町","town":"潮音寺"},{"zip_code":"6893105","prefecture_kana":"トットリケン","city_kana":"サイハクグンダイセンチョウ","town_kana":"ツカヅミ","prefecture":"鳥取県","city":"西伯郡大山町","town":"束積"},{"zip_code":"6893333","prefecture_kana":"トットリケン","city_kana":"サイハクグンダイセンチョウ","town_kana":"トウノウ","prefecture":"鳥取県","city":"西伯郡大山町","town":"唐王"},{"zip_code":"6893303","prefecture_kana":"トットリケン","city_kana":"サイハクグンダイセンチョウ","town_kana":"トコロゴ","prefecture":"鳥取県","city":"西伯郡大山町","town":"所子"},{"zip_code":"6893135","prefecture_kana":"トットリケン","city_kana":"サイハクグンダイセンチョウ","town_kana":"トノガワチ","prefecture":"鳥取県","city":"西伯郡大山町","town":"殿河内"},{"zip_code":"6893325","prefecture_kana":"トットリケン","city_kana":"サイハクグンダイセンチョウ","town_kana":"トミオカ","prefecture":"鳥取県","city":"西伯郡大山町","town":"富岡"},{"zip_code":"6893221","prefecture_kana":"トットリケン","city_kana":"サイハクグンダイセンチョウ","town_kana":"トミナガ","prefecture":"鳥取県","city":"西伯郡大山町","town":"富長"},{"zip_code":"6893201","prefecture_kana":"トットリケン","city_kana":"サイハクグンダイセンチョウ","town_kana":"トヨシゲ","prefecture":"鳥取県","city":"西伯郡大山町","town":"豊成"},{"zip_code":"6893316","prefecture_kana":"トットリケン","city_kana":"サイハクグンダイセンチョウ","town_kana":"トヨフサ","prefecture":"鳥取県","city":"西伯郡大山町","town":"豊房"},{"zip_code":"6893322","prefecture_kana":"トットリケン","city_kana":"サイハクグンダイセンチョウ","town_kana":"ナガタ","prefecture":"鳥取県","city":"西伯郡大山町","town":"長田"},{"zip_code":"6893306","prefecture_kana":"トットリケン","city_kana":"サイハクグンダイセンチョウ","town_kana":"ナカダカ","prefecture":"鳥取県","city":"西伯郡大山町","town":"中高"},{"zip_code":"6893136","prefecture_kana":"トットリケン","city_kana":"サイハクグンダイセンチョウ","town_kana":"ナガノ","prefecture":"鳥取県","city":"西伯郡大山町","town":"長野"},{"zip_code":"6893212","prefecture_kana":"トットリケン","city_kana":"サイハクグンダイセンチョウ","town_kana":"ナワ","prefecture":"鳥取県","city":"西伯郡大山町","town":"名和"},{"zip_code":"6893205","prefecture_kana":"トットリケン","city_kana":"サイハクグンダイセンチョウ","town_kana":"ニシツボ","prefecture":"鳥取県","city":"西伯郡大山町","town":"西坪"},{"zip_code":"6893307","prefecture_kana":"トットリケン","city_kana":"サイハクグンダイセンチョウ","town_kana":"ノダ","prefecture":"鳥取県","city":"西伯郡大山町","town":"野田"},{"zip_code":"6893106","prefecture_kana":"トットリケン","city_kana":"サイハクグンダイセンチョウ","town_kana":"ハタイ","prefecture":"鳥取県","city":"西伯郡大山町","town":"羽田井"},{"zip_code":"6893204","prefecture_kana":"トットリケン","city_kana":"サイハクグンダイセンチョウ","town_kana":"ヒガシツボ","prefecture":"鳥取県","city":"西伯郡大山町","town":"東坪"},{"zip_code":"6893103","prefecture_kana":"トットリケン","city_kana":"サイハクグンダイセンチョウ","town_kana":"ヒノクチ","prefecture":"鳥取県","city":"西伯郡大山町","town":"樋口"},{"zip_code":"6893321","prefecture_kana":"トットリケン","city_kana":"サイハクグンダイセンチョウ","town_kana":"ヒラ","prefecture":"鳥取県","city":"西伯郡大山町","town":"平"},{"zip_code":"6893304","prefecture_kana":"トットリケン","city_kana":"サイハクグンダイセンチョウ","town_kana":"ヒラギ","prefecture":"鳥取県","city":"西伯郡大山町","town":"平木"},{"zip_code":"6893336","prefecture_kana":"トットリケン","city_kana":"サイハクグンダイセンチョウ","town_kana":"ヒラダ","prefecture":"鳥取県","city":"西伯郡大山町","town":"平田"},{"zip_code":"6893301","prefecture_kana":"トットリケン","city_kana":"サイハクグンダイセンチョウ","town_kana":"フクオ","prefecture":"鳥取県","city":"西伯郡大山町","town":"福尾"},{"zip_code":"6893312","prefecture_kana":"トットリケン","city_kana":"サイハクグンダイセンチョウ","town_kana":"ボウリョウ","prefecture":"鳥取県","city":"西伯郡大山町","town":"坊領"},{"zip_code":"6893315","prefecture_kana":"トットリケン","city_kana":"サイハクグンダイセンチョウ","town_kana":"マエ","prefecture":"鳥取県","city":"西伯郡大山町","town":"前"},{"zip_code":"6893132","prefecture_kana":"トットリケン","city_kana":"サイハクグンダイセンチョウ","town_kana":"マツガワラ","prefecture":"鳥取県","city":"西伯郡大山町","town":"松河原"},{"zip_code":"6893211","prefecture_kana":"トットリケン","city_kana":"サイハクグンダイセンチョウ","town_kana":"ミクリヤ","prefecture":"鳥取県","city":"西伯郡大山町","town":"御来屋"},{"zip_code":"6893113","prefecture_kana":"トットリケン","city_kana":"サイハクグンダイセンチョウ","town_kana":"ミサキ","prefecture":"鳥取県","city":"西伯郡大山町","town":"御崎"},{"zip_code":"6893311","prefecture_kana":"トットリケン","city_kana":"サイハクグンダイセンチョウ","town_kana":"ミヤウチ","prefecture":"鳥取県","city":"西伯郡大山町","town":"宮内"},{"zip_code":"6893324","prefecture_kana":"トットリケン","city_kana":"サイハクグンダイセンチョウ","town_kana":"ムキ","prefecture":"鳥取県","city":"西伯郡大山町","town":"妻木"},{"zip_code":"6893213","prefecture_kana":"トットリケン","city_kana":"サイハクグンダイセンチョウ","town_kana":"モンゼン","prefecture":"鳥取県","city":"西伯郡大山町","town":"門前"},{"zip_code":"6893104","prefecture_kana":"トットリケン","city_kana":"サイハクグンダイセンチョウ","town_kana":"ヤエ","prefecture":"鳥取県","city":"西伯郡大山町","town":"八重"},{"zip_code":"6893327","prefecture_kana":"トットリケン","city_kana":"サイハクグンダイセンチョウ","town_kana":"ヤスダ","prefecture":"鳥取県","city":"西伯郡大山町","town":"保田"},{"zip_code":"6893326","prefecture_kana":"トットリケン","city_kana":"サイハクグンダイセンチョウ","town_kana":"ヤスハラ","prefecture":"鳥取県","city":"西伯郡大山町","town":"安原"},{"zip_code":"6830300","prefecture_kana":"トットリケン","city_kana":"サイハクグンナンブチョウ","town_kana":"イカニケイサイガナイバアイ","prefecture":"鳥取県","city":"西伯郡南部町","town":"以下に掲載がない場合"},{"zip_code":"6830322","prefecture_kana":"トットリケン","city_kana":"サイハクグンナンブチョウ","town_kana":"アガ","prefecture":"鳥取県","city":"西伯郡南部町","town":"阿賀"},{"zip_code":"6830227","prefecture_kana":"トットリケン","city_kana":"サイハクグンナンブチョウ","town_kana":"アサイ","prefecture":"鳥取県","city":"西伯郡南部町","town":"浅井"},{"zip_code":"6830216","prefecture_kana":"トットリケン","city_kana":"サイハクグンナンブチョウ","town_kana":"アサカネ","prefecture":"鳥取県","city":"西伯郡南部町","town":"朝金"},{"zip_code":"6830218","prefecture_kana":"トットリケン","city_kana":"サイハクグンナンブチョウ","town_kana":"イケノ","prefecture":"鳥取県","city":"西伯郡南部町","town":"池野"},{"zip_code":"6830222","prefecture_kana":"トットリケン","city_kana":"サイハクグンナンブチョウ","town_kana":"イチヤマ","prefecture":"鳥取県","city":"西伯郡南部町","town":"市山"},{"zip_code":"6830223","prefecture_kana":"トットリケン","city_kana":"サイハクグンナンブチョウ","town_kana":"イノウエ","prefecture":"鳥取県","city":"西伯郡南部町","town":"井上"},{"zip_code":"6830367","prefecture_kana":"トットリケン","city_kana":"サイハクグンナンブチョウ","town_kana":"イノコウジ","prefecture":"鳥取県","city":"西伯郡南部町","town":"猪小路"},{"zip_code":"6830345","prefecture_kana":"トットリケン","city_kana":"サイハクグンナンブチョウ","town_kana":"オオキヤ","prefecture":"鳥取県","city":"西伯郡南部町","town":"大木屋"},{"zip_code":"6830215","prefecture_kana":"トットリケン","city_kana":"サイハクグンナンブチョウ","town_kana":"オギナ","prefecture":"鳥取県","city":"西伯郡南部町","town":"荻名"},{"zip_code":"6830337","prefecture_kana":"トットリケン","city_kana":"サイハクグンナンブチョウ","town_kana":"オチアイ","prefecture":"鳥取県","city":"西伯郡南部町","town":"落合"},{"zip_code":"6830331","prefecture_kana":"トットリケン","city_kana":"サイハクグンナンブチョウ","town_kana":"カケアイ","prefecture":"鳥取県","city":"西伯郡南部町","town":"掛相"},{"zip_code":"6830224","prefecture_kana":"トットリケン","city_kana":"サイハクグンナンブチョウ","town_kana":"カネダ","prefecture":"鳥取県","city":"西伯郡南部町","town":"金田"},{"zip_code":"6830344","prefecture_kana":"トットリケン","city_kana":"サイハクグンナンブチョウ","town_kana":"カミナカタニ","prefecture":"鳥取県","city":"西伯郡南部町","town":"上中谷"},{"zip_code":"6830341","prefecture_kana":"トットリケン","city_kana":"サイハクグンナンブチョウ","town_kana":"カモベ","prefecture":"鳥取県","city":"西伯郡南部町","town":"鴨部"},{"zip_code":"6830361","prefecture_kana":"トットリケン","city_kana":"サイハクグンナンブチョウ","town_kana":"キタガタ","prefecture":"鳥取県","city":"西伯郡南部町","town":"北方"},{"zip_code":"6830364","prefecture_kana":"トットリケン","city_kana":"サイハクグンナンブチョウ","town_kana":"キヌヤ","prefecture":"鳥取県","city":"西伯郡南部町","town":"絹屋"},{"zip_code":"6830356","prefecture_kana":"トットリケン","city_kana":"サイハクグンナンブチョウ","town_kana":"キリクイ","prefecture":"鳥取県","city":"西伯郡南部町","town":"伐株"},{"zip_code":"6830311","prefecture_kana":"トットリケン","city_kana":"サイハクグンナンブチョウ","town_kana":"サカエ","prefecture":"鳥取県","city":"西伯郡南部町","town":"境"},{"zip_code":"6830321","prefecture_kana":"トットリケン","city_kana":"サイハクグンナンブチョウ","town_kana":"シミズガワ","prefecture":"鳥取県","city":"西伯郡南部町","town":"清水川"},{"zip_code":"6830343","prefecture_kana":"トットリケン","city_kana":"サイハクグンナンブチョウ","town_kana":"シモナカタニ","prefecture":"鳥取県","city":"西伯郡南部町","town":"下中谷"},{"zip_code":"6830226","prefecture_kana":"トットリケン","city_kana":"サイハクグンナンブチョウ","town_kana":"タカヒメ","prefecture":"鳥取県","city":"西伯郡南部町","town":"高姫"},{"zip_code":"6830354","prefecture_kana":"トットリケン","city_kana":"サイハクグンナンブチョウ","town_kana":"タケノブ","prefecture":"鳥取県","city":"西伯郡南部町","town":"武信"},{"zip_code":"6830214","prefecture_kana":"トットリケン","city_kana":"サイハクグンナンブチョウ","town_kana":"タスミ","prefecture":"鳥取県","city":"西伯郡南部町","town":"田住"},{"zip_code":"6830217","prefecture_kana":"トットリケン","city_kana":"サイハクグンナンブチョウ","town_kana":"ツルダ","prefecture":"鳥取県","city":"西伯郡南部町","town":"鶴田"},{"zip_code":"6830202","prefecture_kana":"トットリケン","city_kana":"サイハクグンナンブチョウ","town_kana":"テラウチ","prefecture":"鳥取県","city":"西伯郡南部町","town":"寺内"},{"zip_code":"6830201","prefecture_kana":"トットリケン","city_kana":"サイハクグンナンブチョウ","town_kana":"テンマン","prefecture":"鳥取県","city":"西伯郡南部町","town":"天万"},{"zip_code":"6830355","prefecture_kana":"トットリケン","city_kana":"サイハクグンナンブチョウ","town_kana":"ドウガワウチ","prefecture":"鳥取県","city":"西伯郡南部町","town":"道河内"},{"zip_code":"6830334","prefecture_kana":"トットリケン","city_kana":"サイハクグンナンブチョウ","town_kana":"トウジョウ","prefecture":"鳥取県","city":"西伯郡南部町","town":"東上"},{"zip_code":"6830353","prefecture_kana":"トットリケン","city_kana":"サイハクグンナンブチョウ","town_kana":"トクナガ","prefecture":"鳥取県","city":"西伯郡南部町","town":"徳長"},{"zip_code":"6830335","prefecture_kana":"トットリケン","city_kana":"サイハクグンナンブチョウ","town_kana":"ナカ","prefecture":"鳥取県","city":"西伯郡南部町","town":"中"},{"zip_code":"6830365","prefecture_kana":"トットリケン","city_kana":"サイハクグンナンブチョウ","town_kana":"ナベクラ","prefecture":"鳥取県","city":"西伯郡南部町","town":"鍋倉"},{"zip_code":"6830363","prefecture_kana":"トットリケン","city_kana":"サイハクグンナンブチョウ","town_kana":"ニシ","prefecture":"鳥取県","city":"西伯郡南部町","town":"西"},{"zip_code":"6830213","prefecture_kana":"トットリケン","city_kana":"サイハクグンナンブチョウ","town_kana":"ニシバラ","prefecture":"鳥取県","city":"西伯郡南部町","town":"西原"},{"zip_code":"6830302","prefecture_kana":"トットリケン","city_kana":"サイハクグンナンブチョウ","town_kana":"ニシマチ","prefecture":"鳥取県","city":"西伯郡南部町","town":"西町"},{"zip_code":"6830342","prefecture_kana":"トットリケン","city_kana":"サイハクグンナンブチョウ","town_kana":"ノウジク","prefecture":"鳥取県","city":"西伯郡南部町","town":"能竹"},{"zip_code":"6830332","prefecture_kana":"トットリケン","city_kana":"サイハクグンナンブチョウ","town_kana":"バサラ","prefecture":"鳥取県","city":"西伯郡南部町","town":"馬佐良"},{"zip_code":"6830352","prefecture_kana":"トットリケン","city_kana":"サイハクグンナンブチョウ","town_kana":"ババ","prefecture":"鳥取県","city":"西伯郡南部町","town":"馬場"},{"zip_code":"6830362","prefecture_kana":"トットリケン","city_kana":"サイハクグンナンブチョウ","town_kana":"ハラ","prefecture":"鳥取県","city":"西伯郡南部町","town":"原"},{"zip_code":"6830301","prefecture_kana":"トットリケン","city_kana":"サイハクグンナンブチョウ","town_kana":"ヒガシマチ","prefecture":"鳥取県","city":"西伯郡南部町","town":"東町"},{"zip_code":"6830204","prefecture_kana":"トットリケン","city_kana":"サイハクグンナンブチョウ","town_kana":"フクサト","prefecture":"鳥取県","city":"西伯郡南部町","town":"福里"},{"zip_code":"6830312","prefecture_kana":"トットリケン","city_kana":"サイハクグンナンブチョウ","town_kana":"フクナリ","prefecture":"鳥取県","city":"西伯郡南部町","town":"福成"},{"zip_code":"6830336","prefecture_kana":"トットリケン","city_kana":"サイハクグンナンブチョウ","town_kana":"フクヨリ","prefecture":"鳥取県","city":"西伯郡南部町","town":"福頼"},{"zip_code":"6830351","prefecture_kana":"トットリケン","city_kana":"サイハクグンナンブチョウ","town_kana":"ホッショウジ","prefecture":"鳥取県","city":"西伯郡南部町","town":"法勝寺"},{"zip_code":"6830211","prefecture_kana":"トットリケン","city_kana":"サイハクグンナンブチョウ","town_kana":"マルヤマ","prefecture":"鳥取県","city":"西伯郡南部町","town":"円山"},{"zip_code":"6830225","prefecture_kana":"トットリケン","city_kana":"サイハクグンナンブチョウ","town_kana":"ミウチダニ","prefecture":"鳥取県","city":"西伯郡南部町","town":"御内谷"},{"zip_code":"6830203","prefecture_kana":"トットリケン","city_kana":"サイハクグンナンブチョウ","town_kana":"ミサキ","prefecture":"鳥取県","city":"西伯郡南部町","town":"三崎"},{"zip_code":"6830221","prefecture_kana":"トットリケン","city_kana":"サイハクグンナンブチョウ","town_kana":"ミヤマエ","prefecture":"鳥取県","city":"西伯郡南部町","town":"宮前"},{"zip_code":"6830212","prefecture_kana":"トットリケン","city_kana":"サイハクグンナンブチョウ","town_kana":"モロギ","prefecture":"鳥取県","city":"西伯郡南部町","town":"諸木"},{"zip_code":"6830333","prefecture_kana":"トットリケン","city_kana":"サイハクグンナンブチョウ","town_kana":"ヤカネ","prefecture":"鳥取県","city":"西伯郡南部町","town":"八金"},{"zip_code":"6830323","prefecture_kana":"トットリケン","city_kana":"サイハクグンナンブチョウ","town_kana":"ヤマト","prefecture":"鳥取県","city":"西伯郡南部町","town":"倭"},{"zip_code":"6830366","prefecture_kana":"トットリケン","city_kana":"サイハクグンナンブチョウ","town_kana":"ヨイチダニ","prefecture":"鳥取県","city":"西伯郡南部町","town":"与一谷"},{"zip_code":"6894100","prefecture_kana":"トットリケン","city_kana":"サイハクグンホウキチョウ","town_kana":"イカニケイサイガナイバアイ","prefecture":"鳥取県","city":"西伯郡伯耆町","town":"以下に掲載がない場合"},{"zip_code":"6894214","prefecture_kana":"トットリケン","city_kana":"サイハクグンホウキチョウ","town_kana":"イワタテ","prefecture":"鳥取県","city":"西伯郡伯耆町","town":"岩立"},{"zip_code":"6894123","prefecture_kana":"トットリケン","city_kana":"サイハクグンホウキチョウ","town_kana":"イワヤダニ","prefecture":"鳥取県","city":"西伯郡伯耆町","town":"岩屋谷"},{"zip_code":"6894212","prefecture_kana":"トットリケン","city_kana":"サイハクグンホウキチョウ","town_kana":"ウエノ","prefecture":"鳥取県","city":"西伯郡伯耆町","town":"上野"},{"zip_code":"6894207","prefecture_kana":"トットリケン","city_kana":"サイハクグンホウキチョウ","town_kana":"ウダイ","prefecture":"鳥取県","city":"西伯郡伯耆町","town":"宇代"},{"zip_code":"6894134","prefecture_kana":"トットリケン","city_kana":"サイハクグンホウキチョウ","town_kana":"エンドウ","prefecture":"鳥取県","city":"西伯郡伯耆町","town":"遠藤"},{"zip_code":"6894215","prefecture_kana":"トットリケン","city_kana":"サイハクグンホウキチョウ","town_kana":"オオウチ","prefecture":"鳥取県","city":"西伯郡伯耆町","town":"大内"},{"zip_code":"6894211","prefecture_kana":"トットリケン","city_kana":"サイハクグンホウキチョウ","town_kana":"オオエ","prefecture":"鳥取県","city":"西伯郡伯耆町","town":"大江"},{"zip_code":"6894205","prefecture_kana":"トットリケン","city_kana":"サイハクグンホウキチョウ","town_kana":"オオクラ","prefecture":"鳥取県","city":"西伯郡伯耆町","town":"大倉"},{"zip_code":"6894226","prefecture_kana":"トットリケン","city_kana":"サイハクグンホウキチョウ","town_kana":"オオサカ","prefecture":"鳥取県","city":"西伯郡伯耆町","town":"大坂"},{"zip_code":"6894222","prefecture_kana":"トットリケン","city_kana":"サイハクグンホウキチョウ","town_kana":"オオタキ","prefecture":"鳥取県","city":"西伯郡伯耆町","town":"大滝"},{"zip_code":"6894121","prefecture_kana":"トットリケン","city_kana":"サイハクグンホウキチョウ","town_kana":"オオトノ","prefecture":"鳥取県","city":"西伯郡伯耆町","town":"大殿"},{"zip_code":"6894102","prefecture_kana":"トットリケン","city_kana":"サイハクグンホウキチョウ","town_kana":"オオハラ","prefecture":"鳥取県","city":"西伯郡伯耆町","town":"大原"},{"zip_code":"6894135","prefecture_kana":"トットリケン","city_kana":"サイハクグンホウキチョウ","town_kana":"オサエグチ","prefecture":"鳥取県","city":"西伯郡伯耆町","town":"押口"},{"zip_code":"6894113","prefecture_kana":"トットリケン","city_kana":"サイハクグンホウキチョウ","town_kana":"オノ","prefecture":"鳥取県","city":"西伯郡伯耆町","town":"小野"},{"zip_code":"6894213","prefecture_kana":"トットリケン","city_kana":"サイハクグンホウキチョウ","town_kana":"カナヤダニ","prefecture":"鳥取県","city":"西伯郡伯耆町","town":"金屋谷"},{"zip_code":"6894112","prefecture_kana":"トットリケン","city_kana":"サイハクグンホウキチョウ","town_kana":"カミホソミ","prefecture":"鳥取県","city":"西伯郡伯耆町","town":"上細見"},{"zip_code":"6894132","prefecture_kana":"トットリケン","city_kana":"サイハクグンホウキチョウ","town_kana":"キシモト","prefecture":"鳥取県","city":"西伯郡伯耆町","town":"岸本"},{"zip_code":"6894203","prefecture_kana":"トットリケン","city_kana":"サイハクグンホウキチョウ","town_kana":"キズミ","prefecture":"鳥取県","city":"西伯郡伯耆町","town":"貴住"},{"zip_code":"6894111","prefecture_kana":"トットリケン","city_kana":"サイハクグンホウキチョウ","town_kana":"キヨハラ","prefecture":"鳥取県","city":"西伯郡伯耆町","town":"清原"},{"zip_code":"6894105","prefecture_kana":"トットリケン","city_kana":"サイハクグンホウキチョウ","town_kana":"クゴ","prefecture":"鳥取県","city":"西伯郡伯耆町","town":"久古"},{"zip_code":"6894106","prefecture_kana":"トットリケン","city_kana":"サイハクグンホウキチョウ","town_kana":"クチベッシヨ","prefecture":"鳥取県","city":"西伯郡伯耆町","town":"口別所"},{"zip_code":"6894101","prefecture_kana":"トットリケン","city_kana":"サイハクグンホウキチョウ","town_kana":"コバヤシ","prefecture":"鳥取県","city":"西伯郡伯耆町","town":"小林"},{"zip_code":"6894115","prefecture_kana":"トットリケン","city_kana":"サイハクグンホウキチョウ","town_kana":"コマチ","prefecture":"鳥取県","city":"西伯郡伯耆町","town":"小町"},{"zip_code":"6894122","prefecture_kana":"トットリケン","city_kana":"サイハクグンホウキチョウ","town_kana":"サカチョウ","prefecture":"鳥取県","city":"西伯郡伯耆町","town":"坂長"},{"zip_code":"6894246","prefecture_kana":"トットリケン","city_kana":"サイハクグンホウキチョウ","town_kana":"サンブ","prefecture":"鳥取県","city":"西伯郡伯耆町","town":"三部"},{"zip_code":"6894243","prefecture_kana":"トットリケン","city_kana":"サイハクグンホウキチョウ","town_kana":"ショウ","prefecture":"鳥取県","city":"西伯郡伯耆町","town":"荘"},{"zip_code":"6894225","prefecture_kana":"トットリケン","city_kana":"サイハクグンホウキチョウ","town_kana":"シラミ","prefecture":"鳥取県","city":"西伯郡伯耆町","town":"白水"},{"zip_code":"6894107","prefecture_kana":"トットリケン","city_kana":"サイハクグンホウキチョウ","town_kana":"スムラ","prefecture":"鳥取県","city":"西伯郡伯耆町","town":"須村"},{"zip_code":"6894217","prefecture_kana":"トットリケン","city_kana":"サイハクグンホウキチョウ","town_kana":"ソエダニ","prefecture":"鳥取県","city":"西伯郡伯耆町","town":"添谷"},{"zip_code":"6894114","prefecture_kana":"トットリケン","city_kana":"サイハクグンホウキチョウ","town_kana":"タテイワ","prefecture":"鳥取県","city":"西伯郡伯耆町","town":"立岩"},{"zip_code":"6894204","prefecture_kana":"トットリケン","city_kana":"サイハクグンホウキチョウ","town_kana":"タニガワ","prefecture":"鳥取県","city":"西伯郡伯耆町","town":"谷川"},{"zip_code":"6894244","prefecture_kana":"トットリケン","city_kana":"サイハクグンホウキチョウ","town_kana":"チチバラ","prefecture":"鳥取県","city":"西伯郡伯耆町","town":"父原"},{"zip_code":"6894223","prefecture_kana":"トットリケン","city_kana":"サイハクグンホウキチョウ","town_kana":"トチバラ","prefecture":"鳥取県","city":"西伯郡伯耆町","town":"栃原"},{"zip_code":"6894221","prefecture_kana":"トットリケン","city_kana":"サイハクグンホウキチョウ","town_kana":"トミエ","prefecture":"鳥取県","city":"西伯郡伯耆町","town":"富江"},{"zip_code":"6894241","prefecture_kana":"トットリケン","city_kana":"サイハクグンホウキチョウ","town_kana":"ナカゾ","prefecture":"鳥取県","city":"西伯郡伯耆町","town":"中祖"},{"zip_code":"6894202","prefecture_kana":"トットリケン","city_kana":"サイハクグンホウキチョウ","town_kana":"ナガヤマ","prefecture":"鳥取県","city":"西伯郡伯耆町","town":"長山"},{"zip_code":"6894233","prefecture_kana":"トットリケン","city_kana":"サイハクグンホウキチョウ","town_kana":"ニブ","prefecture":"鳥取県","city":"西伯郡伯耆町","town":"二部"},{"zip_code":"6894224","prefecture_kana":"トットリケン","city_kana":"サイハクグンホウキチョウ","town_kana":"ネウバラ","prefecture":"鳥取県","city":"西伯郡伯耆町","town":"根雨原"},{"zip_code":"6894234","prefecture_kana":"トットリケン","city_kana":"サイハクグンホウキチョウ","town_kana":"ハタイケ","prefecture":"鳥取県","city":"西伯郡伯耆町","town":"畑池"},{"zip_code":"6894104","prefecture_kana":"トットリケン","city_kana":"サイハクグンホウキチョウ","town_kana":"バンバラ","prefecture":"鳥取県","city":"西伯郡伯耆町","town":"番原"},{"zip_code":"6894237","prefecture_kana":"トットリケン","city_kana":"サイハクグンホウキチョウ","town_kana":"フクイ","prefecture":"鳥取県","city":"西伯郡伯耆町","town":"福居"},{"zip_code":"6894235","prefecture_kana":"トットリケン","city_kana":"サイハクグンホウキチョウ","town_kana":"フクオカ","prefecture":"鳥取県","city":"西伯郡伯耆町","town":"福岡"},{"zip_code":"6894136","prefecture_kana":"トットリケン","city_kana":"サイハクグンホウキチョウ","town_kana":"フクオカハラ","prefecture":"鳥取県","city":"西伯郡伯耆町","town":"福岡原"},{"zip_code":"6894216","prefecture_kana":"トットリケン","city_kana":"サイハクグンホウキチョウ","town_kana":"フクカネ","prefecture":"鳥取県","city":"西伯郡伯耆町","town":"福兼"},{"zip_code":"6894232","prefecture_kana":"トットリケン","city_kana":"サイハクグンホウキチョウ","town_kana":"フクジマ","prefecture":"鳥取県","city":"西伯郡伯耆町","town":"福島"},{"zip_code":"6894245","prefecture_kana":"トットリケン","city_kana":"サイハクグンホウキチョウ","town_kana":"フクヨシ","prefecture":"鳥取県","city":"西伯郡伯耆町","town":"福吉"},{"zip_code":"6894231","prefecture_kana":"トットリケン","city_kana":"サイハクグンホウキチョウ","town_kana":"フナコシ","prefecture":"鳥取県","city":"西伯郡伯耆町","town":"船越"},{"zip_code":"6894242","prefecture_kana":"トットリケン","city_kana":"サイハクグンホウキチョウ","town_kana":"フルイチ","prefecture":"鳥取県","city":"西伯郡伯耆町","town":"古市"},{"zip_code":"6894103","prefecture_kana":"トットリケン","city_kana":"サイハクグンホウキチョウ","town_kana":"マノ","prefecture":"鳥取県","city":"西伯郡伯耆町","town":"真野"},{"zip_code":"6894108","prefecture_kana":"トットリケン","city_kana":"サイハクグンホウキチョウ","town_kana":"マルヤマ","prefecture":"鳥取県","city":"西伯郡伯耆町","town":"丸山"},{"zip_code":"6894201","prefecture_kana":"トットリケン","city_kana":"サイハクグンホウキチョウ","town_kana":"ミゾクチ","prefecture":"鳥取県","city":"西伯郡伯耆町","town":"溝口"},{"zip_code":"6894206","prefecture_kana":"トットリケン","city_kana":"サイハクグンホウキチョウ","town_kana":"ミヤバラ","prefecture":"鳥取県","city":"西伯郡伯耆町","town":"宮原"},{"zip_code":"6894236","prefecture_kana":"トットリケン","city_kana":"サイハクグンホウキチョウ","town_kana":"ヤケスギ","prefecture":"鳥取県","city":"西伯郡伯耆町","town":"焼杉"},{"zip_code":"6894131","prefecture_kana":"トットリケン","city_kana":"サイハクグンホウキチョウ","town_kana":"ヨシサダ","prefecture":"鳥取県","city":"西伯郡伯耆町","town":"吉定"},{"zip_code":"6894133","prefecture_kana":"トットリケン","city_kana":"サイハクグンホウキチョウ","town_kana":"ヨシナガ","prefecture":"鳥取県","city":"西伯郡伯耆町","town":"吉長"},{"zip_code":"6895200","prefecture_kana":"トットリケン","city_kana":"ヒノグンニチナンチョウ","town_kana":"イカニケイサイガナイバアイ","prefecture":"鳥取県","city":"日野郡日南町","town":"以下に掲載がない場合"},{"zip_code":"6895551","prefecture_kana":"トットリケン","city_kana":"ヒノグンニチナンチョウ","town_kana":"アビレ","prefecture":"鳥取県","city":"日野郡日南町","town":"阿毘縁"},{"zip_code":"6895531","prefecture_kana":"トットリケン","city_kana":"ヒノグンニチナンチョウ","town_kana":"インガ","prefecture":"鳥取県","city":"日野郡日南町","town":"印賀"},{"zip_code":"6895534","prefecture_kana":"トットリケン","city_kana":"ヒノグンニチナンチョウ","town_kana":"オリワタリ","prefecture":"鳥取県","city":"日野郡日南町","town":"折渡"},{"zip_code":"6895543","prefecture_kana":"トットリケン","city_kana":"ヒノグンニチナンチョウ","town_kana":"カサギ","prefecture":"鳥取県","city":"日野郡日南町","town":"笠木"},{"zip_code":"6895212","prefecture_kana":"トットリケン","city_kana":"ヒノグンニチナンチョウ","town_kana":"カスミ","prefecture":"鳥取県","city":"日野郡日南町","town":"霞"},{"zip_code":"6895662","prefecture_kana":"トットリケン","city_kana":"ヒノグンニチナンチョウ","town_kana":"カドノカミ","prefecture":"鳥取県","city":"日野郡日南町","town":"神戸上"},{"zip_code":"6895663","prefecture_kana":"トットリケン","city_kana":"ヒノグンニチナンチョウ","town_kana":"カミイワミ","prefecture":"鳥取県","city":"日野郡日南町","town":"上石見"},{"zip_code":"6895223","prefecture_kana":"トットリケン","city_kana":"ヒノグンニチナンチョウ","town_kana":"カミハギヤマ","prefecture":"鳥取県","city":"日野郡日南町","town":"上萩山"},{"zip_code":"6895672","prefecture_kana":"トットリケン","city_kana":"ヒノグンニチナンチョウ","town_kana":"カミフク","prefecture":"鳥取県","city":"日野郡日南町","town":"神福"},{"zip_code":"6895221","prefecture_kana":"トットリケン","city_kana":"ヒノグンニチナンチョウ","town_kana":"カワカミ","prefecture":"鳥取県","city":"日野郡日南町","town":"河上"},{"zip_code":"6895541","prefecture_kana":"トットリケン","city_kana":"ヒノグンニチナンチョウ","town_kana":"サギダニ","prefecture":"鳥取県","city":"日野郡日南町","town":"佐木谷"},{"zip_code":"6895552","prefecture_kana":"トットリケン","city_kana":"ヒノグンニチナンチョウ","town_kana":"シモアビレ","prefecture":"鳥取県","city":"日野郡日南町","town":"下阿毘縁"},{"zip_code":"6895665","prefecture_kana":"トットリケン","city_kana":"ヒノグンニチナンチョウ","town_kana":"シモイワミ","prefecture":"鳥取県","city":"日野郡日南町","town":"下石見"},{"zip_code":"6895211","prefecture_kana":"トットリケン","city_kana":"ヒノグンニチナンチョウ","town_kana":"ショウヤマ","prefecture":"鳥取県","city":"日野郡日南町","town":"生山"},{"zip_code":"6895532","prefecture_kana":"トットリケン","city_kana":"ヒノグンニチナンチョウ","town_kana":"スゲザワ","prefecture":"鳥取県","city":"日野郡日南町","town":"菅沢"},{"zip_code":"6895533","prefecture_kana":"トットリケン","city_kana":"ヒノグンニチナンチョウ","town_kana":"タカラダニ","prefecture":"鳥取県","city":"日野郡日南町","town":"宝谷"},{"zip_code":"6895224","prefecture_kana":"トットリケン","city_kana":"ヒノグンニチナンチョウ","town_kana":"タリ","prefecture":"鳥取県","city":"日野郡日南町","town":"多里"},{"zip_code":"6895544","prefecture_kana":"トットリケン","city_kana":"ヒノグンニチナンチョウ","town_kana":"チャヤ","prefecture":"鳥取県","city":"日野郡日南町","town":"茶屋"},{"zip_code":"6895673","prefecture_kana":"トットリケン","city_kana":"ヒノグンニチナンチョウ","town_kana":"トヨサカエ","prefecture":"鳥取県","city":"日野郡日南町","town":"豊栄"},{"zip_code":"6895664","prefecture_kana":"トットリケン","city_kana":"ヒノグンニチナンチョウ","town_kana":"ナカイワミ","prefecture":"鳥取県","city":"日野郡日南町","town":"中石見"},{"zip_code":"6895225","prefecture_kana":"トットリケン","city_kana":"ヒノグンニチナンチョウ","town_kana":"ニイヤ","prefecture":"鳥取県","city":"日野郡日南町","town":"新屋"},{"zip_code":"6895222","prefecture_kana":"トットリケン","city_kana":"ヒノグンニチナンチョウ","town_kana":"ハギハラ","prefecture":"鳥取県","city":"日野郡日南町","town":"萩原"},{"zip_code":"6895661","prefecture_kana":"トットリケン","city_kana":"ヒノグンニチナンチョウ","town_kana":"ハナグチ","prefecture":"鳥取県","city":"日野郡日南町","town":"花口"},{"zip_code":"6895545","prefecture_kana":"トットリケン","city_kana":"ヒノグンニチナンチョウ","town_kana":"フクスミ","prefecture":"鳥取県","city":"日野郡日南町","town":"福寿実"},{"zip_code":"6895671","prefecture_kana":"トットリケン","city_kana":"ヒノグンニチナンチョウ","town_kana":"フクヅカ","prefecture":"鳥取県","city":"日野郡日南町","town":"福塚"},{"zip_code":"6895542","prefecture_kana":"トットリケン","city_kana":"ヒノグンニチナンチョウ","town_kana":"フクマキ","prefecture":"鳥取県","city":"日野郡日南町","town":"福万来"},{"zip_code":"6895213","prefecture_kana":"トットリケン","city_kana":"ヒノグンニチナンチョウ","town_kana":"マルヤマ","prefecture":"鳥取県","city":"日野郡日南町","town":"丸山"},{"zip_code":"6895214","prefecture_kana":"トットリケン","city_kana":"ヒノグンニチナンチョウ","town_kana":"ミサカエ","prefecture":"鳥取県","city":"日野郡日南町","town":"三栄"},{"zip_code":"6895216","prefecture_kana":"トットリケン","city_kana":"ヒノグンニチナンチョウ","town_kana":"ミヤウチ","prefecture":"鳥取県","city":"日野郡日南町","town":"宮内"},{"zip_code":"6895666","prefecture_kana":"トットリケン","city_kana":"ヒノグンニチナンチョウ","town_kana":"ミヨシ","prefecture":"鳥取県","city":"日野郡日南町","town":"三吉"},{"zip_code":"6895215","prefecture_kana":"トットリケン","city_kana":"ヒノグンニチナンチョウ","town_kana":"ヤト","prefecture":"鳥取県","city":"日野郡日南町","town":"矢戸"},{"zip_code":"6895226","prefecture_kana":"トットリケン","city_kana":"ヒノグンニチナンチョウ","town_kana":"ユカワ","prefecture":"鳥取県","city":"日野郡日南町","town":"湯河"},{"zip_code":"6894500","prefecture_kana":"トットリケン","city_kana":"ヒノグンヒノチョウ","town_kana":"イカニケイサイガナイバアイ","prefecture":"鳥取県","city":"日野郡日野町","town":"以下に掲載がない場合"},{"zip_code":"6894515","prefecture_kana":"トットリケン","city_kana":"ヒノグンヒノチョウ","town_kana":"アキツナ","prefecture":"鳥取県","city":"日野郡日野町","town":"秋縄"},{"zip_code":"6894513","prefecture_kana":"トットリケン","city_kana":"ヒノグンヒノチョウ","town_kana":"イタイバラ","prefecture":"鳥取県","city":"日野郡日野町","town":"板井原"},{"zip_code":"6894523","prefecture_kana":"トットリケン","city_kana":"ヒノグンヒノチョウ","town_kana":"エノキイチ","prefecture":"鳥取県","city":"日野郡日野町","town":"榎市"},{"zip_code":"6895136","prefecture_kana":"トットリケン","city_kana":"ヒノグンヒノチョウ","town_kana":"オゴウジ","prefecture":"鳥取県","city":"日野郡日野町","town":"小河内"},{"zip_code":"6894501","prefecture_kana":"トットリケン","city_kana":"ヒノグンヒノチョウ","town_kana":"カイハラ","prefecture":"鳥取県","city":"日野郡日野町","town":"貝原"},{"zip_code":"6894516","prefecture_kana":"トットリケン","city_kana":"ヒノグンヒノチョウ","town_kana":"カドタニ","prefecture":"鳥取県","city":"日野郡日野町","town":"門谷"},{"zip_code":"6895137","prefecture_kana":"トットリケン","city_kana":"ヒノグンヒノチョウ","town_kana":"カミスゲ","prefecture":"鳥取県","city":"日野郡日野町","town":"上菅"},{"zip_code":"6894512","prefecture_kana":"トットリケン","city_kana":"ヒノグンヒノチョウ","town_kana":"カモチ","prefecture":"鳥取県","city":"日野郡日野町","town":"金持"},{"zip_code":"6895132","prefecture_kana":"トットリケン","city_kana":"ヒノグンヒノチョウ","town_kana":"クスミ","prefecture":"鳥取県","city":"日野郡日野町","town":"久住"},{"zip_code":"6895131","prefecture_kana":"トットリケン","city_kana":"ヒノグンヒノチョウ","town_kana":"クロサカ","prefecture":"鳥取県","city":"日野郡日野町","town":"黒坂"},{"zip_code":"6894511","prefecture_kana":"トットリケン","city_kana":"ヒノグンヒノチョウ","town_kana":"コオ","prefecture":"鳥取県","city":"日野郡日野町","town":"高尾"},{"zip_code":"6894525","prefecture_kana":"トットリケン","city_kana":"ヒノグンヒノチョウ","town_kana":"コバラ","prefecture":"鳥取県","city":"日野郡日野町","town":"小原"},{"zip_code":"6894526","prefecture_kana":"トットリケン","city_kana":"ヒノグンヒノチョウ","town_kana":"シモエノキ","prefecture":"鳥取県","city":"日野郡日野町","town":"下榎"},{"zip_code":"6895133","prefecture_kana":"トットリケン","city_kana":"ヒノグンヒノチョウ","town_kana":"シモグロサカ","prefecture":"鳥取県","city":"日野郡日野町","town":"下黒坂"},{"zip_code":"6895134","prefecture_kana":"トットリケン","city_kana":"ヒノグンヒノチョウ","town_kana":"シモスゲ","prefecture":"鳥取県","city":"日野郡日野町","town":"下菅"},{"zip_code":"6894521","prefecture_kana":"トットリケン","city_kana":"ヒノグンヒノチョウ","town_kana":"ツチ","prefecture":"鳥取県","city":"日野郡日野町","town":"津地"},{"zip_code":"6895135","prefecture_kana":"トットリケン","city_kana":"ヒノグンヒノチョウ","town_kana":"ナカスゲ","prefecture":"鳥取県","city":"日野郡日野町","town":"中菅"},{"zip_code":"6894517","prefecture_kana":"トットリケン","city_kana":"ヒノグンヒノチョウ","town_kana":"ニゴタニ","prefecture":"鳥取県","city":"日野郡日野町","town":"濁谷"},{"zip_code":"6894503","prefecture_kana":"トットリケン","city_kana":"ヒノグンヒノチョウ","town_kana":"ネウ","prefecture":"鳥取県","city":"日野郡日野町","town":"根雨"},{"zip_code":"6894504","prefecture_kana":"トットリケン","city_kana":"ヒノグンヒノチョウ","town_kana":"ノタ","prefecture":"鳥取県","city":"日野郡日野町","town":"野田"},{"zip_code":"6895137","prefecture_kana":"トットリケン","city_kana":"ヒノグンヒノチョウ","town_kana":"フクナガ","prefecture":"鳥取県","city":"日野郡日野町","town":"福長"},{"zip_code":"6894505","prefecture_kana":"トットリケン","city_kana":"ヒノグンヒノチョウ","town_kana":"フナバ","prefecture":"鳥取県","city":"日野郡日野町","town":"舟場"},{"zip_code":"6894524","prefecture_kana":"トットリケン","city_kana":"ヒノグンヒノチョウ","town_kana":"ベッショ","prefecture":"鳥取県","city":"日野郡日野町","town":"別所"},{"zip_code":"6894522","prefecture_kana":"トットリケン","city_kana":"ヒノグンヒノチョウ","town_kana":"ホンゴウ","prefecture":"鳥取県","city":"日野郡日野町","town":"本郷"},{"zip_code":"6894502","prefecture_kana":"トットリケン","city_kana":"ヒノグンヒノチョウ","town_kana":"ミタニ","prefecture":"鳥取県","city":"日野郡日野町","town":"三谷"},{"zip_code":"6894514","prefecture_kana":"トットリケン","city_kana":"ヒノグンヒノチョウ","town_kana":"ミツチ","prefecture":"鳥取県","city":"日野郡日野町","town":"三土"},{"zip_code":"6894527","prefecture_kana":"トットリケン","city_kana":"ヒノグンヒノチョウ","town_kana":"ヤスハラ","prefecture":"鳥取県","city":"日野郡日野町","town":"安原"},{"zip_code":"6894400","prefecture_kana":"トットリケン","city_kana":"ヒノグンコウフチョウ","town_kana":"イカニケイサイガナイバアイ","prefecture":"鳥取県","city":"日野郡江府町","town":"以下に掲載がない場合"},{"zip_code":"6894401","prefecture_kana":"トットリケン","city_kana":"ヒノグンコウフチョウ","town_kana":"エビ","prefecture":"鳥取県","city":"日野郡江府町","town":"江尾"},{"zip_code":"6894434","prefecture_kana":"トットリケン","city_kana":"ヒノグンコウフチョウ","town_kana":"オオカワラ","prefecture":"鳥取県","city":"日野郡江府町","town":"大河原"},{"zip_code":"6894435","prefecture_kana":"トットリケン","city_kana":"ヒノグンコウフチョウ","town_kana":"カイダ","prefecture":"鳥取県","city":"日野郡江府町","town":"貝田"},{"zip_code":"6894432","prefecture_kana":"トットリケン","city_kana":"ヒノグンコウフチョウ","town_kana":"カキバラ","prefecture":"鳥取県","city":"日野郡江府町","town":"柿原"},{"zip_code":"6894403","prefecture_kana":"トットリケン","city_kana":"ヒノグンコウフチョウ","town_kana":"クレ","prefecture":"鳥取県","city":"日野郡江府町","town":"久連"},{"zip_code":"6894402","prefecture_kana":"トットリケン","city_kana":"ヒノグンコウフチョウ","town_kana":"コエビ","prefecture":"鳥取県","city":"日野郡江府町","town":"小江尾"},{"zip_code":"6894425","prefecture_kana":"トットリケン","city_kana":"ヒノグンコウフチョウ","town_kana":"サガリカヤ","prefecture":"鳥取県","city":"日野郡江府町","town":"下蚊屋"},{"zip_code":"6894431","prefecture_kana":"トットリケン","city_kana":"ヒノグンコウフチョウ","town_kana":"サガワ","prefecture":"鳥取県","city":"日野郡江府町","town":"佐川"},{"zip_code":"6894412","prefecture_kana":"トットリケン","city_kana":"ヒノグンコウフチョウ","town_kana":"シモヤスイ","prefecture":"鳥取県","city":"日野郡江府町","town":"下安井"},{"zip_code":"6894413","prefecture_kana":"トットリケン","city_kana":"ヒノグンコウフチョウ","town_kana":"スガサキ","prefecture":"鳥取県","city":"日野郡江府町","town":"洲河崎"},{"zip_code":"6894422","prefecture_kana":"トットリケン","city_kana":"ヒノグンコウフチョウ","town_kana":"スギタニ","prefecture":"鳥取県","city":"日野郡江府町","town":"杉谷"},{"zip_code":"6894426","prefecture_kana":"トットリケン","city_kana":"ヒノグンコウフチョウ","town_kana":"スケサワ","prefecture":"鳥取県","city":"日野郡江府町","town":"助沢"},{"zip_code":"6894414","prefecture_kana":"トットリケン","city_kana":"ヒノグンコウフチョウ","town_kana":"マタノ","prefecture":"鳥取県","city":"日野郡江府町","town":"俣野"},{"zip_code":"6894424","prefecture_kana":"トットリケン","city_kana":"ヒノグンコウフチョウ","town_kana":"ミツクエ","prefecture":"鳥取県","city":"日野郡江府町","town":"御机"},{"zip_code":"6894421","prefecture_kana":"トットリケン","city_kana":"ヒノグンコウフチョウ","town_kana":"ミヤイチ","prefecture":"鳥取県","city":"日野郡江府町","town":"宮市"},{"zip_code":"6894423","prefecture_kana":"トットリケン","city_kana":"ヒノグンコウフチョウ","town_kana":"ミヨウ","prefecture":"鳥取県","city":"日野郡江府町","town":"美用"},{"zip_code":"6894411","prefecture_kana":"トットリケン","city_kana":"ヒノグンコウフチョウ","town_kana":"ムコ","prefecture":"鳥取県","city":"日野郡江府町","town":"武庫"},{"zip_code":"6894433","prefecture_kana":"トットリケン","city_kana":"ヒノグンコウフチョウ","town_kana":"ヨシハラ","prefecture":"鳥取県","city":"日野郡江府町","town":"吉原"}]