[{"zip_code":"4000000","prefecture_kana":"ヤマナシケン","city_kana":"コウフシ","town_kana":"イカニケイサイガナイバアイ","prefecture":"山梨県","city":"甲府市","town":"以下に掲載がない場合"},{"zip_code":"4000858","prefecture_kana":"ヤマナシケン","city_kana":"コウフシ","town_kana":"アイオイ","prefecture":"山梨県","city":"甲府市","town":"相生"},{"zip_code":"4000867","prefecture_kana":"ヤマナシケン","city_kana":"コウフシ","town_kana":"アオヌマ","prefecture":"山梨県","city":"甲府市","town":"青沼"},{"zip_code":"4000828","prefecture_kana":"ヤマナシケン","city_kana":"コウフシ","town_kana":"アオバチョウ","prefecture":"山梨県","city":"甲府市","town":"青葉町"},{"zip_code":"4000862","prefecture_kana":"ヤマナシケン","city_kana":"コウフシ","town_kana":"アサケ","prefecture":"山梨県","city":"甲府市","town":"朝気"},{"zip_code":"4000025","prefecture_kana":"ヤマナシケン","city_kana":"コウフシ","town_kana":"アサヒ","prefecture":"山梨県","city":"甲府市","town":"朝日"},{"zip_code":"4000023","prefecture_kana":"ヤマナシケン","city_kana":"コウフシ","town_kana":"アタゴマチ","prefecture":"山梨県","city":"甲府市","town":"愛宕町"},{"zip_code":"4000061","prefecture_kana":"ヤマナシケン","city_kana":"コウフシ","town_kana":"アラカワ","prefecture":"山梨県","city":"甲府市","town":"荒川"},{"zip_code":"4000035","prefecture_kana":"ヤマナシケン","city_kana":"コウフシ","town_kana":"イイダ","prefecture":"山梨県","city":"甲府市","town":"飯田"},{"zip_code":"4001217","prefecture_kana":"ヤマナシケン","city_kana":"コウフシ","town_kana":"イカリチョウ","prefecture":"山梨県","city":"甲府市","town":"猪狩町"},{"zip_code":"4000062","prefecture_kana":"ヤマナシケン","city_kana":"コウフシ","town_kana":"イケダ","prefecture":"山梨県","city":"甲府市","town":"池田"},{"zip_code":"4000856","prefecture_kana":"ヤマナシケン","city_kana":"コウフシ","town_kana":"イセ","prefecture":"山梨県","city":"甲府市","town":"伊勢"},{"zip_code":"4000013","prefecture_kana":"ヤマナシケン","city_kana":"コウフシ","town_kana":"イワクボチョウ","prefecture":"山梨県","city":"甲府市","town":"岩窪町"},{"zip_code":"4000045","prefecture_kana":"ヤマナシケン","city_kana":"コウフシ","town_kana":"ウシロヤチョウ","prefecture":"山梨県","city":"甲府市","town":"後屋町"},{"zip_code":"4001504","prefecture_kana":"ヤマナシケン","city_kana":"コウフシ","town_kana":"ウバグチチョウ","prefecture":"山梨県","city":"甲府市","town":"右左口町"},{"zip_code":"4000053","prefecture_kana":"ヤマナシケン","city_kana":"コウフシ","town_kana":"オオサトチョウ","prefecture":"山梨県","city":"甲府市","town":"大里町"},{"zip_code":"4000865","prefecture_kana":"ヤマナシケン","city_kana":"コウフシ","town_kana":"オオタマチ","prefecture":"山梨県","city":"甲府市","town":"太田町"},{"zip_code":"4000055","prefecture_kana":"ヤマナシケン","city_kana":"コウフシ","town_kana":"オオツマチ","prefecture":"山梨県","city":"甲府市","town":"大津町"},{"zip_code":"4000015","prefecture_kana":"ヤマナシケン","city_kana":"コウフシ","town_kana":"オオテ","prefecture":"山梨県","city":"甲府市","town":"大手"},{"zip_code":"4000834","prefecture_kana":"ヤマナシケン","city_kana":"コウフシ","town_kana":"オチアイチョウ","prefecture":"山梨県","city":"甲府市","town":"落合町"},{"zip_code":"4000028","prefecture_kana":"ヤマナシケン","city_kana":"コウフシ","town_kana":"オトワチョウ","prefecture":"山梨県","city":"甲府市","town":"音羽町"},{"zip_code":"4000841","prefecture_kana":"ヤマナシケン","city_kana":"コウフシ","town_kana":"オマガリチョウ","prefecture":"山梨県","city":"甲府市","town":"小曲町"},{"zip_code":"4093711","prefecture_kana":"ヤマナシケン","city_kana":"コウフシ","town_kana":"カケハシマチ","prefecture":"山梨県","city":"甲府市","town":"梯町"},{"zip_code":"4000063","prefecture_kana":"ヤマナシケン","city_kana":"コウフシ","town_kana":"カネタケチョウ","prefecture":"山梨県","city":"甲府市","town":"金竹町"},{"zip_code":"4000814","prefecture_kana":"ヤマナシケン","city_kana":"コウフシ","town_kana":"カミアハラマチ","prefecture":"山梨県","city":"甲府市","town":"上阿原町"},{"zip_code":"4000041","prefecture_kana":"ヤマナシケン","city_kana":"コウフシ","town_kana":"カミイシダ","prefecture":"山梨県","city":"甲府市","town":"上石田"},{"zip_code":"4000845","prefecture_kana":"ヤマナシケン","city_kana":"コウフシ","town_kana":"カミイマイチョウ","prefecture":"山梨県","city":"甲府市","town":"上今井町"},{"zip_code":"4000081","prefecture_kana":"ヤマナシケン","city_kana":"コウフシ","town_kana":"カミオビナチョウ","prefecture":"山梨県","city":"甲府市","town":"上帯那町"},{"zip_code":"4000044","prefecture_kana":"ヤマナシケン","city_kana":"コウフシ","town_kana":"カミコガワラチョウ","prefecture":"山梨県","city":"甲府市","town":"上小河原町"},{"zip_code":"4000052","prefecture_kana":"ヤマナシケン","city_kana":"コウフシ","town_kana":"カミジョウアライマチ","prefecture":"山梨県","city":"甲府市","town":"上条新居町"},{"zip_code":"4000011","prefecture_kana":"ヤマナシケン","city_kana":"コウフシ","town_kana":"カミセキスイジマチ","prefecture":"山梨県","city":"甲府市","town":"上積翠寺町"},{"zip_code":"4001501","prefecture_kana":"ヤマナシケン","city_kana":"コウフシ","town_kana":"カミソネチョウ","prefecture":"山梨県","city":"甲府市","town":"上曽根町"},{"zip_code":"4000831","prefecture_kana":"ヤマナシケン","city_kana":"コウフシ","town_kana":"カミチョウ","prefecture":"山梨県","city":"甲府市","town":"上町"},{"zip_code":"4001506","prefecture_kana":"ヤマナシケン","city_kana":"コウフシ","town_kana":"カミムコウヤマチョウ","prefecture":"山梨県","city":"甲府市","town":"上向山町"},{"zip_code":"4001213","prefecture_kana":"ヤマナシケン","city_kana":"コウフシ","town_kana":"カワクボチョウ","prefecture":"山梨県","city":"甲府市","town":"川窪町"},{"zip_code":"4000811","prefecture_kana":"ヤマナシケン","city_kana":"コウフシ","town_kana":"カワダマチ","prefecture":"山梨県","city":"甲府市","town":"川田町"},{"zip_code":"4000024","prefecture_kana":"ヤマナシケン","city_kana":"コウフシ","town_kana":"キタグチ","prefecture":"山梨県","city":"甲府市","town":"北口"},{"zip_code":"4000005","prefecture_kana":"ヤマナシケン","city_kana":"コウフシ","town_kana":"キタシン","prefecture":"山梨県","city":"甲府市","town":"北新"},{"zip_code":"4000065","prefecture_kana":"ヤマナシケン","city_kana":"コウフシ","town_kana":"クガワ","prefecture":"山梨県","city":"甲府市","town":"貢川"},{"zip_code":"4000048","prefecture_kana":"ヤマナシケン","city_kana":"コウフシ","town_kana":"クガワホンチョウ","prefecture":"山梨県","city":"甲府市","town":"貢川本町"},{"zip_code":"4000815","prefecture_kana":"ヤマナシケン","city_kana":"コウフシ","town_kana":"クダマチョウ","prefecture":"山梨県","city":"甲府市","town":"国玉町"},{"zip_code":"4001211","prefecture_kana":"ヤマナシケン","city_kana":"コウフシ","town_kana":"クロベラチョウ","prefecture":"山梨県","city":"甲府市","town":"黒平町"},{"zip_code":"4000043","prefecture_kana":"ヤマナシケン","city_kana":"コウフシ","town_kana":"コクボ","prefecture":"山梨県","city":"甲府市","town":"国母"},{"zip_code":"4000836","prefecture_kana":"ヤマナシケン","city_kana":"コウフシ","town_kana":"コセマチ","prefecture":"山梨県","city":"甲府市","town":"小瀬町"},{"zip_code":"4000033","prefecture_kana":"ヤマナシケン","city_kana":"コウフシ","town_kana":"コトブキチョウ","prefecture":"山梨県","city":"甲府市","town":"寿町"},{"zip_code":"4000014","prefecture_kana":"ヤマナシケン","city_kana":"コウフシ","town_kana":"コフチュウマチ","prefecture":"山梨県","city":"甲府市","town":"古府中町"},{"zip_code":"4000002","prefecture_kana":"ヤマナシケン","city_kana":"コウフシ","town_kana":"コマツマチ","prefecture":"山梨県","city":"甲府市","town":"小松町"},{"zip_code":"4000857","prefecture_kana":"ヤマナシケン","city_kana":"コウフシ","town_kana":"サイワイチョウ","prefecture":"山梨県","city":"甲府市","town":"幸町"},{"zip_code":"4000805","prefecture_kana":"ヤマナシケン","city_kana":"コウフシ","town_kana":"サカオリ","prefecture":"山梨県","city":"甲府市","town":"酒折"},{"zip_code":"4000804","prefecture_kana":"ヤマナシケン","city_kana":"コウフシ","town_kana":"サカオリチョウ","prefecture":"山梨県","city":"甲府市","town":"酒折町"},{"zip_code":"4000803","prefecture_kana":"ヤマナシケン","city_kana":"コウフシ","town_kana":"サクライチョウ","prefecture":"山梨県","city":"甲府市","town":"桜井町"},{"zip_code":"4000822","prefecture_kana":"ヤマナシケン","city_kana":"コウフシ","town_kana":"サトヨシ","prefecture":"山梨県","city":"甲府市","town":"里吉"},{"zip_code":"4000823","prefecture_kana":"ヤマナシケン","city_kana":"コウフシ","town_kana":"サトヨシチョウ","prefecture":"山梨県","city":"甲府市","town":"里吉町"},{"zip_code":"4000026","prefecture_kana":"ヤマナシケン","city_kana":"コウフシ","town_kana":"シオベ","prefecture":"山梨県","city":"甲府市","town":"塩部"},{"zip_code":"4000064","prefecture_kana":"ヤマナシケン","city_kana":"コウフシ","town_kana":"シモイイダ","prefecture":"山梨県","city":"甲府市","town":"下飯田"},{"zip_code":"4000046","prefecture_kana":"ヤマナシケン","city_kana":"コウフシ","town_kana":"シモイシダ","prefecture":"山梨県","city":"甲府市","town":"下石田"},{"zip_code":"4000842","prefecture_kana":"ヤマナシケン","city_kana":"コウフシ","town_kana":"シモイマイチョウ","prefecture":"山梨県","city":"甲府市","town":"下今井町"},{"zip_code":"4000082","prefecture_kana":"ヤマナシケン","city_kana":"コウフシ","town_kana":"シモオビナチョウ","prefecture":"山梨県","city":"甲府市","town":"下帯那町"},{"zip_code":"4000835","prefecture_kana":"ヤマナシケン","city_kana":"コウフシ","town_kana":"シモカジヤマチ","prefecture":"山梨県","city":"甲府市","town":"下鍛冶屋町"},{"zip_code":"4000068","prefecture_kana":"ヤマナシケン","city_kana":"コウフシ","town_kana":"シモガワラチョウ","prefecture":"山梨県","city":"甲府市","town":"下河原町"},{"zip_code":"4000853","prefecture_kana":"ヤマナシケン","city_kana":"コウフシ","town_kana":"シモコガワラチョウ","prefecture":"山梨県","city":"甲府市","town":"下小河原町"},{"zip_code":"4000012","prefecture_kana":"ヤマナシケン","city_kana":"コウフシ","town_kana":"シモセキスイジマチ","prefecture":"山梨県","city":"甲府市","town":"下積翠寺町"},{"zip_code":"4001508","prefecture_kana":"ヤマナシケン","city_kana":"コウフシ","town_kana":"シモソネチョウ","prefecture":"山梨県","city":"甲府市","town":"下曽根町"},{"zip_code":"4001507","prefecture_kana":"ヤマナシケン","city_kana":"コウフシ","town_kana":"シモムコウヤマチョウ","prefecture":"山梨県","city":"甲府市","town":"下向山町"},{"zip_code":"4000861","prefecture_kana":"ヤマナシケン","city_kana":"コウフシ","town_kana":"ジョウトウ","prefecture":"山梨県","city":"甲府市","town":"城東"},{"zip_code":"4001502","prefecture_kana":"ヤマナシケン","city_kana":"コウフシ","town_kana":"シライチョウ","prefecture":"山梨県","city":"甲府市","town":"白井町"},{"zip_code":"4001503","prefecture_kana":"ヤマナシケン","city_kana":"コウフシ","town_kana":"シンギョウジチョウ","prefecture":"山梨県","city":"甲府市","town":"心経寺町"},{"zip_code":"4000066","prefecture_kana":"ヤマナシケン","city_kana":"コウフシ","town_kana":"シンデンチョウ","prefecture":"山梨県","city":"甲府市","town":"新田町"},{"zip_code":"4000821","prefecture_kana":"ヤマナシケン","city_kana":"コウフシ","town_kana":"スナダチョウ","prefecture":"山梨県","city":"甲府市","town":"砂田町"},{"zip_code":"4000851","prefecture_kana":"ヤマナシケン","city_kana":"コウフシ","town_kana":"スミヨシ","prefecture":"山梨県","city":"甲府市","town":"住吉"},{"zip_code":"4000852","prefecture_kana":"ヤマナシケン","city_kana":"コウフシ","town_kana":"スミヨシホンチョウ","prefecture":"山梨県","city":"甲府市","town":"住吉本町"},{"zip_code":"4000806","prefecture_kana":"ヤマナシケン","city_kana":"コウフシ","town_kana":"ゼンコウジ","prefecture":"山梨県","city":"甲府市","town":"善光寺"},{"zip_code":"4000801","prefecture_kana":"ヤマナシケン","city_kana":"コウフシ","town_kana":"ゼンコウジマチ","prefecture":"山梨県","city":"甲府市","town":"善光寺町"},{"zip_code":"4001219","prefecture_kana":"ヤマナシケン","city_kana":"コウフシ","town_kana":"ソウカザワチョウ","prefecture":"山梨県","city":"甲府市","town":"草鹿沢町"},{"zip_code":"4000072","prefecture_kana":"ヤマナシケン","city_kana":"コウフシ","town_kana":"ダイワチョウ","prefecture":"山梨県","city":"甲府市","town":"大和町"},{"zip_code":"4001214","prefecture_kana":"ヤマナシケン","city_kana":"コウフシ","town_kana":"タカナリチョウ","prefecture":"山梨県","city":"甲府市","town":"高成町"},{"zip_code":"4000042","prefecture_kana":"ヤマナシケン","city_kana":"コウフシ","town_kana":"タカバタケ","prefecture":"山梨県","city":"甲府市","town":"高畑"},{"zip_code":"4001212","prefecture_kana":"ヤマナシケン","city_kana":"コウフシ","town_kana":"タカマチ","prefecture":"山梨県","city":"甲府市","town":"高町"},{"zip_code":"4000057","prefecture_kana":"ヤマナシケン","city_kana":"コウフシ","town_kana":"タカムロチョウ","prefecture":"山梨県","city":"甲府市","town":"高室町"},{"zip_code":"4000034","prefecture_kana":"ヤマナシケン","city_kana":"コウフシ","town_kana":"タカラ","prefecture":"山梨県","city":"甲府市","town":"宝"},{"zip_code":"4000016","prefecture_kana":"ヤマナシケン","city_kana":"コウフシ","town_kana":"タケダ","prefecture":"山梨県","city":"甲府市","town":"武田"},{"zip_code":"4001215","prefecture_kana":"ヤマナシケン","city_kana":"コウフシ","town_kana":"タケヒナタマチ","prefecture":"山梨県","city":"甲府市","town":"竹日向町"},{"zip_code":"4000074","prefecture_kana":"ヤマナシケン","city_kana":"コウフシ","town_kana":"チヅカ","prefecture":"山梨県","city":"甲府市","town":"千塚"},{"zip_code":"4000032","prefecture_kana":"ヤマナシケン","city_kana":"コウフシ","town_kana":"チュウオウ","prefecture":"山梨県","city":"甲府市","town":"中央"},{"zip_code":"4000067","prefecture_kana":"ヤマナシケン","city_kana":"コウフシ","town_kana":"チョウショウジチョウ","prefecture":"山梨県","city":"甲府市","town":"長松寺町"},{"zip_code":"4000003","prefecture_kana":"ヤマナシケン","city_kana":"コウフシ","town_kana":"ツカハラチョウ","prefecture":"山梨県","city":"甲府市","town":"塚原町"},{"zip_code":"4000006","prefecture_kana":"ヤマナシケン","city_kana":"コウフシ","town_kana":"テンジンチョウ","prefecture":"山梨県","city":"甲府市","town":"天神町"},{"zip_code":"4001216","prefecture_kana":"ヤマナシケン","city_kana":"コウフシ","town_kana":"トウイワチョウ","prefecture":"山梨県","city":"甲府市","town":"塔岩町"},{"zip_code":"4000807","prefecture_kana":"ヤマナシケン","city_kana":"コウフシ","town_kana":"トウコウジ","prefecture":"山梨県","city":"甲府市","town":"東光寺"},{"zip_code":"4000808","prefecture_kana":"ヤマナシケン","city_kana":"コウフシ","town_kana":"トウコウジマチ","prefecture":"山梨県","city":"甲府市","town":"東光寺町"},{"zip_code":"4000047","prefecture_kana":"ヤマナシケン","city_kana":"コウフシ","town_kana":"トクギョウ","prefecture":"山梨県","city":"甲府市","town":"徳行"},{"zip_code":"4000049","prefecture_kana":"ヤマナシケン","city_kana":"コウフシ","town_kana":"トミタケ","prefecture":"山梨県","city":"甲府市","town":"富竹"},{"zip_code":"4000855","prefecture_kana":"ヤマナシケン","city_kana":"コウフシ","town_kana":"ナカコガワラ","prefecture":"山梨県","city":"甲府市","town":"中小河原"},{"zip_code":"4000854","prefecture_kana":"ヤマナシケン","city_kana":"コウフシ","town_kana":"ナカコガワラチョウ","prefecture":"山梨県","city":"甲府市","town":"中小河原町"},{"zip_code":"4000844","prefecture_kana":"ヤマナシケン","city_kana":"コウフシ","town_kana":"ナカチョウ","prefecture":"山梨県","city":"甲府市","town":"中町"},{"zip_code":"4001505","prefecture_kana":"ヤマナシケン","city_kana":"コウフシ","town_kana":"ナカバタケチョウ","prefecture":"山梨県","city":"甲府市","town":"中畑町"},{"zip_code":"4000069","prefecture_kana":"ヤマナシケン","city_kana":"コウフシ","town_kana":"ナカムラチョウ","prefecture":"山梨県","city":"甲府市","town":"中村町"},{"zip_code":"4000825","prefecture_kana":"ヤマナシケン","city_kana":"コウフシ","town_kana":"ナナサワチョウ","prefecture":"山梨県","city":"甲府市","town":"七沢町"},{"zip_code":"4000833","prefecture_kana":"ヤマナシケン","city_kana":"コウフシ","town_kana":"ニシアブラカワチョウ","prefecture":"山梨県","city":"甲府市","town":"西油川町"},{"zip_code":"4000054","prefecture_kana":"ヤマナシケン","city_kana":"コウフシ","town_kana":"ニシシモジョウマチ","prefecture":"山梨県","city":"甲府市","town":"西下条町"},{"zip_code":"4000826","prefecture_kana":"ヤマナシケン","city_kana":"コウフシ","town_kana":"ニシタカハシチョウ","prefecture":"山梨県","city":"甲府市","town":"西高橋町"},{"zip_code":"4000004","prefecture_kana":"ヤマナシケン","city_kana":"コウフシ","town_kana":"ニシダチョウ","prefecture":"山梨県","city":"甲府市","town":"西田町"},{"zip_code":"4000071","prefecture_kana":"ヤマナシケン","city_kana":"コウフシ","town_kana":"ハグロチョウ","prefecture":"山梨県","city":"甲府市","town":"羽黒町"},{"zip_code":"4000843","prefecture_kana":"ヤマナシケン","city_kana":"コウフシ","town_kana":"ヒガシシモジョウマチ","prefecture":"山梨県","city":"甲府市","town":"東下条町"},{"zip_code":"4000083","prefecture_kana":"ヤマナシケン","city_kana":"コウフシ","town_kana":"ヒラセマチ","prefecture":"山梨県","city":"甲府市","town":"平瀬町"},{"zip_code":"4000027","prefecture_kana":"ヤマナシケン","city_kana":"コウフシ","town_kana":"フジミ","prefecture":"山梨県","city":"甲府市","town":"富士見"},{"zip_code":"4000051","prefecture_kana":"ヤマナシケン","city_kana":"コウフシ","town_kana":"フルカミジョウマチ","prefecture":"山梨県","city":"甲府市","town":"古上条町"},{"zip_code":"4093712","prefecture_kana":"ヤマナシケン","city_kana":"コウフシ","town_kana":"フルセキマチ","prefecture":"山梨県","city":"甲府市","town":"古関町"},{"zip_code":"4000056","prefecture_kana":"ヤマナシケン","city_kana":"コウフシ","town_kana":"ホリノウチチョウ","prefecture":"山梨県","city":"甲府市","town":"堀之内町"},{"zip_code":"4000832","prefecture_kana":"ヤマナシケン","city_kana":"コウフシ","town_kana":"マスツボチョウ","prefecture":"山梨県","city":"甲府市","town":"増坪町"},{"zip_code":"4000031","prefecture_kana":"ヤマナシケン","city_kana":"コウフシ","town_kana":"マルノウチ","prefecture":"山梨県","city":"甲府市","town":"丸の内"},{"zip_code":"4000007","prefecture_kana":"ヤマナシケン","city_kana":"コウフシ","town_kana":"ミサキ","prefecture":"山梨県","city":"甲府市","town":"美咲"},{"zip_code":"4001218","prefecture_kana":"ヤマナシケン","city_kana":"コウフシ","town_kana":"ミタケチョウ","prefecture":"山梨県","city":"甲府市","town":"御岳町"},{"zip_code":"4000008","prefecture_kana":"ヤマナシケン","city_kana":"コウフシ","town_kana":"ミドリガオカ","prefecture":"山梨県","city":"甲府市","town":"緑が丘"},{"zip_code":"4000863","prefecture_kana":"ヤマナシケン","city_kana":"コウフシ","town_kana":"ミナミグチチョウ","prefecture":"山梨県","city":"甲府市","town":"南口町"},{"zip_code":"4000058","prefecture_kana":"ヤマナシケン","city_kana":"コウフシ","town_kana":"ミヤバラチョウ","prefecture":"山梨県","city":"甲府市","town":"宮原町"},{"zip_code":"4000021","prefecture_kana":"ヤマナシケン","city_kana":"コウフシ","town_kana":"ミヤマエチョウ","prefecture":"山梨県","city":"甲府市","town":"宮前町"},{"zip_code":"4000813","prefecture_kana":"ヤマナシケン","city_kana":"コウフシ","town_kana":"ムコウマチ","prefecture":"山梨県","city":"甲府市","town":"向町"},{"zip_code":"4000022","prefecture_kana":"ヤマナシケン","city_kana":"コウフシ","town_kana":"モトコンヤマチ","prefecture":"山梨県","city":"甲府市","town":"元紺屋町"},{"zip_code":"4000017","prefecture_kana":"ヤマナシケン","city_kana":"コウフシ","town_kana":"ヤカタ","prefecture":"山梨県","city":"甲府市","town":"屋形"},{"zip_code":"4000075","prefecture_kana":"ヤマナシケン","city_kana":"コウフシ","town_kana":"ヤマミヤチョウ","prefecture":"山梨県","city":"甲府市","town":"山宮町"},{"zip_code":"4000864","prefecture_kana":"ヤマナシケン","city_kana":"コウフシ","town_kana":"ユダ","prefecture":"山梨県","city":"甲府市","town":"湯田"},{"zip_code":"4000073","prefecture_kana":"ヤマナシケン","city_kana":"コウフシ","town_kana":"ユムラ","prefecture":"山梨県","city":"甲府市","town":"湯村"},{"zip_code":"4000802","prefecture_kana":"ヤマナシケン","city_kana":"コウフシ","town_kana":"ヨコネマチ","prefecture":"山梨県","city":"甲府市","town":"横根町"},{"zip_code":"4000827","prefecture_kana":"ヤマナシケン","city_kana":"コウフシ","town_kana":"ヨモギサワ","prefecture":"山梨県","city":"甲府市","town":"蓬沢"},{"zip_code":"4000824","prefecture_kana":"ヤマナシケン","city_kana":"コウフシ","town_kana":"ヨモギサワマチ","prefecture":"山梨県","city":"甲府市","town":"蓬沢町"},{"zip_code":"4000866","prefecture_kana":"ヤマナシケン","city_kana":"コウフシ","town_kana":"ワカマツチョウ","prefecture":"山梨県","city":"甲府市","town":"若松町"},{"zip_code":"4000001","prefecture_kana":"ヤマナシケン","city_kana":"コウフシ","town_kana":"ワダマチ","prefecture":"山梨県","city":"甲府市","town":"和田町"},{"zip_code":"4000812","prefecture_kana":"ヤマナシケン","city_kana":"コウフシ","town_kana":"ワドマチ","prefecture":"山梨県","city":"甲府市","town":"和戸町"},{"zip_code":"4030000","prefecture_kana":"ヤマナシケン","city_kana":"フジヨシダシ","town_kana":"イカニケイサイガナイバアイ","prefecture":"山梨県","city":"富士吉田市","town":"以下に掲載がない場合"},{"zip_code":"4030012","prefecture_kana":"ヤマナシケン","city_kana":"フジヨシダシ","town_kana":"アサヒ","prefecture":"山梨県","city":"富士吉田市","town":"旭"},{"zip_code":"4030031","prefecture_kana":"ヤマナシケン","city_kana":"フジヨシダシ","town_kana":"アサマ","prefecture":"山梨県","city":"富士吉田市","town":"浅間"},{"zip_code":"4030011","prefecture_kana":"ヤマナシケン","city_kana":"フジヨシダシ","town_kana":"アラクラ","prefecture":"山梨県","city":"富士吉田市","town":"新倉"},{"zip_code":"4030006","prefecture_kana":"ヤマナシケン","city_kana":"フジヨシダシ","town_kana":"アラヤ","prefecture":"山梨県","city":"富士吉田市","town":"新屋"},{"zip_code":"4030003","prefecture_kana":"ヤマナシケン","city_kana":"フジヨシダシ","town_kana":"オオアスミ","prefecture":"山梨県","city":"富士吉田市","town":"大明見"},{"zip_code":"4030001","prefecture_kana":"ヤマナシケン","city_kana":"フジヨシダシ","town_kana":"カミクレチ","prefecture":"山梨県","city":"富士吉田市","town":"上暮地"},{"zip_code":"4030005","prefecture_kana":"ヤマナシケン","city_kana":"フジヨシダシ","town_kana":"カミヨシダ","prefecture":"山梨県","city":"富士吉田市","town":"上吉田"},{"zip_code":"4030032","prefecture_kana":"ヤマナシケン","city_kana":"フジヨシダシ","town_kana":"カミヨシダヒガシ","prefecture":"山梨県","city":"富士吉田市","town":"上吉田東"},{"zip_code":"4030002","prefecture_kana":"ヤマナシケン","city_kana":"フジヨシダシ","town_kana":"コアスミ","prefecture":"山梨県","city":"富士吉田市","town":"小明見"},{"zip_code":"4030004","prefecture_kana":"ヤマナシケン","city_kana":"フジヨシダシ","town_kana":"シモヨシダ","prefecture":"山梨県","city":"富士吉田市","town":"下吉田"},{"zip_code":"4030008","prefecture_kana":"ヤマナシケン","city_kana":"フジヨシダシ","town_kana":"シモヨシダヒガシ","prefecture":"山梨県","city":"富士吉田市","town":"下吉田東"},{"zip_code":"4030017","prefecture_kana":"ヤマナシケン","city_kana":"フジヨシダシ","town_kana":"シンニシハラ","prefecture":"山梨県","city":"富士吉田市","town":"新西原"},{"zip_code":"4030019","prefecture_kana":"ヤマナシケン","city_kana":"フジヨシダシ","town_kana":"シンマチ","prefecture":"山梨県","city":"富士吉田市","town":"新町"},{"zip_code":"4030014","prefecture_kana":"ヤマナシケン","city_kana":"フジヨシダシ","town_kana":"タツガオカ","prefecture":"山梨県","city":"富士吉田市","town":"竜ケ丘"},{"zip_code":"4030015","prefecture_kana":"ヤマナシケン","city_kana":"フジヨシダシ","town_kana":"トキワダイ","prefecture":"山梨県","city":"富士吉田市","town":"ときわ台"},{"zip_code":"4030007","prefecture_kana":"ヤマナシケン","city_kana":"フジヨシダシ","town_kana":"ナカゾネ","prefecture":"山梨県","city":"富士吉田市","town":"中曽根"},{"zip_code":"4030009","prefecture_kana":"ヤマナシケン","city_kana":"フジヨシダシ","town_kana":"フジミ","prefecture":"山梨県","city":"富士吉田市","town":"富士見"},{"zip_code":"4030016","prefecture_kana":"ヤマナシケン","city_kana":"フジヨシダシ","town_kana":"マツヤマ","prefecture":"山梨県","city":"富士吉田市","town":"松山"},{"zip_code":"4030013","prefecture_kana":"ヤマナシケン","city_kana":"フジヨシダシ","town_kana":"ミドリガオカ","prefecture":"山梨県","city":"富士吉田市","town":"緑ケ丘"},{"zip_code":"4030018","prefecture_kana":"ヤマナシケン","city_kana":"フジヨシダシ","town_kana":"ムカイバラ","prefecture":"山梨県","city":"富士吉田市","town":"向原"},{"zip_code":"4020000","prefecture_kana":"ヤマナシケン","city_kana":"ツルシ","town_kana":"イカニケイサイガナイバアイ","prefecture":"山梨県","city":"都留市","town":"以下に掲載がない場合"},{"zip_code":"4020015","prefecture_kana":"ヤマナシケン","city_kana":"ツルシ","town_kana":"アサヒソシ","prefecture":"山梨県","city":"都留市","town":"朝日曽雌"},{"zip_code":"4020014","prefecture_kana":"ヤマナシケン","city_kana":"ツルシ","town_kana":"アサヒババ","prefecture":"山梨県","city":"都留市","town":"朝日馬場"},{"zip_code":"4020042","prefecture_kana":"ヤマナシケン","city_kana":"ツルシ","town_kana":"アツハラ","prefecture":"山梨県","city":"都留市","town":"厚原"},{"zip_code":"4020011","prefecture_kana":"ヤマナシケン","city_kana":"ツルシ","town_kana":"イグラ","prefecture":"山梨県","city":"都留市","town":"井倉"},{"zip_code":"4020023","prefecture_kana":"ヤマナシケン","city_kana":"ツルシ","town_kana":"オオノ","prefecture":"山梨県","city":"都留市","town":"大野"},{"zip_code":"4020045","prefecture_kana":"ヤマナシケン","city_kana":"ツルシ","town_kana":"オオハタ","prefecture":"山梨県","city":"都留市","town":"大幡"},{"zip_code":"4020002","prefecture_kana":"ヤマナシケン","city_kana":"ツルシ","town_kana":"オオハラ","prefecture":"山梨県","city":"都留市","town":"大原"},{"zip_code":"4020006","prefecture_kana":"ヤマナシケン","city_kana":"ツルシ","town_kana":"オガタヤマ","prefecture":"山梨県","city":"都留市","town":"小形山"},{"zip_code":"4020024","prefecture_kana":"ヤマナシケン","city_kana":"ツルシ","town_kana":"オノ","prefecture":"山梨県","city":"都留市","town":"小野"},{"zip_code":"4020034","prefecture_kana":"ヤマナシケン","city_kana":"ツルシ","town_kana":"カツラマチ","prefecture":"山梨県","city":"都留市","town":"桂町"},{"zip_code":"4020041","prefecture_kana":"ヤマナシケン","city_kana":"ツルシ","town_kana":"カナイ","prefecture":"山梨県","city":"都留市","town":"金井"},{"zip_code":"4020044","prefecture_kana":"ヤマナシケン","city_kana":"ツルシ","town_kana":"カハタ","prefecture":"山梨県","city":"都留市","town":"加畑"},{"zip_code":"4020053","prefecture_kana":"ヤマナシケン","city_kana":"ツルシ","town_kana":"カミヤ","prefecture":"山梨県","city":"都留市","town":"上谷"},{"zip_code":"4020055","prefecture_kana":"ヤマナシケン","city_kana":"ツルシ","town_kana":"カワダナ","prefecture":"山梨県","city":"都留市","town":"川棚"},{"zip_code":"4020003","prefecture_kana":"ヤマナシケン","city_kana":"ツルシ","town_kana":"カワモ","prefecture":"山梨県","city":"都留市","town":"川茂"},{"zip_code":"4020033","prefecture_kana":"ヤマナシケン","city_kana":"ツルシ","town_kana":"サカイ","prefecture":"山梨県","city":"都留市","town":"境"},{"zip_code":"4020032","prefecture_kana":"ヤマナシケン","city_kana":"ツルシ","town_kana":"シシドメ","prefecture":"山梨県","city":"都留市","town":"鹿留"},{"zip_code":"4020051","prefecture_kana":"ヤマナシケン","city_kana":"ツルシ","town_kana":"シモヤ","prefecture":"山梨県","city":"都留市","town":"下谷"},{"zip_code":"4020001","prefecture_kana":"ヤマナシケン","city_kana":"ツルシ","town_kana":"タノクラ","prefecture":"山梨県","city":"都留市","town":"田野倉"},{"zip_code":"4020054","prefecture_kana":"ヤマナシケン","city_kana":"ツルシ","town_kana":"タハラ","prefecture":"山梨県","city":"都留市","town":"田原"},{"zip_code":"4020021","prefecture_kana":"ヤマナシケン","city_kana":"ツルシ","town_kana":"タマガワ","prefecture":"山梨県","city":"都留市","town":"玉川"},{"zip_code":"4020052","prefecture_kana":"ヤマナシケン","city_kana":"ツルシ","town_kana":"チュウオウ","prefecture":"山梨県","city":"都留市","town":"中央"},{"zip_code":"4020056","prefecture_kana":"ヤマナシケン","city_kana":"ツルシ","town_kana":"ツル","prefecture":"山梨県","city":"都留市","town":"つる"},{"zip_code":"4020031","prefecture_kana":"ヤマナシケン","city_kana":"ツルシ","town_kana":"トオカイチバ","prefecture":"山梨県","city":"都留市","town":"十日市場"},{"zip_code":"4020022","prefecture_kana":"ヤマナシケン","city_kana":"ツルシ","town_kana":"トザワ","prefecture":"山梨県","city":"都留市","town":"戸沢"},{"zip_code":"4020046","prefecture_kana":"ヤマナシケン","city_kana":"ツルシ","town_kana":"ナカツモリ","prefecture":"山梨県","city":"都留市","town":"中津森"},{"zip_code":"4020035","prefecture_kana":"ヤマナシケン","city_kana":"ツルシ","town_kana":"ナツガリ","prefecture":"山梨県","city":"都留市","town":"夏狩"},{"zip_code":"4020043","prefecture_kana":"ヤマナシケン","city_kana":"ツルシ","town_kana":"ヒラグリ","prefecture":"山梨県","city":"都留市","town":"平栗"},{"zip_code":"4020004","prefecture_kana":"ヤマナシケン","city_kana":"ツルシ","town_kana":"フルカワド","prefecture":"山梨県","city":"都留市","town":"古川渡"},{"zip_code":"4020025","prefecture_kana":"ヤマナシケン","city_kana":"ツルシ","town_kana":"ホウノウ","prefecture":"山梨県","city":"都留市","town":"法能"},{"zip_code":"4020013","prefecture_kana":"ヤマナシケン","city_kana":"ツルシ","town_kana":"モリサト","prefecture":"山梨県","city":"都留市","town":"盛里"},{"zip_code":"4020005","prefecture_kana":"ヤマナシケン","city_kana":"ツルシ","town_kana":"ヨッカイチバ","prefecture":"山梨県","city":"都留市","town":"四日市場"},{"zip_code":"4020012","prefecture_kana":"ヤマナシケン","city_kana":"ツルシ","town_kana":"ヨナワ","prefecture":"山梨県","city":"都留市","town":"与縄"},{"zip_code":"4050000","prefecture_kana":"ヤマナシケン","city_kana":"ヤマナシシ","town_kana":"イカニケイサイガナイバアイ","prefecture":"山梨県","city":"山梨市","town":"以下に掲載がない場合"},{"zip_code":"4050044","prefecture_kana":"ヤマナシケン","city_kana":"ヤマナシシ","town_kana":"イチガワ","prefecture":"山梨県","city":"山梨市","town":"市川"},{"zip_code":"4050025","prefecture_kana":"ヤマナシケン","city_kana":"ヤマナシシ","town_kana":"イッチョウタナカ","prefecture":"山梨県","city":"山梨市","town":"一町田中"},{"zip_code":"4050024","prefecture_kana":"ヤマナシケン","city_kana":"ヤマナシシ","town_kana":"ウタダ","prefecture":"山梨県","city":"山梨市","town":"歌田"},{"zip_code":"4050043","prefecture_kana":"ヤマナシケン","city_kana":"ヤマナシシ","town_kana":"エゾハラ","prefecture":"山梨県","city":"山梨市","town":"江曽原"},{"zip_code":"4050016","prefecture_kana":"ヤマナシケン","city_kana":"ヤマナシシ","town_kana":"オオノ","prefecture":"山梨県","city":"山梨市","town":"大野"},{"zip_code":"4050033","prefecture_kana":"ヤマナシケン","city_kana":"ヤマナシシ","town_kana":"オチアイ","prefecture":"山梨県","city":"山梨市","town":"落合"},{"zip_code":"4050014","prefecture_kana":"ヤマナシケン","city_kana":"ヤマナシシ","town_kana":"カミイシモリ","prefecture":"山梨県","city":"山梨市","town":"上石森"},{"zip_code":"4050034","prefecture_kana":"ヤマナシケン","city_kana":"ヤマナシシ","town_kana":"カミイワシタ","prefecture":"山梨県","city":"山梨市","town":"上岩下"},{"zip_code":"4050018","prefecture_kana":"ヤマナシケン","city_kana":"ヤマナシシ","town_kana":"カミカノガワ","prefecture":"山梨県","city":"山梨市","town":"上神内川"},{"zip_code":"4050022","prefecture_kana":"ヤマナシケン","city_kana":"ヤマナシシ","town_kana":"カミクリバラ","prefecture":"山梨県","city":"山梨市","town":"上栗原"},{"zip_code":"4050004","prefecture_kana":"ヤマナシケン","city_kana":"ヤマナシシ","town_kana":"カミノワリ","prefecture":"山梨県","city":"山梨市","town":"上之割"},{"zip_code":"4050013","prefecture_kana":"ヤマナシケン","city_kana":"ヤマナシシ","town_kana":"カモイデラ","prefecture":"山梨県","city":"山梨市","town":"鴨居寺"},{"zip_code":"4050041","prefecture_kana":"ヤマナシケン","city_kana":"ヤマナシシ","town_kana":"キタ","prefecture":"山梨県","city":"山梨市","town":"北"},{"zip_code":"4050048","prefecture_kana":"ヤマナシケン","city_kana":"ヤマナシシ","town_kana":"キッサツ","prefecture":"山梨県","city":"山梨市","town":"切差"},{"zip_code":"4050005","prefecture_kana":"ヤマナシケン","city_kana":"ヤマナシシ","town_kana":"コバラヒガシ","prefecture":"山梨県","city":"山梨市","town":"小原東"},{"zip_code":"4050006","prefecture_kana":"ヤマナシケン","city_kana":"ヤマナシシ","town_kana":"コバラニシ","prefecture":"山梨県","city":"山梨市","town":"小原西"},{"zip_code":"4050011","prefecture_kana":"ヤマナシケン","city_kana":"ヤマナシシ","town_kana":"サンガショ","prefecture":"山梨県","city":"山梨市","town":"三ケ所"},{"zip_code":"4050015","prefecture_kana":"ヤマナシケン","city_kana":"ヤマナシシ","town_kana":"シモイシモリ","prefecture":"山梨県","city":"山梨市","town":"下石森"},{"zip_code":"4050003","prefecture_kana":"ヤマナシケン","city_kana":"ヤマナシシ","town_kana":"シモイジリ","prefecture":"山梨県","city":"山梨市","town":"下井尻"},{"zip_code":"4050017","prefecture_kana":"ヤマナシケン","city_kana":"ヤマナシシ","town_kana":"シモカノガワ","prefecture":"山梨県","city":"山梨市","town":"下神内川"},{"zip_code":"4050023","prefecture_kana":"ヤマナシケン","city_kana":"ヤマナシシ","town_kana":"シモクリバラ","prefecture":"山梨県","city":"山梨市","town":"下栗原"},{"zip_code":"4050032","prefecture_kana":"ヤマナシケン","city_kana":"ヤマナシシ","town_kana":"ショウトクジ","prefecture":"山梨県","city":"山梨市","town":"正徳寺"},{"zip_code":"4050045","prefecture_kana":"ヤマナシケン","city_kana":"ヤマナシシ","town_kana":"ダイク","prefecture":"山梨県","city":"山梨市","town":"大工"},{"zip_code":"4050021","prefecture_kana":"ヤマナシケン","city_kana":"ヤマナシシ","town_kana":"ナカムラ","prefecture":"山梨県","city":"山梨市","town":"中村"},{"zip_code":"4050007","prefecture_kana":"ヤマナシケン","city_kana":"ヤマナシシ","town_kana":"ナノカイチバ","prefecture":"山梨県","city":"山梨市","town":"七日市場"},{"zip_code":"4050001","prefecture_kana":"ヤマナシケン","city_kana":"ヤマナシシ","town_kana":"ニシ","prefecture":"山梨県","city":"山梨市","town":"西"},{"zip_code":"4050002","prefecture_kana":"ヤマナシケン","city_kana":"ヤマナシシ","town_kana":"ヒガシ","prefecture":"山梨県","city":"山梨市","town":"東"},{"zip_code":"4050012","prefecture_kana":"ヤマナシケン","city_kana":"ヤマナシシ","town_kana":"ヒガシゴヤシキ","prefecture":"山梨県","city":"山梨市","town":"東後屋敷"},{"zip_code":"4050046","prefecture_kana":"ヤマナシケン","city_kana":"ヤマナシシ","town_kana":"ホリノウチ","prefecture":"山梨県","city":"山梨市","town":"堀内"},{"zip_code":"4040007","prefecture_kana":"ヤマナシケン","city_kana":"ヤマナシシ","town_kana":"マキオカチョウキタバラ","prefecture":"山梨県","city":"山梨市","town":"牧丘町北原"},{"zip_code":"4040013","prefecture_kana":"ヤマナシケン","city_kana":"ヤマナシシ","town_kana":"マキオカチョウクボダイラ","prefecture":"山梨県","city":"山梨市","town":"牧丘町窪平"},{"zip_code":"4040003","prefecture_kana":"ヤマナシケン","city_kana":"ヤマナシシ","town_kana":"マキオカチョウクラシナ","prefecture":"山梨県","city":"山梨市","town":"牧丘町倉科"},{"zip_code":"4040015","prefecture_kana":"ヤマナシケン","city_kana":"ヤマナシシ","town_kana":"マキオカチョウジョウコジ","prefecture":"山梨県","city":"山梨市","town":"牧丘町城古寺"},{"zip_code":"4040002","prefecture_kana":"ヤマナシケン","city_kana":"ヤマナシシ","town_kana":"マキオカチョウソマグチ","prefecture":"山梨県","city":"山梨市","town":"牧丘町杣口"},{"zip_code":"4040016","prefecture_kana":"ヤマナシケン","city_kana":"ヤマナシシ","town_kana":"マキオカチョウチノノミヤ","prefecture":"山梨県","city":"山梨市","town":"牧丘町千野々宮"},{"zip_code":"4040011","prefecture_kana":"ヤマナシケン","city_kana":"ヤマナシシ","town_kana":"マキオカチョウナルサワ","prefecture":"山梨県","city":"山梨市","town":"牧丘町成沢"},{"zip_code":"4040004","prefecture_kana":"ヤマナシケン","city_kana":"ヤマナシシ","town_kana":"マキオカチョウニシホシモ","prefecture":"山梨県","city":"山梨市","town":"牧丘町西保下"},{"zip_code":"4040005","prefecture_kana":"ヤマナシケン","city_kana":"ヤマナシシ","town_kana":"マキオカチョウニシホナカ","prefecture":"山梨県","city":"山梨市","town":"牧丘町西保中"},{"zip_code":"4040014","prefecture_kana":"ヤマナシケン","city_kana":"ヤマナシシ","town_kana":"マキオカチョウハヤブサ","prefecture":"山梨県","city":"山梨市","town":"牧丘町隼"},{"zip_code":"4040006","prefecture_kana":"ヤマナシケン","city_kana":"ヤマナシシ","town_kana":"マキオカチョウマキダイラ","prefecture":"山梨県","city":"山梨市","town":"牧丘町牧平"},{"zip_code":"4040012","prefecture_kana":"ヤマナシケン","city_kana":"ヤマナシシ","town_kana":"マキオカチョウムロフシ","prefecture":"山梨県","city":"山梨市","town":"牧丘町室伏"},{"zip_code":"4040001","prefecture_kana":"ヤマナシケン","city_kana":"ヤマナシシ","town_kana":"マキオカチョウヤナギダイラ","prefecture":"山梨県","city":"山梨市","town":"牧丘町柳平"},{"zip_code":"4050031","prefecture_kana":"ヤマナシケン","city_kana":"ヤマナシシ","town_kana":"マンリキ","prefecture":"山梨県","city":"山梨市","town":"万力"},{"zip_code":"4050047","prefecture_kana":"ヤマナシケン","city_kana":"ヤマナシシ","town_kana":"ミズクチ","prefecture":"山梨県","city":"山梨市","town":"水口"},{"zip_code":"4040206","prefecture_kana":"ヤマナシケン","city_kana":"ヤマナシシ","town_kana":"ミトミカミカマクチ","prefecture":"山梨県","city":"山梨市","town":"三富上釜口"},{"zip_code":"4040202","prefecture_kana":"ヤマナシケン","city_kana":"ヤマナシシ","town_kana":"ミトミカミユノキ","prefecture":"山梨県","city":"山梨市","town":"三富上柚木"},{"zip_code":"4040201","prefecture_kana":"ヤマナシケン","city_kana":"ヤマナシシ","town_kana":"ミトミカワウラ","prefecture":"山梨県","city":"山梨市","town":"三富川浦"},{"zip_code":"4040203","prefecture_kana":"ヤマナシケン","city_kana":"ヤマナシシ","town_kana":"ミトミシモオギハラ","prefecture":"山梨県","city":"山梨市","town":"三富下荻原"},{"zip_code":"4040204","prefecture_kana":"ヤマナシケン","city_kana":"ヤマナシシ","town_kana":"ミトミシモカマクチ","prefecture":"山梨県","city":"山梨市","town":"三富下釜口"},{"zip_code":"4040205","prefecture_kana":"ヤマナシケン","city_kana":"ヤマナシシ","town_kana":"ミトミトクワ","prefecture":"山梨県","city":"山梨市","town":"三富徳和"},{"zip_code":"4050042","prefecture_kana":"ヤマナシケン","city_kana":"ヤマナシシ","town_kana":"ミナミ","prefecture":"山梨県","city":"山梨市","town":"南"},{"zip_code":"4050036","prefecture_kana":"ヤマナシケン","city_kana":"ヤマナシシ","town_kana":"ヤツボ","prefecture":"山梨県","city":"山梨市","town":"矢坪"},{"zip_code":"4050035","prefecture_kana":"ヤマナシケン","city_kana":"ヤマナシシ","town_kana":"ヤマネ","prefecture":"山梨県","city":"山梨市","town":"山根"},{"zip_code":"4010000","prefecture_kana":"ヤマナシケン","city_kana":"オオツキシ","town_kana":"イカニケイサイガナイバアイ","prefecture":"山梨県","city":"大月市","town":"以下に掲載がない場合"},{"zip_code":"4010013","prefecture_kana":"ヤマナシケン","city_kana":"オオツキシ","town_kana":"オオツキ（１−３チョウメ）","prefecture":"山梨県","city":"大月市","town":"大月（１〜３丁目）"},{"zip_code":"4010014","prefecture_kana":"ヤマナシケン","city_kana":"オオツキシ","town_kana":"オオツキマチオオツキ","prefecture":"山梨県","city":"大月市","town":"大月町大月"},{"zip_code":"4010015","prefecture_kana":"ヤマナシケン","city_kana":"オオツキシ","town_kana":"オオツキマチハナサキ","prefecture":"山梨県","city":"大月市","town":"大月町花咲"},{"zip_code":"4010016","prefecture_kana":"ヤマナシケン","city_kana":"オオツキシ","town_kana":"オオツキマチマギ","prefecture":"山梨県","city":"大月市","town":"大月町真木"},{"zip_code":"4010011","prefecture_kana":"ヤマナシケン","city_kana":"オオツキシ","town_kana":"コマハシ","prefecture":"山梨県","city":"大月市","town":"駒橋"},{"zip_code":"4010025","prefecture_kana":"ヤマナシケン","city_kana":"オオツキシ","town_kana":"ササゴマチクロノダ","prefecture":"山梨県","city":"大月市","town":"笹子町黒野田"},{"zip_code":"4010023","prefecture_kana":"ヤマナシケン","city_kana":"オオツキシ","town_kana":"ササゴマチシラノ","prefecture":"山梨県","city":"大月市","town":"笹子町白野"},{"zip_code":"4010024","prefecture_kana":"ヤマナシケン","city_kana":"オオツキシ","town_kana":"ササゴマチヨシクボ","prefecture":"山梨県","city":"大月市","town":"笹子町吉久保"},{"zip_code":"4090615","prefecture_kana":"ヤマナシケン","city_kana":"オオツキシ","town_kana":"サルハシマチアサヒオザワ","prefecture":"山梨県","city":"大月市","town":"猿橋町朝日小沢"},{"zip_code":"4090613","prefecture_kana":"ヤマナシケン","city_kana":"オオツキシ","town_kana":"サルハシマチイラバラ","prefecture":"山梨県","city":"大月市","town":"猿橋町伊良原"},{"zip_code":"4090616","prefecture_kana":"ヤマナシケン","city_kana":"オオツキシ","town_kana":"サルハシマチオザワ","prefecture":"山梨県","city":"大月市","town":"猿橋町小沢"},{"zip_code":"4090611","prefecture_kana":"ヤマナシケン","city_kana":"オオツキシ","town_kana":"サルハシマチオシノ","prefecture":"山梨県","city":"大月市","town":"猿橋町小篠"},{"zip_code":"4090618","prefecture_kana":"ヤマナシケン","city_kana":"オオツキシ","town_kana":"サルハシマチカツラダイ","prefecture":"山梨県","city":"大月市","town":"猿橋町桂台"},{"zip_code":"4090614","prefecture_kana":"ヤマナシケン","city_kana":"オオツキシ","town_kana":"サルハシマチサルハシ","prefecture":"山梨県","city":"大月市","town":"猿橋町猿橋"},{"zip_code":"4090617","prefecture_kana":"ヤマナシケン","city_kana":"オオツキシ","town_kana":"サルハシマチトノウエ","prefecture":"山梨県","city":"大月市","town":"猿橋町殿上"},{"zip_code":"4090612","prefecture_kana":"ヤマナシケン","city_kana":"オオツキシ","town_kana":"サルハシマチフジサキ","prefecture":"山梨県","city":"大月市","town":"猿橋町藤崎"},{"zip_code":"4090502","prefecture_kana":"ヤマナシケン","city_kana":"オオツキシ","town_kana":"トミハママチトリサワ","prefecture":"山梨県","city":"大月市","town":"富浜町鳥沢"},{"zip_code":"4090501","prefecture_kana":"ヤマナシケン","city_kana":"オオツキシ","town_kana":"トミハママチミヤタニ","prefecture":"山梨県","city":"大月市","town":"富浜町宮谷"},{"zip_code":"4090621","prefecture_kana":"ヤマナシケン","city_kana":"オオツキシ","town_kana":"ナナホマチアサカワ","prefecture":"山梨県","city":"大月市","town":"七保町浅川"},{"zip_code":"4090623","prefecture_kana":"ヤマナシケン","city_kana":"オオツキシ","town_kana":"ナナホマチカズノ","prefecture":"山梨県","city":"大月市","town":"七保町葛野"},{"zip_code":"4090627","prefecture_kana":"ヤマナシケン","city_kana":"オオツキシ","town_kana":"ナナホマチコマミヤ","prefecture":"山梨県","city":"大月市","town":"七保町駒宮"},{"zip_code":"4090622","prefecture_kana":"ヤマナシケン","city_kana":"オオツキシ","town_kana":"ナナホマチシモワダ","prefecture":"山梨県","city":"大月市","town":"七保町下和田"},{"zip_code":"4090626","prefecture_kana":"ヤマナシケン","city_kana":"オオツキシ","town_kana":"ナナホマチセト","prefecture":"山梨県","city":"大月市","town":"七保町瀬戸"},{"zip_code":"4090625","prefecture_kana":"ヤマナシケン","city_kana":"オオツキシ","town_kana":"ナナホマチナラゴ","prefecture":"山梨県","city":"大月市","town":"七保町奈良子"},{"zip_code":"4090624","prefecture_kana":"ヤマナシケン","city_kana":"オオツキシ","town_kana":"ナナホマチハヤシ","prefecture":"山梨県","city":"大月市","town":"七保町林"},{"zip_code":"4010005","prefecture_kana":"ヤマナシケン","city_kana":"オオツキシ","town_kana":"ニギオカマチアサリ","prefecture":"山梨県","city":"大月市","town":"賑岡町浅利"},{"zip_code":"4010002","prefecture_kana":"ヤマナシケン","city_kana":"オオツキシ","town_kana":"ニギオカマチイワドノ","prefecture":"山梨県","city":"大月市","town":"賑岡町岩殿"},{"zip_code":"4010006","prefecture_kana":"ヤマナシケン","city_kana":"オオツキシ","town_kana":"ニギオカマチオクヤマ","prefecture":"山梨県","city":"大月市","town":"賑岡町奥山"},{"zip_code":"4010004","prefecture_kana":"ヤマナシケン","city_kana":"オオツキシ","town_kana":"ニギオカマチコワゼ","prefecture":"山梨県","city":"大月市","town":"賑岡町強瀬"},{"zip_code":"4010001","prefecture_kana":"ヤマナシケン","city_kana":"オオツキシ","town_kana":"ニギオカマチハタグラ","prefecture":"山梨県","city":"大月市","town":"賑岡町畑倉"},{"zip_code":"4010003","prefecture_kana":"ヤマナシケン","city_kana":"オオツキシ","town_kana":"ニギオカマチユリガオカ","prefecture":"山梨県","city":"大月市","town":"賑岡町ゆりケ丘"},{"zip_code":"4010021","prefecture_kana":"ヤマナシケン","city_kana":"オオツキシ","town_kana":"ハツカリマチシモハツカリ","prefecture":"山梨県","city":"大月市","town":"初狩町下初狩"},{"zip_code":"4010022","prefecture_kana":"ヤマナシケン","city_kana":"オオツキシ","town_kana":"ハツカリマチナカハツカリ","prefecture":"山梨県","city":"大月市","town":"初狩町中初狩"},{"zip_code":"4010012","prefecture_kana":"ヤマナシケン","city_kana":"オオツキシ","town_kana":"ミタチ","prefecture":"山梨県","city":"大月市","town":"御太刀"},{"zip_code":"4090504","prefecture_kana":"ヤマナシケン","city_kana":"オオツキシ","town_kana":"ヤナガワマチアラクラ","prefecture":"山梨県","city":"大月市","town":"梁川町新倉"},{"zip_code":"4090505","prefecture_kana":"ヤマナシケン","city_kana":"オオツキシ","town_kana":"ヤナガワマチシオゼ","prefecture":"山梨県","city":"大月市","town":"梁川町塩瀬"},{"zip_code":"4090506","prefecture_kana":"ヤマナシケン","city_kana":"オオツキシ","town_kana":"ヤナガワマチタチノ","prefecture":"山梨県","city":"大月市","town":"梁川町立野"},{"zip_code":"4090503","prefecture_kana":"ヤマナシケン","city_kana":"オオツキシ","town_kana":"ヤナガワマチツナノウエ","prefecture":"山梨県","city":"大月市","town":"梁川町綱の上"},{"zip_code":"4070000","prefecture_kana":"ヤマナシケン","city_kana":"ニラサキシ","town_kana":"イカニケイサイガナイバアイ","prefecture":"山梨県","city":"韮崎市","town":"以下に掲載がない場合"},{"zip_code":"4070045","prefecture_kana":"ヤマナシケン","city_kana":"ニラサキシ","town_kana":"アサヒマチカミジョウナカワリ","prefecture":"山梨県","city":"韮崎市","town":"旭町上條中割"},{"zip_code":"4070046","prefecture_kana":"ヤマナシケン","city_kana":"ニラサキシ","town_kana":"アサヒマチカミジョウミナミワリ","prefecture":"山梨県","city":"韮崎市","town":"旭町上條南割"},{"zip_code":"4070044","prefecture_kana":"ヤマナシケン","city_kana":"ニラサキシ","town_kana":"アサヒマチカミジョウキタワリ","prefecture":"山梨県","city":"韮崎市","town":"旭町上條北割"},{"zip_code":"4070263","prefecture_kana":"ヤマナシケン","city_kana":"ニラサキシ","town_kana":"アナヤママチ","prefecture":"山梨県","city":"韮崎市","town":"穴山町"},{"zip_code":"4070012","prefecture_kana":"ヤマナシケン","city_kana":"ニラサキシ","town_kana":"イワシタ","prefecture":"山梨県","city":"韮崎市","town":"岩下"},{"zip_code":"4070011","prefecture_kana":"ヤマナシケン","city_kana":"ニラサキシ","town_kana":"ウエノヤマ","prefecture":"山梨県","city":"韮崎市","town":"上ノ山"},{"zip_code":"4070036","prefecture_kana":"ヤマナシケン","city_kana":"ニラサキシ","town_kana":"オオクサマチカミジョウヒガシワリ","prefecture":"山梨県","city":"韮崎市","town":"大草町上條東割"},{"zip_code":"4070035","prefecture_kana":"ヤマナシケン","city_kana":"ニラサキシ","town_kana":"オオクサマチシモジョウニシワリ","prefecture":"山梨県","city":"韮崎市","town":"大草町下條西割"},{"zip_code":"4070034","prefecture_kana":"ヤマナシケン","city_kana":"ニラサキシ","town_kana":"オオクサマチシモジョウナカワリ","prefecture":"山梨県","city":"韮崎市","town":"大草町下條中割"},{"zip_code":"4070037","prefecture_kana":"ヤマナシケン","city_kana":"ニラサキシ","town_kana":"オオクサマチワカオ","prefecture":"山梨県","city":"韮崎市","town":"大草町若尾"},{"zip_code":"4070007","prefecture_kana":"ヤマナシケン","city_kana":"ニラサキシ","town_kana":"カミウバイシ","prefecture":"山梨県","city":"韮崎市","town":"上祖母石"},{"zip_code":"4070042","prefecture_kana":"ヤマナシケン","city_kana":"ニラサキシ","town_kana":"カミヤママチキタミヤジ","prefecture":"山梨県","city":"韮崎市","town":"神山町北宮地"},{"zip_code":"4070041","prefecture_kana":"ヤマナシケン","city_kana":"ニラサキシ","town_kana":"カミヤママチタケタ","prefecture":"山梨県","city":"韮崎市","town":"神山町武田"},{"zip_code":"4070043","prefecture_kana":"ヤマナシケン","city_kana":"ニラサキシ","town_kana":"カミヤママチナベヤマ","prefecture":"山梨県","city":"韮崎市","town":"神山町鍋山"},{"zip_code":"4070025","prefecture_kana":"ヤマナシケン","city_kana":"ニラサキシ","town_kana":"サカエ","prefecture":"山梨県","city":"韮崎市","town":"栄"},{"zip_code":"4070006","prefecture_kana":"ヤマナシケン","city_kana":"ニラサキシ","town_kana":"シモウバイシ","prefecture":"山梨県","city":"韮崎市","town":"下祖母石"},{"zip_code":"4070022","prefecture_kana":"ヤマナシケン","city_kana":"ニラサキシ","town_kana":"スイジン","prefecture":"山梨県","city":"韮崎市","town":"水神"},{"zip_code":"4070055","prefecture_kana":"ヤマナシケン","city_kana":"ニラサキシ","town_kana":"セイテツマチアオキ","prefecture":"山梨県","city":"韮崎市","town":"清哲町青木"},{"zip_code":"4070054","prefecture_kana":"ヤマナシケン","city_kana":"ニラサキシ","town_kana":"セイテツマチオリイ","prefecture":"山梨県","city":"韮崎市","town":"清哲町折居"},{"zip_code":"4070057","prefecture_kana":"ヤマナシケン","city_kana":"ニラサキシ","town_kana":"セイテツマチヒノグチ","prefecture":"山梨県","city":"韮崎市","town":"清哲町樋口"},{"zip_code":"4070058","prefecture_kana":"ヤマナシケン","city_kana":"ニラサキシ","town_kana":"セイテツマチミズカミ","prefecture":"山梨県","city":"韮崎市","town":"清哲町水上"},{"zip_code":"4070032","prefecture_kana":"ヤマナシケン","city_kana":"ニラサキシ","town_kana":"タツオカマチシモジョウヒガシワリ","prefecture":"山梨県","city":"韮崎市","town":"龍岡町下條東割"},{"zip_code":"4070033","prefecture_kana":"ヤマナシケン","city_kana":"ニラサキシ","town_kana":"タツオカマチシモジョウミナミワリ","prefecture":"山梨県","city":"韮崎市","town":"龍岡町下條南割"},{"zip_code":"4070031","prefecture_kana":"ヤマナシケン","city_kana":"ニラサキシ","town_kana":"タツオカマチワカオシンデン","prefecture":"山梨県","city":"韮崎市","town":"龍岡町若尾新田"},{"zip_code":"4070023","prefecture_kana":"ヤマナシケン","city_kana":"ニラサキシ","town_kana":"チュウオウチョウ","prefecture":"山梨県","city":"韮崎市","town":"中央町"},{"zip_code":"4070013","prefecture_kana":"ヤマナシケン","city_kana":"ニラサキシ","town_kana":"ナカジマ","prefecture":"山梨県","city":"韮崎市","town":"中島"},{"zip_code":"4070261","prefecture_kana":"ヤマナシケン","city_kana":"ニラサキシ","town_kana":"ナカダマチコタガワ","prefecture":"山梨県","city":"韮崎市","town":"中田町小田川"},{"zip_code":"4070262","prefecture_kana":"ヤマナシケン","city_kana":"ニラサキシ","town_kana":"ナカダマチナカジョウ","prefecture":"山梨県","city":"韮崎市","town":"中田町中條"},{"zip_code":"4070005","prefecture_kana":"ヤマナシケン","city_kana":"ニラサキシ","town_kana":"ヒトツヤ","prefecture":"山梨県","city":"韮崎市","town":"一ツ谷"},{"zip_code":"4070001","prefecture_kana":"ヤマナシケン","city_kana":"ニラサキシ","town_kana":"フジイマチコマイ","prefecture":"山梨県","city":"韮崎市","town":"藤井町駒井"},{"zip_code":"4070002","prefecture_kana":"ヤマナシケン","city_kana":"ニラサキシ","town_kana":"フジイマチサカイ","prefecture":"山梨県","city":"韮崎市","town":"藤井町坂井"},{"zip_code":"4070004","prefecture_kana":"ヤマナシケン","city_kana":"ニラサキシ","town_kana":"フジイマチミナミゲジョウ","prefecture":"山梨県","city":"韮崎市","town":"藤井町南下條"},{"zip_code":"4070003","prefecture_kana":"ヤマナシケン","city_kana":"ニラサキシ","town_kana":"フジイマチキタゲジョウ","prefecture":"山梨県","city":"韮崎市","town":"藤井町北下條"},{"zip_code":"4070014","prefecture_kana":"ヤマナシケン","city_kana":"ニラサキシ","town_kana":"フジミ","prefecture":"山梨県","city":"韮崎市","town":"富士見"},{"zip_code":"4070021","prefecture_kana":"ヤマナシケン","city_kana":"ニラサキシ","town_kana":"フジミガオカ","prefecture":"山梨県","city":"韮崎市","town":"富士見ケ丘"},{"zip_code":"4070172","prefecture_kana":"ヤマナシケン","city_kana":"ニラサキシ","town_kana":"ホサカマチカミイマイ","prefecture":"山梨県","city":"韮崎市","town":"穂坂町上今井"},{"zip_code":"4070176","prefecture_kana":"ヤマナシケン","city_kana":"ニラサキシ","town_kana":"ホサカマチサンノクラ","prefecture":"山梨県","city":"韮崎市","town":"穂坂町三之蔵"},{"zip_code":"4070173","prefecture_kana":"ヤマナシケン","city_kana":"ニラサキシ","town_kana":"ホサカマチナガクボ","prefecture":"山梨県","city":"韮崎市","town":"穂坂町長久保"},{"zip_code":"4070174","prefecture_kana":"ヤマナシケン","city_kana":"ニラサキシ","town_kana":"ホサカマチミツサワ","prefecture":"山梨県","city":"韮崎市","town":"穂坂町三ツ沢"},{"zip_code":"4070175","prefecture_kana":"ヤマナシケン","city_kana":"ニラサキシ","town_kana":"ホサカマチミヤクボ","prefecture":"山梨県","city":"韮崎市","town":"穂坂町宮久保"},{"zip_code":"4070171","prefecture_kana":"ヤマナシケン","city_kana":"ニラサキシ","town_kana":"ホサカマチヤナギダイラ","prefecture":"山梨県","city":"韮崎市","town":"穂坂町柳平"},{"zip_code":"4070024","prefecture_kana":"ヤマナシケン","city_kana":"ニラサキシ","town_kana":"ホンチョウ","prefecture":"山梨県","city":"韮崎市","town":"本町"},{"zip_code":"4070051","prefecture_kana":"ヤマナシケン","city_kana":"ニラサキシ","town_kana":"マルノマチカミツブライ","prefecture":"山梨県","city":"韮崎市","town":"円野町上円井"},{"zip_code":"4070052","prefecture_kana":"ヤマナシケン","city_kana":"ニラサキシ","town_kana":"マルノマチシモツブライ","prefecture":"山梨県","city":"韮崎市","town":"円野町下円井"},{"zip_code":"4070053","prefecture_kana":"ヤマナシケン","city_kana":"ニラサキシ","town_kana":"マルノマチニットノ","prefecture":"山梨県","city":"韮崎市","town":"円野町入戸野"},{"zip_code":"4070015","prefecture_kana":"ヤマナシケン","city_kana":"ニラサキシ","town_kana":"ワカミヤ","prefecture":"山梨県","city":"韮崎市","town":"若宮"},{"zip_code":"4000400","prefecture_kana":"ヤマナシケン","city_kana":"ミナミアルプスシ","town_kana":"イカニケイサイガナイバアイ","prefecture":"山梨県","city":"南アルプス市","town":"以下に掲載がない場合"},{"zip_code":"4000424","prefecture_kana":"ヤマナシケン","city_kana":"ミナミアルプスシ","town_kana":"アキヤマ","prefecture":"山梨県","city":"南アルプス市","town":"秋山"},{"zip_code":"4000333","prefecture_kana":"ヤマナシケン","city_kana":"ミナミアルプスシ","town_kana":"アサバラ","prefecture":"山梨県","city":"南アルプス市","town":"浅原"},{"zip_code":"4000241","prefecture_kana":"ヤマナシケン","city_kana":"ミナミアルプスシ","town_kana":"アシヤスアシクラ","prefecture":"山梨県","city":"南アルプス市","town":"芦安芦倉"},{"zip_code":"4000242","prefecture_kana":"ヤマナシケン","city_kana":"ミナミアルプスシ","town_kana":"アシヤスアンツウ","prefecture":"山梨県","city":"南アルプス市","town":"芦安安通"},{"zip_code":"4000319","prefecture_kana":"ヤマナシケン","city_kana":"ミナミアルプスシ","town_kana":"アヤメガオカ","prefecture":"山梨県","city":"南アルプス市","town":"あやめが丘"},{"zip_code":"4000403","prefecture_kana":"ヤマナシケン","city_kana":"ミナミアルプスシ","town_kana":"アユザワ","prefecture":"山梨県","city":"南アルプス市","town":"鮎沢"},{"zip_code":"4000226","prefecture_kana":"ヤマナシケン","city_kana":"ミナミアルプスシ","town_kana":"アリノ","prefecture":"山梨県","city":"南アルプス市","town":"有野"},{"zip_code":"4000222","prefecture_kana":"ヤマナシケン","city_kana":"ミナミアルプスシ","town_kana":"イイノ","prefecture":"山梨県","city":"南アルプス市","town":"飯野"},{"zip_code":"4000224","prefecture_kana":"ヤマナシケン","city_kana":"ミナミアルプスシ","town_kana":"イイノシンデン","prefecture":"山梨県","city":"南アルプス市","town":"飯野新田"},{"zip_code":"4000413","prefecture_kana":"ヤマナシケン","city_kana":"ミナミアルプスシ","town_kana":"イズミ","prefecture":"山梨県","city":"南アルプス市","town":"和泉"},{"zip_code":"4000315","prefecture_kana":"ヤマナシケン","city_kana":"ミナミアルプスシ","town_kana":"ウエノ","prefecture":"山梨県","city":"南アルプス市","town":"上野"},{"zip_code":"4000215","prefecture_kana":"ヤマナシケン","city_kana":"ミナミアルプスシ","town_kana":"ウエハッタ","prefecture":"山梨県","city":"南アルプス市","town":"上八田"},{"zip_code":"4000204","prefecture_kana":"ヤマナシケン","city_kana":"ミナミアルプスシ","town_kana":"エノキハラ","prefecture":"山梨県","city":"南アルプス市","town":"榎原"},{"zip_code":"4000401","prefecture_kana":"ヤマナシケン","city_kana":"ミナミアルプスシ","town_kana":"エバラ","prefecture":"山梨県","city":"南アルプス市","town":"江原"},{"zip_code":"4000234","prefecture_kana":"ヤマナシケン","city_kana":"ミナミアルプスシ","town_kana":"オオアラシ","prefecture":"山梨県","city":"南アルプス市","town":"大嵐"},{"zip_code":"4000306","prefecture_kana":"ヤマナシケン","city_kana":"ミナミアルプスシ","town_kana":"オガサハラ","prefecture":"山梨県","city":"南アルプス市","town":"小笠原"},{"zip_code":"4000423","prefecture_kana":"ヤマナシケン","city_kana":"ミナミアルプスシ","town_kana":"オチアイ","prefecture":"山梨県","city":"南アルプス市","town":"落合"},{"zip_code":"4000335","prefecture_kana":"ヤマナシケン","city_kana":"ミナミアルプスシ","town_kana":"カガミ","prefecture":"山梨県","city":"南アルプス市","town":"加賀美"},{"zip_code":"4000332","prefecture_kana":"ヤマナシケン","city_kana":"ミナミアルプスシ","town_kana":"カガミナカジョウ","prefecture":"山梨県","city":"南アルプス市","town":"鏡中條"},{"zip_code":"4000317","prefecture_kana":"ヤマナシケン","city_kana":"ミナミアルプスシ","town_kana":"カミイチノセ","prefecture":"山梨県","city":"南アルプス市","town":"上市之瀬"},{"zip_code":"4000303","prefecture_kana":"ヤマナシケン","city_kana":"ミナミアルプスシ","town_kana":"カミイマイ","prefecture":"山梨県","city":"南アルプス市","town":"上今井"},{"zip_code":"4000211","prefecture_kana":"ヤマナシケン","city_kana":"ミナミアルプスシ","town_kana":"カミイマスワ","prefecture":"山梨県","city":"南アルプス市","town":"上今諏訪"},{"zip_code":"4000201","prefecture_kana":"ヤマナシケン","city_kana":"ミナミアルプスシ","town_kana":"カミタカスナ","prefecture":"山梨県","city":"南アルプス市","town":"上高砂"},{"zip_code":"4000312","prefecture_kana":"ヤマナシケン","city_kana":"ミナミアルプスシ","town_kana":"カミミヤジ","prefecture":"山梨県","city":"南アルプス市","town":"上宮地"},{"zip_code":"4000421","prefecture_kana":"ヤマナシケン","city_kana":"ミナミアルプスシ","town_kana":"カワカミ","prefecture":"山梨県","city":"南アルプス市","town":"川上"},{"zip_code":"4000311","prefecture_kana":"ヤマナシケン","city_kana":"ミナミアルプスシ","town_kana":"クルワダ","prefecture":"山梨県","city":"南アルプス市","town":"曲輪田"},{"zip_code":"4000223","prefecture_kana":"ヤマナシケン","city_kana":"ミナミアルプスシ","town_kana":"クルワダシンデン","prefecture":"山梨県","city":"南アルプス市","town":"曲輪田新田"},{"zip_code":"4000232","prefecture_kana":"ヤマナシケン","city_kana":"ミナミアルプスシ","town_kana":"コマバ","prefecture":"山梨県","city":"南アルプス市","town":"駒場"},{"zip_code":"4000221","prefecture_kana":"ヤマナシケン","city_kana":"ミナミアルプスシ","town_kana":"ザイケツカ","prefecture":"山梨県","city":"南アルプス市","town":"在家塚"},{"zip_code":"4000302","prefecture_kana":"ヤマナシケン","city_kana":"ミナミアルプスシ","town_kana":"サワノボリ","prefecture":"山梨県","city":"南アルプス市","town":"沢登"},{"zip_code":"4000231","prefecture_kana":"ヤマナシケン","city_kana":"ミナミアルプスシ","town_kana":"シオノマエ","prefecture":"山梨県","city":"南アルプス市","town":"塩前"},{"zip_code":"4000417","prefecture_kana":"ヤマナシケン","city_kana":"ミナミアルプスシ","town_kana":"シミズ","prefecture":"山梨県","city":"南アルプス市","town":"清水"},{"zip_code":"4000314","prefecture_kana":"ヤマナシケン","city_kana":"ミナミアルプスシ","town_kana":"シモイチノセ","prefecture":"山梨県","city":"南アルプス市","town":"下市之瀬"},{"zip_code":"4000331","prefecture_kana":"ヤマナシケン","city_kana":"ミナミアルプスシ","town_kana":"シモイマイ","prefecture":"山梨県","city":"南アルプス市","town":"下今井"},{"zip_code":"4000212","prefecture_kana":"ヤマナシケン","city_kana":"ミナミアルプスシ","town_kana":"シモイマスワ","prefecture":"山梨県","city":"南アルプス市","town":"下今諏訪"},{"zip_code":"4000202","prefecture_kana":"ヤマナシケン","city_kana":"ミナミアルプスシ","town_kana":"シモタカスナ","prefecture":"山梨県","city":"南アルプス市","town":"下高砂"},{"zip_code":"4000405","prefecture_kana":"ヤマナシケン","city_kana":"ミナミアルプスシ","town_kana":"シモミヤジ","prefecture":"山梨県","city":"南アルプス市","town":"下宮地"},{"zip_code":"4000305","prefecture_kana":"ヤマナシケン","city_kana":"ミナミアルプスシ","town_kana":"ジュウゴショ","prefecture":"山梨県","city":"南アルプス市","town":"十五所"},{"zip_code":"4000233","prefecture_kana":"ヤマナシケン","city_kana":"ミナミアルプスシ","town_kana":"スサワ","prefecture":"山梨県","city":"南アルプス市","town":"須沢"},{"zip_code":"4000416","prefecture_kana":"ヤマナシケン","city_kana":"ミナミアルプスシ","town_kana":"ダイシ","prefecture":"山梨県","city":"南アルプス市","town":"大師"},{"zip_code":"4000318","prefecture_kana":"ヤマナシケン","city_kana":"ミナミアルプスシ","town_kana":"タカオ","prefecture":"山梨県","city":"南アルプス市","town":"高尾"},{"zip_code":"4000402","prefecture_kana":"ヤマナシケン","city_kana":"ミナミアルプスシ","town_kana":"タジマ","prefecture":"山梨県","city":"南アルプス市","town":"田島"},{"zip_code":"4000426","prefecture_kana":"ヤマナシケン","city_kana":"ミナミアルプスシ","town_kana":"ツカハラ","prefecture":"山梨県","city":"南アルプス市","town":"塚原"},{"zip_code":"4000225","prefecture_kana":"ヤマナシケン","city_kana":"ミナミアルプスシ","town_kana":"ツクヤマ","prefecture":"山梨県","city":"南アルプス市","town":"築山"},{"zip_code":"4000337","prefecture_kana":"ヤマナシケン","city_kana":"ミナミアルプスシ","town_kana":"テラベ","prefecture":"山梨県","city":"南アルプス市","town":"寺部"},{"zip_code":"4000334","prefecture_kana":"ヤマナシケン","city_kana":"ミナミアルプスシ","town_kana":"トウダ","prefecture":"山梨県","city":"南アルプス市","town":"藤田"},{"zip_code":"4000214","prefecture_kana":"ヤマナシケン","city_kana":"ミナミアルプスシ","town_kana":"ドウドウ","prefecture":"山梨県","city":"南アルプス市","town":"百々"},{"zip_code":"4000336","prefecture_kana":"ヤマナシケン","city_kana":"ミナミアルプスシ","town_kana":"トウカイチバ","prefecture":"山梨県","city":"南アルプス市","town":"十日市場"},{"zip_code":"4000203","prefecture_kana":"ヤマナシケン","city_kana":"ミナミアルプスシ","town_kana":"トクナガ","prefecture":"山梨県","city":"南アルプス市","town":"徳永"},{"zip_code":"4000414","prefecture_kana":"ヤマナシケン","city_kana":"ミナミアルプスシ","town_kana":"トダ","prefecture":"山梨県","city":"南アルプス市","town":"戸田"},{"zip_code":"4000316","prefecture_kana":"ヤマナシケン","city_kana":"ミナミアルプスシ","town_kana":"ナカノ","prefecture":"山梨県","city":"南アルプス市","town":"中野"},{"zip_code":"4000411","prefecture_kana":"ヤマナシケン","city_kana":"ミナミアルプスシ","town_kana":"ニシナンゴ","prefecture":"山梨県","city":"南アルプス市","town":"西南湖"},{"zip_code":"4000213","prefecture_kana":"ヤマナシケン","city_kana":"ミナミアルプスシ","town_kana":"ニシノ","prefecture":"山梨県","city":"南アルプス市","town":"西野"},{"zip_code":"4000422","prefecture_kana":"ヤマナシケン","city_kana":"ミナミアルプスシ","town_kana":"バラザワ","prefecture":"山梨県","city":"南アルプス市","town":"荊沢"},{"zip_code":"4000412","prefecture_kana":"ヤマナシケン","city_kana":"ミナミアルプスシ","town_kana":"ヒガシナンゴ","prefecture":"山梨県","city":"南アルプス市","town":"東南湖"},{"zip_code":"4000313","prefecture_kana":"ヤマナシケン","city_kana":"ミナミアルプスシ","town_kana":"ヒラオカ","prefecture":"山梨県","city":"南アルプス市","town":"平岡"},{"zip_code":"4000404","prefecture_kana":"ヤマナシケン","city_kana":"ミナミアルプスシ","town_kana":"フルイチバ","prefecture":"山梨県","city":"南アルプス市","town":"古市場"},{"zip_code":"4000415","prefecture_kana":"ヤマナシケン","city_kana":"ミナミアルプスシ","town_kana":"ミヤザワ","prefecture":"山梨県","city":"南アルプス市","town":"宮沢"},{"zip_code":"4000206","prefecture_kana":"ヤマナシケン","city_kana":"ミナミアルプスシ","town_kana":"ムジナ","prefecture":"山梨県","city":"南アルプス市","town":"六科"},{"zip_code":"4000301","prefecture_kana":"ヤマナシケン","city_kana":"ミナミアルプスシ","town_kana":"モモソノ","prefecture":"山梨県","city":"南アルプス市","town":"桃園"},{"zip_code":"4000205","prefecture_kana":"ヤマナシケン","city_kana":"ミナミアルプスシ","town_kana":"ヤゴシマ","prefecture":"山梨県","city":"南アルプス市","town":"野牛島"},{"zip_code":"4000308","prefecture_kana":"ヤマナシケン","city_kana":"ミナミアルプスシ","town_kana":"ヤマデラ","prefecture":"山梨県","city":"南アルプス市","town":"山寺"},{"zip_code":"4000425","prefecture_kana":"ヤマナシケン","city_kana":"ミナミアルプスシ","town_kana":"ユザワ","prefecture":"山梨県","city":"南アルプス市","town":"湯沢"},{"zip_code":"4000304","prefecture_kana":"ヤマナシケン","city_kana":"ミナミアルプスシ","town_kana":"ヨシダ","prefecture":"山梨県","city":"南アルプス市","town":"吉田"},{"zip_code":"4080000","prefecture_kana":"ヤマナシケン","city_kana":"ホクトシ","town_kana":"イカニケイサイガナイバアイ","prefecture":"山梨県","city":"北杜市","town":"以下に掲載がない場合"},{"zip_code":"4080201","prefecture_kana":"ヤマナシケン","city_kana":"ホクトシ","town_kana":"アケノチョウアサオ","prefecture":"山梨県","city":"北杜市","town":"明野町浅尾"},{"zip_code":"4080205","prefecture_kana":"ヤマナシケン","city_kana":"ホクトシ","town_kana":"アケノチョウアサオシンデン","prefecture":"山梨県","city":"北杜市","town":"明野町浅尾新田"},{"zip_code":"4080204","prefecture_kana":"ヤマナシケン","city_kana":"ホクトシ","town_kana":"アケノチョウウエデ","prefecture":"山梨県","city":"北杜市","town":"明野町上手"},{"zip_code":"4080202","prefecture_kana":"ヤマナシケン","city_kana":"ホクトシ","town_kana":"アケノチョウオガサハラ","prefecture":"山梨県","city":"北杜市","town":"明野町小笠原"},{"zip_code":"4080207","prefecture_kana":"ヤマナシケン","city_kana":"ホクトシ","town_kana":"アケノチョウカミカンドリ","prefecture":"山梨県","city":"北杜市","town":"明野町上神取"},{"zip_code":"4080203","prefecture_kana":"ヤマナシケン","city_kana":"ホクトシ","town_kana":"アケノチョウサンノクラ","prefecture":"山梨県","city":"北杜市","town":"明野町三之蔵"},{"zip_code":"4080206","prefecture_kana":"ヤマナシケン","city_kana":"ホクトシ","town_kana":"アケノチョウシモカンドリ","prefecture":"山梨県","city":"北杜市","town":"明野町下神取"},{"zip_code":"4070311","prefecture_kana":"ヤマナシケン","city_kana":"ホクトシ","town_kana":"オオイズミチョウニシイデ８２４０−１（ウツクシモリ、タカネソウ、セイセンリョウ、サンメドウズスキージョウ）","prefecture":"山梨県","city":"北杜市","town":"大泉町西井出８２４０−１（美森、たかね荘、清泉寮、サンメドウズスキー場）"},{"zip_code":"4091501","prefecture_kana":"ヤマナシケン","city_kana":"ホクトシ","town_kana":"オオイズミチョウニシイデ（ソノタ）","prefecture":"山梨県","city":"北杜市","town":"大泉町西井出（その他）"},{"zip_code":"4091502","prefecture_kana":"ヤマナシケン","city_kana":"ホクトシ","town_kana":"オオイズミチョウヤト","prefecture":"山梨県","city":"北杜市","town":"大泉町谷戸"},{"zip_code":"4080044","prefecture_kana":"ヤマナシケン","city_kana":"ホクトシ","town_kana":"コブチサワチョウ","prefecture":"山梨県","city":"北杜市","town":"小淵沢町"},{"zip_code":"4080041","prefecture_kana":"ヤマナシケン","city_kana":"ホクトシ","town_kana":"コブチサワチョウカミササオ","prefecture":"山梨県","city":"北杜市","town":"小淵沢町上笹尾"},{"zip_code":"4080043","prefecture_kana":"ヤマナシケン","city_kana":"ホクトシ","town_kana":"コブチサワチョウシモササオ","prefecture":"山梨県","city":"北杜市","town":"小淵沢町下笹尾"},{"zip_code":"4080042","prefecture_kana":"ヤマナシケン","city_kana":"ホクトシ","town_kana":"コブチサワチョウショウコウ","prefecture":"山梨県","city":"北杜市","town":"小淵沢町松向"},{"zip_code":"4080111","prefecture_kana":"ヤマナシケン","city_kana":"ホクトシ","town_kana":"スタマチョウアナダイラ","prefecture":"山梨県","city":"北杜市","town":"須玉町穴平"},{"zip_code":"4080103","prefecture_kana":"ヤマナシケン","city_kana":"ホクトシ","town_kana":"スタマチョウエグサ","prefecture":"山梨県","city":"北杜市","town":"須玉町江草"},{"zip_code":"4080113","prefecture_kana":"ヤマナシケン","city_kana":"ホクトシ","town_kana":"スタマチョウオオクラ","prefecture":"山梨県","city":"北杜市","town":"須玉町大蔵"},{"zip_code":"4080101","prefecture_kana":"ヤマナシケン","city_kana":"ホクトシ","town_kana":"スタマチョウオビ","prefecture":"山梨県","city":"北杜市","town":"須玉町小尾"},{"zip_code":"4070321","prefecture_kana":"ヤマナシケン","city_kana":"ホクトシ","town_kana":"スタマチョウカミツガネ","prefecture":"山梨県","city":"北杜市","town":"須玉町上津金"},{"zip_code":"4080104","prefecture_kana":"ヤマナシケン","city_kana":"ホクトシ","town_kana":"スタマチョウコゴエ","prefecture":"山梨県","city":"北杜市","town":"須玉町小倉"},{"zip_code":"4080116","prefecture_kana":"ヤマナシケン","city_kana":"ホクトシ","town_kana":"スタマチョウサカイノサワ","prefecture":"山梨県","city":"北杜市","town":"須玉町境之澤"},{"zip_code":"4070322","prefecture_kana":"ヤマナシケン","city_kana":"ホクトシ","town_kana":"スタマチョウシモツガネ","prefecture":"山梨県","city":"北杜市","town":"須玉町下津金"},{"zip_code":"4080114","prefecture_kana":"ヤマナシケン","city_kana":"ホクトシ","town_kana":"スタマチョウトウダ","prefecture":"山梨県","city":"北杜市","town":"須玉町藤田"},{"zip_code":"4080105","prefecture_kana":"ヤマナシケン","city_kana":"ホクトシ","town_kana":"スタマチョウヒガシムキ","prefecture":"山梨県","city":"北杜市","town":"須玉町東向"},{"zip_code":"4080102","prefecture_kana":"ヤマナシケン","city_kana":"ホクトシ","town_kana":"スタマチョウヒシ","prefecture":"山梨県","city":"北杜市","town":"須玉町比志"},{"zip_code":"4080115","prefecture_kana":"ヤマナシケン","city_kana":"ホクトシ","town_kana":"スタマチョウマミョウダ","prefecture":"山梨県","city":"北杜市","town":"須玉町大豆生田"},{"zip_code":"4080112","prefecture_kana":"ヤマナシケン","city_kana":"ホクトシ","town_kana":"スタマチョウワカミコ","prefecture":"山梨県","city":"北杜市","town":"須玉町若神子"},{"zip_code":"4080117","prefecture_kana":"ヤマナシケン","city_kana":"ホクトシ","town_kana":"スタマチョウワカミコシンマチ","prefecture":"山梨県","city":"北杜市","town":"須玉町若神子新町"},{"zip_code":"4070302","prefecture_kana":"ヤマナシケン","city_kana":"ホクトシ","town_kana":"タカネチョウアサカワ","prefecture":"山梨県","city":"北杜市","town":"高根町浅川"},{"zip_code":"4080016","prefecture_kana":"ヤマナシケン","city_kana":"ホクトシ","town_kana":"タカネチョウカミクロザワ","prefecture":"山梨県","city":"北杜市","town":"高根町上黒澤"},{"zip_code":"4070301","prefecture_kana":"ヤマナシケン","city_kana":"ホクトシ","town_kana":"タカネチョウキヨサト","prefecture":"山梨県","city":"北杜市","town":"高根町清里"},{"zip_code":"4080013","prefecture_kana":"ヤマナシケン","city_kana":"ホクトシ","town_kana":"タカネチョウクラバラ","prefecture":"山梨県","city":"北杜市","town":"高根町蔵原"},{"zip_code":"4080014","prefecture_kana":"ヤマナシケン","city_kana":"ホクトシ","town_kana":"タカネチョウコイケ","prefecture":"山梨県","city":"北杜市","town":"高根町小池"},{"zip_code":"4080017","prefecture_kana":"ヤマナシケン","city_kana":"ホクトシ","town_kana":"タカネチョウゴチョウダ","prefecture":"山梨県","city":"北杜市","town":"高根町五町田"},{"zip_code":"4080015","prefecture_kana":"ヤマナシケン","city_kana":"ホクトシ","town_kana":"タカネチョウシモクロザワ","prefecture":"山梨県","city":"北杜市","town":"高根町下黒澤"},{"zip_code":"4080004","prefecture_kana":"ヤマナシケン","city_kana":"ホクトシ","town_kana":"タカネチョウツツミ","prefecture":"山梨県","city":"北杜市","town":"高根町堤"},{"zip_code":"4080001","prefecture_kana":"ヤマナシケン","city_kana":"ホクトシ","town_kana":"タカネチョウナガサワ","prefecture":"山梨県","city":"北杜市","town":"高根町長沢"},{"zip_code":"4080003","prefecture_kana":"ヤマナシケン","city_kana":"ホクトシ","town_kana":"タカネチョウヒガシイデ","prefecture":"山梨県","city":"北杜市","town":"高根町東井出"},{"zip_code":"4080012","prefecture_kana":"ヤマナシケン","city_kana":"ホクトシ","town_kana":"タカネチョウミノワ","prefecture":"山梨県","city":"北杜市","town":"高根町箕輪"},{"zip_code":"4080011","prefecture_kana":"ヤマナシケン","city_kana":"ホクトシ","town_kana":"タカネチョウミノワシンマチ","prefecture":"山梨県","city":"北杜市","town":"高根町箕輪新町"},{"zip_code":"4080002","prefecture_kana":"ヤマナシケン","city_kana":"ホクトシ","town_kana":"タカネチョウムラヤマキタワリ","prefecture":"山梨県","city":"北杜市","town":"高根町村山北割"},{"zip_code":"4080018","prefecture_kana":"ヤマナシケン","city_kana":"ホクトシ","town_kana":"タカネチョウムラヤマニシワリ","prefecture":"山梨県","city":"北杜市","town":"高根町村山西割"},{"zip_code":"4080019","prefecture_kana":"ヤマナシケン","city_kana":"ホクトシ","town_kana":"タカネチョウムラヤマヒガシワリ","prefecture":"山梨県","city":"北杜市","town":"高根町村山東割"},{"zip_code":"4080032","prefecture_kana":"ヤマナシケン","city_kana":"ホクトシ","town_kana":"ナガサカチョウオイガモリ","prefecture":"山梨県","city":"北杜市","town":"長坂町大井ケ森"},{"zip_code":"4080034","prefecture_kana":"ヤマナシケン","city_kana":"ホクトシ","town_kana":"ナガサカチョウオオバッタ","prefecture":"山梨県","city":"北杜市","town":"長坂町大八田"},{"zip_code":"4080031","prefecture_kana":"ヤマナシケン","city_kana":"ホクトシ","town_kana":"ナガサカチョウコアラマ","prefecture":"山梨県","city":"北杜市","town":"長坂町小荒間"},{"zip_code":"4080023","prefecture_kana":"ヤマナシケン","city_kana":"ホクトシ","town_kana":"ナガサカチョウシブサワ","prefecture":"山梨県","city":"北杜市","town":"長坂町渋沢"},{"zip_code":"4080033","prefecture_kana":"ヤマナシケン","city_kana":"ホクトシ","town_kana":"ナガサカチョウシロイザワ","prefecture":"山梨県","city":"北杜市","town":"長坂町白井沢"},{"zip_code":"4080022","prefecture_kana":"ヤマナシケン","city_kana":"ホクトシ","town_kana":"ナガサカチョウツカカワ","prefecture":"山梨県","city":"北杜市","town":"長坂町塚川"},{"zip_code":"4080024","prefecture_kana":"ヤマナシケン","city_kana":"ホクトシ","town_kana":"ナガサカチョウトミオカ","prefecture":"山梨県","city":"北杜市","town":"長坂町富岡"},{"zip_code":"4080021","prefecture_kana":"ヤマナシケン","city_kana":"ホクトシ","town_kana":"ナガサカチョウナガサカカミジョウ","prefecture":"山梨県","city":"北杜市","town":"長坂町長坂上条"},{"zip_code":"4080025","prefecture_kana":"ヤマナシケン","city_kana":"ホクトシ","town_kana":"ナガサカチョウナガサカシモジョウ","prefecture":"山梨県","city":"北杜市","town":"長坂町長坂下条"},{"zip_code":"4080037","prefecture_kana":"ヤマナシケン","city_kana":"ホクトシ","town_kana":"ナガサカチョウナカジマ","prefecture":"山梨県","city":"北杜市","town":"長坂町中島"},{"zip_code":"4080036","prefecture_kana":"ヤマナシケン","city_kana":"ホクトシ","town_kana":"ナガサカチョウナカマル","prefecture":"山梨県","city":"北杜市","town":"長坂町中丸"},{"zip_code":"4080035","prefecture_kana":"ヤマナシケン","city_kana":"ホクトシ","town_kana":"ナガサカチョウナツアキ","prefecture":"山梨県","city":"北杜市","town":"長坂町夏秋"},{"zip_code":"4080026","prefecture_kana":"ヤマナシケン","city_kana":"ホクトシ","town_kana":"ナガサカチョウヒノ","prefecture":"山梨県","city":"北杜市","town":"長坂町日野"},{"zip_code":"4080319","prefecture_kana":"ヤマナシケン","city_kana":"ホクトシ","town_kana":"ハクシュウチョウオオムカワ","prefecture":"山梨県","city":"北杜市","town":"白州町大武川"},{"zip_code":"4080318","prefecture_kana":"ヤマナシケン","city_kana":"ホクトシ","town_kana":"ハクシュウチョウカミキョウライシ","prefecture":"山梨県","city":"北杜市","town":"白州町上教来石"},{"zip_code":"4080317","prefecture_kana":"ヤマナシケン","city_kana":"ホクトシ","town_kana":"ハクシュウチョウシモキョウライシ","prefecture":"山梨県","city":"北杜市","town":"白州町下教来石"},{"zip_code":"4080315","prefecture_kana":"ヤマナシケン","city_kana":"ホクトシ","town_kana":"ハクシュウチョウシラス","prefecture":"山梨県","city":"北杜市","town":"白州町白須"},{"zip_code":"4080312","prefecture_kana":"ヤマナシケン","city_kana":"ホクトシ","town_kana":"ハクシュウチョウダイガハラ","prefecture":"山梨県","city":"北杜市","town":"白州町台ケ原"},{"zip_code":"4080314","prefecture_kana":"ヤマナシケン","city_kana":"ホクトシ","town_kana":"ハクシュウチョウダイボウ","prefecture":"山梨県","city":"北杜市","town":"白州町大坊"},{"zip_code":"4080316","prefecture_kana":"ヤマナシケン","city_kana":"ホクトシ","town_kana":"ハクシュウチョウトリハラ","prefecture":"山梨県","city":"北杜市","town":"白州町鳥原"},{"zip_code":"4080311","prefecture_kana":"ヤマナシケン","city_kana":"ホクトシ","town_kana":"ハクシュウチョウハナミズ","prefecture":"山梨県","city":"北杜市","town":"白州町花水"},{"zip_code":"4080313","prefecture_kana":"ヤマナシケン","city_kana":"ホクトシ","town_kana":"ハクシュウチョウヨコテ","prefecture":"山梨県","city":"北杜市","town":"白州町横手"},{"zip_code":"4080305","prefecture_kana":"ヤマナシケン","city_kana":"ホクトシ","town_kana":"ムカワチョウクロサワ","prefecture":"山梨県","city":"北杜市","town":"武川町黒澤"},{"zip_code":"4080304","prefecture_kana":"ヤマナシケン","city_kana":"ホクトシ","town_kana":"ムカワチョウシンオク","prefecture":"山梨県","city":"北杜市","town":"武川町新奥"},{"zip_code":"4080302","prefecture_kana":"ヤマナシケン","city_kana":"ホクトシ","town_kana":"ムカワチョウマギノハラ","prefecture":"山梨県","city":"北杜市","town":"武川町牧原"},{"zip_code":"4080301","prefecture_kana":"ヤマナシケン","city_kana":"ホクトシ","town_kana":"ムカワチョウミフキ","prefecture":"山梨県","city":"北杜市","town":"武川町三吹"},{"zip_code":"4080303","prefecture_kana":"ヤマナシケン","city_kana":"ホクトシ","town_kana":"ムカワチョウミヤノワキ","prefecture":"山梨県","city":"北杜市","town":"武川町宮脇"},{"zip_code":"4080307","prefecture_kana":"ヤマナシケン","city_kana":"ホクトシ","town_kana":"ムカワチョウヤナギサワ","prefecture":"山梨県","city":"北杜市","town":"武川町柳澤"},{"zip_code":"4080306","prefecture_kana":"ヤマナシケン","city_kana":"ホクトシ","town_kana":"ムカワチョウヤマタカ","prefecture":"山梨県","city":"北杜市","town":"武川町山高"},{"zip_code":"4000100","prefecture_kana":"ヤマナシケン","city_kana":"カイシ","town_kana":"イカニケイサイガナイバアイ","prefecture":"山梨県","city":"甲斐市","town":"以下に掲載がない場合"},{"zip_code":"4001126","prefecture_kana":"ヤマナシケン","city_kana":"カイシ","town_kana":"アテラ","prefecture":"山梨県","city":"甲斐市","town":"安寺"},{"zip_code":"4000106","prefecture_kana":"ヤマナシケン","city_kana":"カイシ","town_kana":"イワモリ","prefecture":"山梨県","city":"甲斐市","town":"岩森"},{"zip_code":"4000121","prefecture_kana":"ヤマナシケン","city_kana":"カイシ","town_kana":"ウシク","prefecture":"山梨県","city":"甲斐市","town":"牛句"},{"zip_code":"4001114","prefecture_kana":"ヤマナシケン","city_kana":"カイシ","town_kana":"ウチガエシ","prefecture":"山梨県","city":"甲斐市","town":"打返"},{"zip_code":"4000108","prefecture_kana":"ヤマナシケン","city_kana":"カイシ","town_kana":"ウツヤ","prefecture":"山梨県","city":"甲斐市","town":"宇津谷"},{"zip_code":"4001115","prefecture_kana":"ヤマナシケン","city_kana":"カイシ","town_kana":"ウルシド","prefecture":"山梨県","city":"甲斐市","town":"漆戸"},{"zip_code":"4000128","prefecture_kana":"ヤマナシケン","city_kana":"カイシ","town_kana":"オオクボ","prefecture":"山梨県","city":"甲斐市","town":"大久保"},{"zip_code":"4000126","prefecture_kana":"ヤマナシケン","city_kana":"カイシ","town_kana":"オオシモジョウ","prefecture":"山梨県","city":"甲斐市","town":"大下条"},{"zip_code":"4000103","prefecture_kana":"ヤマナシケン","city_kana":"カイシ","town_kana":"オオヌタ","prefecture":"山梨県","city":"甲斐市","town":"大垈"},{"zip_code":"4001121","prefecture_kana":"ヤマナシケン","city_kana":"カイシ","town_kana":"カミアシザワ","prefecture":"山梨県","city":"甲斐市","town":"上芦沢"},{"zip_code":"4001117","prefecture_kana":"ヤマナシケン","city_kana":"カイシ","town_kana":"カミスゲクチ","prefecture":"山梨県","city":"甲斐市","town":"上菅口"},{"zip_code":"4001123","prefecture_kana":"ヤマナシケン","city_kana":"カイシ","town_kana":"カミフクザワ","prefecture":"山梨県","city":"甲斐市","town":"上福沢"},{"zip_code":"4001113","prefecture_kana":"ヤマナシケン","city_kana":"カイシ","town_kana":"カメザワ（ソノタ）","prefecture":"山梨県","city":"甲斐市","town":"亀沢（その他）"},{"zip_code":"4001131","prefecture_kana":"ヤマナシケン","city_kana":"カイシ","town_kana":"カメザワ（ダイミョウジン、６９４９バンチ）","prefecture":"山梨県","city":"甲斐市","town":"亀沢（大明神、６９４９番地）"},{"zip_code":"4001112","prefecture_kana":"ヤマナシケン","city_kana":"カイシ","town_kana":"キッサワ","prefecture":"山梨県","city":"甲斐市","town":"吉沢"},{"zip_code":"4001127","prefecture_kana":"ヤマナシケン","city_kana":"カイシ","town_kana":"ゴウド","prefecture":"山梨県","city":"甲斐市","town":"神戸"},{"zip_code":"4000122","prefecture_kana":"ヤマナシケン","city_kana":"カイシ","town_kana":"サカイ","prefecture":"山梨県","city":"甲斐市","town":"境"},{"zip_code":"4001116","prefecture_kana":"ヤマナシケン","city_kana":"カイシ","town_kana":"シシダイラ","prefecture":"山梨県","city":"甲斐市","town":"獅子平"},{"zip_code":"4000107","prefecture_kana":"ヤマナシケン","city_kana":"カイシ","town_kana":"シダ","prefecture":"山梨県","city":"甲斐市","town":"志田"},{"zip_code":"4000115","prefecture_kana":"ヤマナシケン","city_kana":"カイシ","town_kana":"シノハラ","prefecture":"山梨県","city":"甲斐市","town":"篠原"},{"zip_code":"4000123","prefecture_kana":"ヤマナシケン","city_kana":"カイシ","town_kana":"シマカミジョウ","prefecture":"山梨県","city":"甲斐市","town":"島上条"},{"zip_code":"4001122","prefecture_kana":"ヤマナシケン","city_kana":"カイシ","town_kana":"シモアシザワ","prefecture":"山梨県","city":"甲斐市","town":"下芦沢"},{"zip_code":"4000105","prefecture_kana":"ヤマナシケン","city_kana":"カイシ","town_kana":"シモイマイ","prefecture":"山梨県","city":"甲斐市","town":"下今井"},{"zip_code":"4001125","prefecture_kana":"ヤマナシケン","city_kana":"カイシ","town_kana":"シモスゲグチ","prefecture":"山梨県","city":"甲斐市","town":"下菅口"},{"zip_code":"4001124","prefecture_kana":"ヤマナシケン","city_kana":"カイシ","town_kana":"シモフクザワ","prefecture":"山梨県","city":"甲斐市","town":"下福沢"},{"zip_code":"4000101","prefecture_kana":"ヤマナシケン","city_kana":"カイシ","town_kana":"ショウブザワ","prefecture":"山梨県","city":"甲斐市","town":"菖蒲沢"},{"zip_code":"4001111","prefecture_kana":"ヤマナシケン","city_kana":"カイシ","town_kana":"センダ","prefecture":"山梨県","city":"甲斐市","town":"千田"},{"zip_code":"4000116","prefecture_kana":"ヤマナシケン","city_kana":"カイシ","town_kana":"タマガワ","prefecture":"山梨県","city":"甲斐市","town":"玉川"},{"zip_code":"4000102","prefecture_kana":"ヤマナシケン","city_kana":"カイシ","town_kana":"ダンゴアライ","prefecture":"山梨県","city":"甲斐市","town":"団子新居"},{"zip_code":"4000127","prefecture_kana":"ヤマナシケン","city_kana":"カイシ","town_kana":"テングサワ","prefecture":"山梨県","city":"甲斐市","town":"天狗沢"},{"zip_code":"4000113","prefecture_kana":"ヤマナシケン","city_kana":"カイシ","town_kana":"トミタケシンデン","prefecture":"山梨県","city":"甲斐市","town":"富竹新田"},{"zip_code":"4000124","prefecture_kana":"ヤマナシケン","city_kana":"カイシ","town_kana":"ナカシモジョウ","prefecture":"山梨県","city":"甲斐市","town":"中下条"},{"zip_code":"4000125","prefecture_kana":"ヤマナシケン","city_kana":"カイシ","town_kana":"ナガヅカ","prefecture":"山梨県","city":"甲斐市","town":"長塚"},{"zip_code":"4000112","prefecture_kana":"ヤマナシケン","city_kana":"カイシ","town_kana":"ナトリ","prefecture":"山梨県","city":"甲斐市","town":"名取"},{"zip_code":"4000117","prefecture_kana":"ヤマナシケン","city_kana":"カイシ","town_kana":"ニシヤハタ","prefecture":"山梨県","city":"甲斐市","town":"西八幡"},{"zip_code":"4000114","prefecture_kana":"ヤマナシケン","city_kana":"カイシ","town_kana":"マンザイ","prefecture":"山梨県","city":"甲斐市","town":"万才"},{"zip_code":"4000118","prefecture_kana":"ヤマナシケン","city_kana":"カイシ","town_kana":"リュウオウ","prefecture":"山梨県","city":"甲斐市","town":"竜王"},{"zip_code":"4000111","prefecture_kana":"ヤマナシケン","city_kana":"カイシ","town_kana":"リュウオウシンマチ","prefecture":"山梨県","city":"甲斐市","town":"竜王新町"},{"zip_code":"4000104","prefecture_kana":"ヤマナシケン","city_kana":"カイシ","town_kana":"リュウジ","prefecture":"山梨県","city":"甲斐市","town":"龍地"},{"zip_code":"4060000","prefecture_kana":"ヤマナシケン","city_kana":"フエフキシ","town_kana":"イカニケイサイガナイバアイ","prefecture":"山梨県","city":"笛吹市","town":"以下に掲載がない場合"},{"zip_code":"4093702","prefecture_kana":"ヤマナシケン","city_kana":"フエフキシ","town_kana":"アシガワチョウアライバラ","prefecture":"山梨県","city":"笛吹市","town":"芦川町新井原"},{"zip_code":"4093704","prefecture_kana":"ヤマナシケン","city_kana":"フエフキシ","town_kana":"アシガワチョウオウシュク","prefecture":"山梨県","city":"笛吹市","town":"芦川町鶯宿"},{"zip_code":"4093701","prefecture_kana":"ヤマナシケン","city_kana":"フエフキシ","town_kana":"アシガワチョウカミアシガワ","prefecture":"山梨県","city":"笛吹市","town":"芦川町上芦川"},{"zip_code":"4093703","prefecture_kana":"ヤマナシケン","city_kana":"フエフキシ","town_kana":"アシガワチョウナカアシガワ","prefecture":"山梨県","city":"笛吹市","town":"芦川町中芦川"},{"zip_code":"4060031","prefecture_kana":"ヤマナシケン","city_kana":"フエフキシ","town_kana":"イサワチョウイチベ","prefecture":"山梨県","city":"笛吹市","town":"石和町市部"},{"zip_code":"4060045","prefecture_kana":"ヤマナシケン","city_kana":"フエフキシ","town_kana":"イサワチョウイド","prefecture":"山梨県","city":"笛吹市","town":"石和町井戸"},{"zip_code":"4060042","prefecture_kana":"ヤマナシケン","city_kana":"フエフキシ","town_kana":"イサワチョウイマイ","prefecture":"山梨県","city":"笛吹市","town":"石和町今井"},{"zip_code":"4060028","prefecture_kana":"ヤマナシケン","city_kana":"フエフキシ","town_kana":"イサワチョウエキマエ","prefecture":"山梨県","city":"笛吹市","town":"石和町駅前"},{"zip_code":"4060025","prefecture_kana":"ヤマナシケン","city_kana":"フエフキシ","town_kana":"イサワチョウカミヒライ","prefecture":"山梨県","city":"笛吹市","town":"石和町上平井"},{"zip_code":"4060034","prefecture_kana":"ヤマナシケン","city_kana":"フエフキシ","town_kana":"イサワチョウカラカシワ","prefecture":"山梨県","city":"笛吹市","town":"石和町唐柏"},{"zip_code":"4060024","prefecture_kana":"ヤマナシケン","city_kana":"フエフキシ","town_kana":"イサワチョウカワナカジマ","prefecture":"山梨県","city":"笛吹市","town":"石和町川中島"},{"zip_code":"4060036","prefecture_kana":"ヤマナシケン","city_kana":"フエフキシ","town_kana":"イサワチョウクボナカジマ","prefecture":"山梨県","city":"笛吹市","town":"石和町窪中島"},{"zip_code":"4060033","prefecture_kana":"ヤマナシケン","city_kana":"フエフキシ","town_kana":"イサワチョウコイサワ","prefecture":"山梨県","city":"笛吹市","town":"石和町小石和"},{"zip_code":"4060043","prefecture_kana":"ヤマナシケン","city_kana":"フエフキシ","town_kana":"イサワチョウコウチ","prefecture":"山梨県","city":"笛吹市","town":"石和町河内"},{"zip_code":"4060027","prefecture_kana":"ヤマナシケン","city_kana":"フエフキシ","town_kana":"イサワチョウシモヒライ","prefecture":"山梨県","city":"笛吹市","town":"石和町下平井"},{"zip_code":"4060044","prefecture_kana":"ヤマナシケン","city_kana":"フエフキシ","town_kana":"イサワチョウスナハラ","prefecture":"山梨県","city":"笛吹市","town":"石和町砂原"},{"zip_code":"4060026","prefecture_kana":"ヤマナシケン","city_kana":"フエフキシ","town_kana":"イサワチョウナカガワ","prefecture":"山梨県","city":"笛吹市","town":"石和町中川"},{"zip_code":"4060023","prefecture_kana":"ヤマナシケン","city_kana":"フエフキシ","town_kana":"イサワチョウハツタ","prefecture":"山梨県","city":"笛吹市","town":"石和町八田"},{"zip_code":"4060046","prefecture_kana":"ヤマナシケン","city_kana":"フエフキシ","town_kana":"イサワチョウヒガシアブラカワ","prefecture":"山梨県","city":"笛吹市","town":"石和町東油川"},{"zip_code":"4060041","prefecture_kana":"ヤマナシケン","city_kana":"フエフキシ","town_kana":"イサワチョウヒガシタカハシ","prefecture":"山梨県","city":"笛吹市","town":"石和町東高橋"},{"zip_code":"4060035","prefecture_kana":"ヤマナシケン","city_kana":"フエフキシ","town_kana":"イサワチョウヒロセ","prefecture":"山梨県","city":"笛吹市","town":"石和町広瀬"},{"zip_code":"4060021","prefecture_kana":"ヤマナシケン","city_kana":"フエフキシ","town_kana":"イサワチョウマツモト","prefecture":"山梨県","city":"笛吹市","town":"石和町松本"},{"zip_code":"4060022","prefecture_kana":"ヤマナシケン","city_kana":"フエフキシ","town_kana":"イサワチョウヤマサキ","prefecture":"山梨県","city":"笛吹市","town":"石和町山崎"},{"zip_code":"4060032","prefecture_kana":"ヤマナシケン","city_kana":"フエフキシ","town_kana":"イサワチョウヨッカイチバ","prefecture":"山梨県","city":"笛吹市","town":"石和町四日市場"},{"zip_code":"4050065","prefecture_kana":"ヤマナシケン","city_kana":"フエフキシ","town_kana":"イチノミヤチョウアラマキ","prefecture":"山梨県","city":"笛吹市","town":"一宮町新巻"},{"zip_code":"4050061","prefecture_kana":"ヤマナシケン","city_kana":"フエフキシ","town_kana":"イチノミヤチョウイシ","prefecture":"山梨県","city":"笛吹市","town":"一宮町石"},{"zip_code":"4050063","prefecture_kana":"ヤマナシケン","city_kana":"フエフキシ","town_kana":"イチノミヤチョウイチノクラ","prefecture":"山梨県","city":"笛吹市","town":"一宮町市之蔵"},{"zip_code":"4050056","prefecture_kana":"ヤマナシケン","city_kana":"フエフキシ","town_kana":"イチノミヤチョウイチノミヤ","prefecture":"山梨県","city":"笛吹市","town":"一宮町一ノ宮"},{"zip_code":"4050062","prefecture_kana":"ヤマナシケン","city_kana":"フエフキシ","town_kana":"イチノミヤチョウカナザワ","prefecture":"山梨県","city":"笛吹市","town":"一宮町金沢"},{"zip_code":"4050079","prefecture_kana":"ヤマナシケン","city_kana":"フエフキシ","town_kana":"イチノミヤチョウカネタ","prefecture":"山梨県","city":"笛吹市","town":"一宮町金田"},{"zip_code":"4050059","prefecture_kana":"ヤマナシケン","city_kana":"フエフキシ","town_kana":"イチノミヤチョウカミヤハギ","prefecture":"山梨県","city":"笛吹市","town":"一宮町上矢作"},{"zip_code":"4050066","prefecture_kana":"ヤマナシケン","city_kana":"フエフキシ","town_kana":"イチノミヤチョウカンザワ","prefecture":"山梨県","city":"笛吹市","town":"一宮町神沢"},{"zip_code":"4050051","prefecture_kana":"ヤマナシケン","city_kana":"フエフキシ","town_kana":"イチノミヤチョウキタノロ","prefecture":"山梨県","city":"笛吹市","town":"一宮町北野呂"},{"zip_code":"4050071","prefecture_kana":"ヤマナシケン","city_kana":"フエフキシ","town_kana":"イチノミヤチョウキタミヤコヅカ","prefecture":"山梨県","city":"笛吹市","town":"一宮町北都塚"},{"zip_code":"4050068","prefecture_kana":"ヤマナシケン","city_kana":"フエフキシ","town_kana":"イチノミヤチョウキツネアライ","prefecture":"山梨県","city":"笛吹市","town":"一宮町狐新居"},{"zip_code":"4050074","prefecture_kana":"ヤマナシケン","city_kana":"フエフキシ","town_kana":"イチノミヤチョウコクブ","prefecture":"山梨県","city":"笛吹市","town":"一宮町国分"},{"zip_code":"4050058","prefecture_kana":"ヤマナシケン","city_kana":"フエフキシ","town_kana":"イチノミヤチョウコジョウ","prefecture":"山梨県","city":"笛吹市","town":"一宮町小城"},{"zip_code":"4050064","prefecture_kana":"ヤマナシケン","city_kana":"フエフキシ","town_kana":"イチノミヤチョウシオダ","prefecture":"山梨県","city":"笛吹市","town":"一宮町塩田"},{"zip_code":"4050055","prefecture_kana":"ヤマナシケン","city_kana":"フエフキシ","town_kana":"イチノミヤチョウジゾウドウ","prefecture":"山梨県","city":"笛吹市","town":"一宮町地蔵堂"},{"zip_code":"4050057","prefecture_kana":"ヤマナシケン","city_kana":"フエフキシ","town_kana":"イチノミヤチョウシモヤハギ","prefecture":"山梨県","city":"笛吹市","town":"一宮町下矢作"},{"zip_code":"4050073","prefecture_kana":"ヤマナシケン","city_kana":"フエフキシ","town_kana":"イチノミヤチョウスエキ","prefecture":"山梨県","city":"笛吹市","town":"一宮町末木"},{"zip_code":"4050054","prefecture_kana":"ヤマナシケン","city_kana":"フエフキシ","town_kana":"イチノミヤチョウセンベイジ","prefecture":"山梨県","city":"笛吹市","town":"一宮町千米寺"},{"zip_code":"4050076","prefecture_kana":"ヤマナシケン","city_kana":"フエフキシ","town_kana":"イチノミヤチョウタケハラダ","prefecture":"山梨県","city":"笛吹市","town":"一宮町竹原田"},{"zip_code":"4050078","prefecture_kana":"ヤマナシケン","city_kana":"フエフキシ","town_kana":"イチノミヤチョウタナカ","prefecture":"山梨県","city":"笛吹市","town":"一宮町田中"},{"zip_code":"4050067","prefecture_kana":"ヤマナシケン","city_kana":"フエフキシ","town_kana":"イチノミヤチョウツチヅカ","prefecture":"山梨県","city":"笛吹市","town":"一宮町土塚"},{"zip_code":"4050077","prefecture_kana":"ヤマナシケン","city_kana":"フエフキシ","town_kana":"イチノミヤチョウツボイ","prefecture":"山梨県","city":"笛吹市","town":"一宮町坪井"},{"zip_code":"4050053","prefecture_kana":"ヤマナシケン","city_kana":"フエフキシ","town_kana":"イチノミヤチョウナカオ","prefecture":"山梨県","city":"笛吹市","town":"一宮町中尾"},{"zip_code":"4050075","prefecture_kana":"ヤマナシケン","city_kana":"フエフキシ","town_kana":"イチノミヤチョウハシタテ","prefecture":"山梨県","city":"笛吹市","town":"一宮町橋立"},{"zip_code":"4050069","prefecture_kana":"ヤマナシケン","city_kana":"フエフキシ","town_kana":"イチノミヤチョウヒガシアライ","prefecture":"山梨県","city":"笛吹市","town":"一宮町東新居"},{"zip_code":"4050075","prefecture_kana":"ヤマナシケン","city_kana":"フエフキシ","town_kana":"イチノミヤチョウヒガシバラ","prefecture":"山梨県","city":"笛吹市","town":"一宮町東原"},{"zip_code":"4050052","prefecture_kana":"ヤマナシケン","city_kana":"フエフキシ","town_kana":"イチノミヤチョウミナミノロ","prefecture":"山梨県","city":"笛吹市","town":"一宮町南野呂"},{"zip_code":"4050072","prefecture_kana":"ヤマナシケン","city_kana":"フエフキシ","town_kana":"イチノミヤチョウモトミヤコヅカ","prefecture":"山梨県","city":"笛吹市","town":"一宮町本都塚"},{"zip_code":"4060005","prefecture_kana":"ヤマナシケン","city_kana":"フエフキシ","town_kana":"カスガイチョウカモ","prefecture":"山梨県","city":"笛吹市","town":"春日居町加茂"},{"zip_code":"4060012","prefecture_kana":"ヤマナシケン","city_kana":"フエフキシ","town_kana":"カスガイチョウクマノドウ","prefecture":"山梨県","city":"笛吹市","town":"春日居町熊野堂"},{"zip_code":"4060003","prefecture_kana":"ヤマナシケン","city_kana":"フエフキシ","town_kana":"カスガイチョウクワド","prefecture":"山梨県","city":"笛吹市","town":"春日居町桑戸"},{"zip_code":"4060014","prefecture_kana":"ヤマナシケン","city_kana":"フエフキシ","town_kana":"カスガイチョウコクフ","prefecture":"山梨県","city":"笛吹市","town":"春日居町国府"},{"zip_code":"4060004","prefecture_kana":"ヤマナシケン","city_kana":"フエフキシ","town_kana":"カスガイチョウコマツ","prefecture":"山梨県","city":"笛吹市","town":"春日居町小松"},{"zip_code":"4060015","prefecture_kana":"ヤマナシケン","city_kana":"フエフキシ","town_kana":"カスガイチョウシズメ","prefecture":"山梨県","city":"笛吹市","town":"春日居町鎮目"},{"zip_code":"4060001","prefecture_kana":"ヤマナシケン","city_kana":"フエフキシ","town_kana":"カスガイチョウシモイワシタ","prefecture":"山梨県","city":"笛吹市","town":"春日居町下岩下"},{"zip_code":"4060013","prefecture_kana":"ヤマナシケン","city_kana":"フエフキシ","town_kana":"カスガイチョウテラモト","prefecture":"山梨県","city":"笛吹市","town":"春日居町寺本"},{"zip_code":"4060011","prefecture_kana":"ヤマナシケン","city_kana":"フエフキシ","town_kana":"カスガイチョウトクジョウ","prefecture":"山梨県","city":"笛吹市","town":"春日居町徳条"},{"zip_code":"4060002","prefecture_kana":"ヤマナシケン","city_kana":"フエフキシ","town_kana":"カスガイチョウベツデン","prefecture":"山梨県","city":"笛吹市","town":"春日居町別田"},{"zip_code":"4060842","prefecture_kana":"ヤマナシケン","city_kana":"フエフキシ","town_kana":"サカイガワチョウイシバシ","prefecture":"山梨県","city":"笛吹市","town":"境川町石橋"},{"zip_code":"4060855","prefecture_kana":"ヤマナシケン","city_kana":"フエフキシ","town_kana":"サカイガワチョウオオクボ","prefecture":"山梨県","city":"笛吹市","town":"境川町大窪"},{"zip_code":"4060852","prefecture_kana":"ヤマナシケン","city_kana":"フエフキシ","town_kana":"サカイガワチョウオオグロサカ","prefecture":"山梨県","city":"笛吹市","town":"境川町大黒坂"},{"zip_code":"4060841","prefecture_kana":"ヤマナシケン","city_kana":"フエフキシ","town_kana":"サカイガワチョウオオツボ","prefecture":"山梨県","city":"笛吹市","town":"境川町大坪"},{"zip_code":"4060851","prefecture_kana":"ヤマナシケン","city_kana":"フエフキシ","town_kana":"サカイガワチョウコグロサカ","prefecture":"山梨県","city":"笛吹市","town":"境川町小黒坂"},{"zip_code":"4060844","prefecture_kana":"ヤマナシケン","city_kana":"フエフキシ","town_kana":"サカイガワチョウコヤマ","prefecture":"山梨県","city":"笛吹市","town":"境川町小山"},{"zip_code":"4060854","prefecture_kana":"ヤマナシケン","city_kana":"フエフキシ","town_kana":"サカイガワチョウテラオ","prefecture":"山梨県","city":"笛吹市","town":"境川町寺尾"},{"zip_code":"4060853","prefecture_kana":"ヤマナシケン","city_kana":"フエフキシ","town_kana":"サカイガワチョウフジヌタ","prefecture":"山梨県","city":"笛吹市","town":"境川町藤垈"},{"zip_code":"4060845","prefecture_kana":"ヤマナシケン","city_kana":"フエフキシ","town_kana":"サカイガワチョウボウガミネ","prefecture":"山梨県","city":"笛吹市","town":"境川町坊ケ峰"},{"zip_code":"4060843","prefecture_kana":"ヤマナシケン","city_kana":"フエフキシ","town_kana":"サカイガワチョウマエマダ","prefecture":"山梨県","city":"笛吹市","town":"境川町前間田"},{"zip_code":"4060846","prefecture_kana":"ヤマナシケン","city_kana":"フエフキシ","town_kana":"サカイガワチョウミツクヌギ","prefecture":"山梨県","city":"笛吹市","town":"境川町三椚"},{"zip_code":"4060803","prefecture_kana":"ヤマナシケン","city_kana":"フエフキシ","town_kana":"ミサカチョウイノウエ","prefecture":"山梨県","city":"笛吹市","town":"御坂町井之上"},{"zip_code":"4060817","prefecture_kana":"ヤマナシケン","city_kana":"フエフキシ","town_kana":"ミサカチョウオオノジ","prefecture":"山梨県","city":"笛吹市","town":"御坂町大野寺"},{"zip_code":"4060815","prefecture_kana":"ヤマナシケン","city_kana":"フエフキシ","town_kana":"ミサカチョウオヤマ","prefecture":"山梨県","city":"笛吹市","town":"御坂町尾山"},{"zip_code":"4060802","prefecture_kana":"ヤマナシケン","city_kana":"フエフキシ","town_kana":"ミサカチョウカネガワバラ","prefecture":"山梨県","city":"笛吹市","town":"御坂町金川原"},{"zip_code":"4060813","prefecture_kana":"ヤマナシケン","city_kana":"フエフキシ","town_kana":"ミサカチョウカミクロコマ","prefecture":"山梨県","city":"笛吹市","town":"御坂町上黒駒"},{"zip_code":"4060805","prefecture_kana":"ヤマナシケン","city_kana":"フエフキシ","town_kana":"ミサカチョウクリアイ","prefecture":"山梨県","city":"笛吹市","town":"御坂町栗合"},{"zip_code":"4060808","prefecture_kana":"ヤマナシケン","city_kana":"フエフキシ","town_kana":"ミサカチョウコクガ","prefecture":"山梨県","city":"笛吹市","town":"御坂町国衙"},{"zip_code":"4060812","prefecture_kana":"ヤマナシケン","city_kana":"フエフキシ","town_kana":"ミサカチョウシモクロコマ","prefecture":"山梨県","city":"笛吹市","town":"御坂町下黒駒"},{"zip_code":"4060811","prefecture_kana":"ヤマナシケン","city_kana":"フエフキシ","town_kana":"ミサカチョウシモノハラ","prefecture":"山梨県","city":"笛吹市","town":"御坂町下野原"},{"zip_code":"4060818","prefecture_kana":"ヤマナシケン","city_kana":"フエフキシ","town_kana":"ミサカチョウソバツカ","prefecture":"山梨県","city":"笛吹市","town":"御坂町蕎麦塚"},{"zip_code":"4060816","prefecture_kana":"ヤマナシケン","city_kana":"フエフキシ","town_kana":"ミサカチョウタケイ","prefecture":"山梨県","city":"笛吹市","town":"御坂町竹居"},{"zip_code":"4060814","prefecture_kana":"ヤマナシケン","city_kana":"フエフキシ","town_kana":"ミサカチョウトウノキ","prefecture":"山梨県","city":"笛吹市","town":"御坂町藤野木"},{"zip_code":"4060804","prefecture_kana":"ヤマナシケン","city_kana":"フエフキシ","town_kana":"ミサカチョウナツメハラ","prefecture":"山梨県","city":"笛吹市","town":"御坂町夏目原"},{"zip_code":"4060801","prefecture_kana":"ヤマナシケン","city_kana":"フエフキシ","town_kana":"ミサカチョウナリタ","prefecture":"山梨県","city":"笛吹市","town":"御坂町成田"},{"zip_code":"4060807","prefecture_kana":"ヤマナシケン","city_kana":"フエフキシ","town_kana":"ミサカチョウニノミヤ","prefecture":"山梨県","city":"笛吹市","town":"御坂町二之宮"},{"zip_code":"4060806","prefecture_kana":"ヤマナシケン","city_kana":"フエフキシ","town_kana":"ミサカチョウヤチクラ","prefecture":"山梨県","city":"笛吹市","town":"御坂町八千蔵"},{"zip_code":"4060825","prefecture_kana":"ヤマナシケン","city_kana":"フエフキシ","town_kana":"ヤツシロチョウオオマダ","prefecture":"山梨県","city":"笛吹市","town":"八代町大間田"},{"zip_code":"4060834","prefecture_kana":"ヤマナシケン","city_kana":"フエフキシ","town_kana":"ヤツシロチョウオカ","prefecture":"山梨県","city":"笛吹市","town":"八代町岡"},{"zip_code":"4060821","prefecture_kana":"ヤマナシケン","city_kana":"フエフキシ","town_kana":"ヤツシロチョウキタ","prefecture":"山梨県","city":"笛吹市","town":"八代町北"},{"zip_code":"4060831","prefecture_kana":"ヤマナシケン","city_kana":"フエフキシ","town_kana":"ヤツシロチョウコウカ","prefecture":"山梨県","city":"笛吹市","town":"八代町高家"},{"zip_code":"4060832","prefecture_kana":"ヤマナシケン","city_kana":"フエフキシ","town_kana":"ヤツシロチョウタケイ","prefecture":"山梨県","city":"笛吹市","town":"八代町竹居"},{"zip_code":"4060823","prefecture_kana":"ヤマナシケン","city_kana":"フエフキシ","town_kana":"ヤツシロチョウナガイ","prefecture":"山梨県","city":"笛吹市","town":"八代町永井"},{"zip_code":"4060833","prefecture_kana":"ヤマナシケン","city_kana":"フエフキシ","town_kana":"ヤツシロチョウナラバラ","prefecture":"山梨県","city":"笛吹市","town":"八代町奈良原"},{"zip_code":"4060824","prefecture_kana":"ヤマナシケン","city_kana":"フエフキシ","town_kana":"ヤツシロチョウマサリ","prefecture":"山梨県","city":"笛吹市","town":"八代町増利"},{"zip_code":"4060822","prefecture_kana":"ヤマナシケン","city_kana":"フエフキシ","town_kana":"ヤツシロチョウミナミ","prefecture":"山梨県","city":"笛吹市","town":"八代町南"},{"zip_code":"4060835","prefecture_kana":"ヤマナシケン","city_kana":"フエフキシ","town_kana":"ヤツシロチョウヨネクラ","prefecture":"山梨県","city":"笛吹市","town":"八代町米倉"},{"zip_code":"4090100","prefecture_kana":"ヤマナシケン","city_kana":"ウエノハラシ","town_kana":"イカニケイサイガナイバアイ","prefecture":"山梨県","city":"上野原市","town":"以下に掲載がない場合"},{"zip_code":"4010201","prefecture_kana":"ヤマナシケン","city_kana":"ウエノハラシ","town_kana":"アキヤマ","prefecture":"山梨県","city":"上野原市","town":"秋山"},{"zip_code":"4090135","prefecture_kana":"ヤマナシケン","city_kana":"ウエノハラシ","town_kana":"アシガキ","prefecture":"山梨県","city":"上野原市","town":"芦垣"},{"zip_code":"4090113","prefecture_kana":"ヤマナシケン","city_kana":"ウエノハラシ","town_kana":"アラタ","prefecture":"山梨県","city":"上野原市","town":"新田"},{"zip_code":"4090124","prefecture_kana":"ヤマナシケン","city_kana":"ウエノハラシ","town_kana":"イヌメ","prefecture":"山梨県","city":"上野原市","town":"犬目"},{"zip_code":"4090112","prefecture_kana":"ヤマナシケン","city_kana":"ウエノハラシ","town_kana":"ウエノハラ","prefecture":"山梨県","city":"上野原市","town":"上野原"},{"zip_code":"4090134","prefecture_kana":"ヤマナシケン","city_kana":"ウエノハラシ","town_kana":"オオクヌギ","prefecture":"山梨県","city":"上野原市","town":"大椚"},{"zip_code":"4090138","prefecture_kana":"ヤマナシケン","city_kana":"ウエノハラシ","town_kana":"オオクラ","prefecture":"山梨県","city":"上野原市","town":"大倉"},{"zip_code":"4090131","prefecture_kana":"ヤマナシケン","city_kana":"ウエノハラシ","town_kana":"オオゾネ","prefecture":"山梨県","city":"上野原市","town":"大曽根"},{"zip_code":"4090123","prefecture_kana":"ヤマナシケン","city_kana":"ウエノハラシ","town_kana":"オオノ","prefecture":"山梨県","city":"上野原市","town":"大野"},{"zip_code":"4090122","prefecture_kana":"ヤマナシケン","city_kana":"ウエノハラシ","town_kana":"カワイ","prefecture":"山梨県","city":"上野原市","town":"川合"},{"zip_code":"4090136","prefecture_kana":"ヤマナシケン","city_kana":"ウエノハラシ","town_kana":"クワクボ","prefecture":"山梨県","city":"上野原市","town":"桑久保"},{"zip_code":"4090126","prefecture_kana":"ヤマナシケン","city_kana":"ウエノハラシ","town_kana":"コモアシオツ","prefecture":"山梨県","city":"上野原市","town":"コモアしおつ"},{"zip_code":"4090141","prefecture_kana":"ヤマナシケン","city_kana":"ウエノハラシ","town_kana":"サイハラ","prefecture":"山梨県","city":"上野原市","town":"西原"},{"zip_code":"4090121","prefecture_kana":"ヤマナシケン","city_kana":"ウエノハラシ","town_kana":"シオツ","prefecture":"山梨県","city":"上野原市","town":"四方津"},{"zip_code":"4090132","prefecture_kana":"ヤマナシケン","city_kana":"ウエノハラシ","town_kana":"ツルガワ","prefecture":"山梨県","city":"上野原市","town":"鶴川"},{"zip_code":"4090114","prefecture_kana":"ヤマナシケン","city_kana":"ウエノハラシ","town_kana":"ツルシマ","prefecture":"山梨県","city":"上野原市","town":"鶴島"},{"zip_code":"4090125","prefecture_kana":"ヤマナシケン","city_kana":"ウエノハラシ","town_kana":"ノタジリ","prefecture":"山梨県","city":"上野原市","town":"野田尻"},{"zip_code":"4090115","prefecture_kana":"ヤマナシケン","city_kana":"ウエノハラシ","town_kana":"マツドメ","prefecture":"山梨県","city":"上野原市","town":"松留"},{"zip_code":"4090133","prefecture_kana":"ヤマナシケン","city_kana":"ウエノハラシ","town_kana":"ヤツサワ","prefecture":"山梨県","city":"上野原市","town":"八ツ沢"},{"zip_code":"4090111","prefecture_kana":"ヤマナシケン","city_kana":"ウエノハラシ","town_kana":"ユズリハラ","prefecture":"山梨県","city":"上野原市","town":"棡原"},{"zip_code":"4090137","prefecture_kana":"ヤマナシケン","city_kana":"ウエノハラシ","town_kana":"ワミ","prefecture":"山梨県","city":"上野原市","town":"和見"},{"zip_code":"4040000","prefecture_kana":"ヤマナシケン","city_kana":"コウシュウシ","town_kana":"イカニケイサイガナイバアイ","prefecture":"山梨県","city":"甲州市","town":"以下に掲載がない場合"},{"zip_code":"4040033","prefecture_kana":"ヤマナシケン","city_kana":"コウシュウシ","town_kana":"エンザンアカオ","prefecture":"山梨県","city":"甲州市","town":"塩山赤尾"},{"zip_code":"4040021","prefecture_kana":"ヤマナシケン","city_kana":"コウシュウシ","town_kana":"エンザンイチノセタカハシ","prefecture":"山梨県","city":"甲州市","town":"塩山一之瀬高橋"},{"zip_code":"4091213","prefecture_kana":"ヤマナシケン","city_kana":"コウシュウシ","town_kana":"エンザンウシオク（５５３２−５５５０、オクノタカイタク、サガシオカイタク、サガシオオンセン）","prefecture":"山梨県","city":"甲州市","town":"塩山牛奥（５５３２〜５５５０、奥野田開拓、嵯峨塩開拓、嵯峨塩温泉）"},{"zip_code":"4091321","prefecture_kana":"ヤマナシケン","city_kana":"コウシュウシ","town_kana":"エンザンウシオク（５２８８、５２８８−１、５２８８−３、５２８９、５２８９−２、５２８９−１５）","prefecture":"山梨県","city":"甲州市","town":"塩山牛奥（５２８８、５２８８−１、５２８８−３、５２８９、５２８９−２、５２８９−１５）"},{"zip_code":"4040034","prefecture_kana":"ヤマナシケン","city_kana":"コウシュウシ","town_kana":"エンザンウシオク（ソノタ）","prefecture":"山梨県","city":"甲州市","town":"塩山牛奥（その他）"},{"zip_code":"4040211","prefecture_kana":"ヤマナシケン","city_kana":"コウシュウシ","town_kana":"エンザンオヤシキ（ナメザワ）","prefecture":"山梨県","city":"甲州市","town":"塩山小屋敷（滑沢）"},{"zip_code":"4040053","prefecture_kana":"ヤマナシケン","city_kana":"コウシュウシ","town_kana":"エンザンオヤシキ（ソノタ）","prefecture":"山梨県","city":"甲州市","town":"塩山小屋敷（その他）"},{"zip_code":"4040031","prefecture_kana":"ヤマナシケン","city_kana":"コウシュウシ","town_kana":"エンザンカミアオノ","prefecture":"山梨県","city":"甲州市","town":"塩山上粟生野"},{"zip_code":"4040046","prefecture_kana":"ヤマナシケン","city_kana":"コウシュウシ","town_kana":"エンザンカミイジリ","prefecture":"山梨県","city":"甲州市","town":"塩山上井尻"},{"zip_code":"4040042","prefecture_kana":"ヤマナシケン","city_kana":"コウシュウシ","town_kana":"エンザンカミオゾ","prefecture":"山梨県","city":"甲州市","town":"塩山上於曽"},{"zip_code":"4040026","prefecture_kana":"ヤマナシケン","city_kana":"コウシュウシ","town_kana":"エンザンカミオダワラ","prefecture":"山梨県","city":"甲州市","town":"塩山上小田原"},{"zip_code":"4040045","prefecture_kana":"ヤマナシケン","city_kana":"コウシュウシ","town_kana":"エンザンカミシオゴ","prefecture":"山梨県","city":"甲州市","town":"塩山上塩後"},{"zip_code":"4091211","prefecture_kana":"ヤマナシケン","city_kana":"コウシュウシ","town_kana":"エンザンカミハギハラ（４０５１、４７８３、４７８４、スズランソウ、トウデンジョウブダム）","prefecture":"山梨県","city":"甲州市","town":"塩山上萩原（４０５１、４７８３、４７８４、すずらん荘、東電上部ダム）"},{"zip_code":"4040022","prefecture_kana":"ヤマナシケン","city_kana":"コウシュウシ","town_kana":"エンザンカミハギハラ（ソノタ）","prefecture":"山梨県","city":"甲州市","town":"塩山上萩原（その他）"},{"zip_code":"4040037","prefecture_kana":"ヤマナシケン","city_kana":"コウシュウシ","town_kana":"エンザンカワダ","prefecture":"山梨県","city":"甲州市","town":"塩山西広門田"},{"zip_code":"4040036","prefecture_kana":"ヤマナシケン","city_kana":"コウシュウシ","town_kana":"エンザンクマノ","prefecture":"山梨県","city":"甲州市","town":"塩山熊野"},{"zip_code":"4040032","prefecture_kana":"ヤマナシケン","city_kana":"コウシュウシ","town_kana":"エンザンシモアオノ","prefecture":"山梨県","city":"甲州市","town":"塩山下粟生野"},{"zip_code":"4040043","prefecture_kana":"ヤマナシケン","city_kana":"コウシュウシ","town_kana":"エンザンシモオゾ","prefecture":"山梨県","city":"甲州市","town":"塩山下於曽"},{"zip_code":"4040025","prefecture_kana":"ヤマナシケン","city_kana":"コウシュウシ","town_kana":"エンザンシモオダワラ","prefecture":"山梨県","city":"甲州市","town":"塩山下小田原"},{"zip_code":"4040044","prefecture_kana":"ヤマナシケン","city_kana":"コウシュウシ","town_kana":"エンザンシモシオゴ","prefecture":"山梨県","city":"甲州市","town":"塩山下塩後"},{"zip_code":"4040024","prefecture_kana":"ヤマナシケン","city_kana":"コウシュウシ","town_kana":"エンザンシモハギハラ","prefecture":"山梨県","city":"甲州市","town":"塩山下萩原"},{"zip_code":"4040055","prefecture_kana":"ヤマナシケン","city_kana":"コウシュウシ","town_kana":"エンザンシモユノキ","prefecture":"山梨県","city":"甲州市","town":"塩山下柚木"},{"zip_code":"4040051","prefecture_kana":"ヤマナシケン","city_kana":"コウシュウシ","town_kana":"エンザンタケモリ","prefecture":"山梨県","city":"甲州市","town":"塩山竹森"},{"zip_code":"4040041","prefecture_kana":"ヤマナシケン","city_kana":"コウシュウシ","town_kana":"エンザンチノ","prefecture":"山梨県","city":"甲州市","town":"塩山千野"},{"zip_code":"4091212","prefecture_kana":"ヤマナシケン","city_kana":"コウシュウシ","town_kana":"エンザンナカハギハラ（ヒカワコヤ）","prefecture":"山梨県","city":"甲州市","town":"塩山中萩原（日川小屋）"},{"zip_code":"4040023","prefecture_kana":"ヤマナシケン","city_kana":"コウシュウシ","town_kana":"エンザンナカハギハラ（ソノタ）","prefecture":"山梨県","city":"甲州市","town":"塩山中萩原（その他）"},{"zip_code":"4040035","prefecture_kana":"ヤマナシケン","city_kana":"コウシュウシ","town_kana":"エンザンニシノハラ","prefecture":"山梨県","city":"甲州市","town":"塩山西野原"},{"zip_code":"4040052","prefecture_kana":"ヤマナシケン","city_kana":"コウシュウシ","town_kana":"エンザンヒラサワ","prefecture":"山梨県","city":"甲州市","town":"塩山平沢"},{"zip_code":"4040056","prefecture_kana":"ヤマナシケン","city_kana":"コウシュウシ","town_kana":"エンザンフクオリ","prefecture":"山梨県","city":"甲州市","town":"塩山福生里"},{"zip_code":"4040054","prefecture_kana":"ヤマナシケン","city_kana":"コウシュウシ","town_kana":"エンザンフジキ","prefecture":"山梨県","city":"甲州市","town":"塩山藤木"},{"zip_code":"4040047","prefecture_kana":"ヤマナシケン","city_kana":"コウシュウシ","town_kana":"エンザンミッカイチバ","prefecture":"山梨県","city":"甲州市","town":"塩山三日市場"},{"zip_code":"4091303","prefecture_kana":"ヤマナシケン","city_kana":"コウシュウシ","town_kana":"カツヌマチョウオサデ","prefecture":"山梨県","city":"甲州市","town":"勝沼町小佐手"},{"zip_code":"4091316","prefecture_kana":"ヤマナシケン","city_kana":"コウシュウシ","town_kana":"カツヌマチョウカツヌマ","prefecture":"山梨県","city":"甲州市","town":"勝沼町勝沼"},{"zip_code":"4091312","prefecture_kana":"ヤマナシケン","city_kana":"コウシュウシ","town_kana":"カツヌマチョウカミイワサキ","prefecture":"山梨県","city":"甲州市","town":"勝沼町上岩崎"},{"zip_code":"4091304","prefecture_kana":"ヤマナシケン","city_kana":"コウシュウシ","town_kana":"カツヌマチョウキュウソク","prefecture":"山梨県","city":"甲州市","town":"勝沼町休息"},{"zip_code":"4091313","prefecture_kana":"ヤマナシケン","city_kana":"コウシュウシ","town_kana":"カツヌマチョウシモイワサキ","prefecture":"山梨県","city":"甲州市","town":"勝沼町下岩崎"},{"zip_code":"4091315","prefecture_kana":"ヤマナシケン","city_kana":"コウシュウシ","town_kana":"カツヌマチョウトドロキ","prefecture":"山梨県","city":"甲州市","town":"勝沼町等々力"},{"zip_code":"4091301","prefecture_kana":"ヤマナシケン","city_kana":"コウシュウシ","town_kana":"カツヌマチョウナカハラ","prefecture":"山梨県","city":"甲州市","town":"勝沼町中原"},{"zip_code":"4091302","prefecture_kana":"ヤマナシケン","city_kana":"コウシュウシ","town_kana":"カツヌマチョウヒシヤマ","prefecture":"山梨県","city":"甲州市","town":"勝沼町菱山"},{"zip_code":"4091311","prefecture_kana":"ヤマナシケン","city_kana":"コウシュウシ","town_kana":"カツヌマチョウフカサワ","prefecture":"山梨県","city":"甲州市","town":"勝沼町深沢"},{"zip_code":"4091314","prefecture_kana":"ヤマナシケン","city_kana":"コウシュウシ","town_kana":"カツヌマチョウフジイ","prefecture":"山梨県","city":"甲州市","town":"勝沼町藤井"},{"zip_code":"4091306","prefecture_kana":"ヤマナシケン","city_kana":"コウシュウシ","town_kana":"カツヌマチョウヤマ","prefecture":"山梨県","city":"甲州市","town":"勝沼町山"},{"zip_code":"4091305","prefecture_kana":"ヤマナシケン","city_kana":"コウシュウシ","town_kana":"カツヌマチョウワタヅカ","prefecture":"山梨県","city":"甲州市","town":"勝沼町綿塚"},{"zip_code":"4091202","prefecture_kana":"ヤマナシケン","city_kana":"コウシュウシ","town_kana":"ヤマトチョウタノ","prefecture":"山梨県","city":"甲州市","town":"大和町田野"},{"zip_code":"4091205","prefecture_kana":"ヤマナシケン","city_kana":"コウシュウシ","town_kana":"ヤマトチョウツルセ","prefecture":"山梨県","city":"甲州市","town":"大和町鶴瀬"},{"zip_code":"4091201","prefecture_kana":"ヤマナシケン","city_kana":"コウシュウシ","town_kana":"ヤマトチョウトクサ","prefecture":"山梨県","city":"甲州市","town":"大和町木賊"},{"zip_code":"4091203","prefecture_kana":"ヤマナシケン","city_kana":"コウシュウシ","town_kana":"ヤマトチョウハジカノ","prefecture":"山梨県","city":"甲州市","town":"大和町初鹿野"},{"zip_code":"4091204","prefecture_kana":"ヤマナシケン","city_kana":"コウシュウシ","town_kana":"ヤマトチョウヒカゲ","prefecture":"山梨県","city":"甲州市","town":"大和町日影"},{"zip_code":"4093800","prefecture_kana":"ヤマナシケン","city_kana":"チュウオウシ","town_kana":"イカニケイサイガナイバアイ","prefecture":"山梨県","city":"中央市","town":"以下に掲載がない場合"},{"zip_code":"4001514","prefecture_kana":"ヤマナシケン","city_kana":"チュウオウシ","town_kana":"アサリ","prefecture":"山梨県","city":"中央市","town":"浅利"},{"zip_code":"4093813","prefecture_kana":"ヤマナシケン","city_kana":"チュウオウシ","town_kana":"イッチョウハタ","prefecture":"山梨県","city":"中央市","town":"一町畑"},{"zip_code":"4093804","prefecture_kana":"ヤマナシケン","city_kana":"チュウオウシ","town_kana":"イノクチ","prefecture":"山梨県","city":"中央市","town":"井之口"},{"zip_code":"4093834","prefecture_kana":"ヤマナシケン","city_kana":"チュウオウシ","town_kana":"イマフク","prefecture":"山梨県","city":"中央市","town":"今福"},{"zip_code":"4093835","prefecture_kana":"ヤマナシケン","city_kana":"チュウオウシ","town_kana":"イマフクシンデン","prefecture":"山梨県","city":"中央市","town":"今福新田"},{"zip_code":"4093844","prefecture_kana":"ヤマナシケン","city_kana":"チュウオウシ","town_kana":"ウスイアワラ","prefecture":"山梨県","city":"中央市","town":"臼井阿原"},{"zip_code":"4093831","prefecture_kana":"ヤマナシケン","city_kana":"チュウオウシ","town_kana":"オオダワ","prefecture":"山梨県","city":"中央市","town":"大田和"},{"zip_code":"4001513","prefecture_kana":"ヤマナシケン","city_kana":"チュウオウシ","town_kana":"オオトリイ","prefecture":"山梨県","city":"中央市","town":"大鳥居"},{"zip_code":"4093812","prefecture_kana":"ヤマナシケン","city_kana":"チュウオウシ","town_kana":"オトグロ","prefecture":"山梨県","city":"中央市","town":"乙黒"},{"zip_code":"4093823","prefecture_kana":"ヤマナシケン","city_kana":"チュウオウシ","town_kana":"カミサンジョウ","prefecture":"山梨県","city":"中央市","town":"上三條"},{"zip_code":"4001511","prefecture_kana":"ヤマナシケン","city_kana":"チュウオウシ","town_kana":"キハラ","prefecture":"山梨県","city":"中央市","town":"木原"},{"zip_code":"4093811","prefecture_kana":"ヤマナシケン","city_kana":"チュウオウシ","town_kana":"ゴクラクジ","prefecture":"山梨県","city":"中央市","town":"極楽寺"},{"zip_code":"4093821","prefecture_kana":"ヤマナシケン","city_kana":"チュウオウシ","town_kana":"シモカトウ","prefecture":"山梨県","city":"中央市","town":"下河東"},{"zip_code":"4093822","prefecture_kana":"ヤマナシケン","city_kana":"チュウオウシ","town_kana":"シモサンジョウ","prefecture":"山梨県","city":"中央市","town":"下三條"},{"zip_code":"4001512","prefecture_kana":"ヤマナシケン","city_kana":"チュウオウシ","town_kana":"セキハラ","prefecture":"山梨県","city":"中央市","town":"関原"},{"zip_code":"4001515","prefecture_kana":"ヤマナシケン","city_kana":"チュウオウシ","town_kana":"タカベ","prefecture":"山梨県","city":"中央市","town":"高部"},{"zip_code":"4093801","prefecture_kana":"ヤマナシケン","city_kana":"チュウオウシ","town_kana":"ナカダテ","prefecture":"山梨県","city":"中央市","town":"中楯"},{"zip_code":"4093815","prefecture_kana":"ヤマナシケン","city_kana":"チュウオウシ","town_kana":"ナルシマ","prefecture":"山梨県","city":"中央市","town":"成島"},{"zip_code":"4093802","prefecture_kana":"ヤマナシケン","city_kana":"チュウオウシ","town_kana":"ニシアライ","prefecture":"山梨県","city":"中央市","town":"西新居"},{"zip_code":"4093843","prefecture_kana":"ヤマナシケン","city_kana":"チュウオウシ","town_kana":"ニシハナワ","prefecture":"山梨県","city":"中央市","town":"西花輪"},{"zip_code":"4093842","prefecture_kana":"ヤマナシケン","city_kana":"チュウオウシ","town_kana":"ヒガシハナワ","prefecture":"山梨県","city":"中央市","town":"東花輪"},{"zip_code":"4093833","prefecture_kana":"ヤマナシケン","city_kana":"チュウオウシ","town_kana":"フジマキ","prefecture":"山梨県","city":"中央市","town":"藤巻"},{"zip_code":"4093841","prefecture_kana":"ヤマナシケン","city_kana":"チュウオウシ","town_kana":"フセ","prefecture":"山梨県","city":"中央市","town":"布施"},{"zip_code":"4093832","prefecture_kana":"ヤマナシケン","city_kana":"チュウオウシ","town_kana":"マゴメ","prefecture":"山梨県","city":"中央市","town":"馬籠"},{"zip_code":"4093814","prefecture_kana":"ヤマナシケン","city_kana":"チュウオウシ","town_kana":"マチノタ","prefecture":"山梨県","city":"中央市","town":"町之田"},{"zip_code":"4093845","prefecture_kana":"ヤマナシケン","city_kana":"チュウオウシ","town_kana":"ヤマノカミ","prefecture":"山梨県","city":"中央市","town":"山之神"},{"zip_code":"4093803","prefecture_kana":"ヤマナシケン","city_kana":"チュウオウシ","town_kana":"ワカミヤ","prefecture":"山梨県","city":"中央市","town":"若宮"},{"zip_code":"4093600","prefecture_kana":"ヤマナシケン","city_kana":"ニシヤツシログンイチカワミサトチョウ","town_kana":"イカニケイサイガナイバアイ","prefecture":"山梨県","city":"西八代郡市川三郷町","town":"以下に掲載がない場合"},{"zip_code":"4093601","prefecture_kana":"ヤマナシケン","city_kana":"ニシヤツシログンイチカワミサトチョウ","town_kana":"イチカワダイモン","prefecture":"山梨県","city":"西八代郡市川三郷町","town":"市川大門"},{"zip_code":"4093234","prefecture_kana":"ヤマナシケン","city_kana":"ニシヤツシログンイチカワミサトチョウ","town_kana":"イワシタ","prefecture":"山梨県","city":"西八代郡市川三郷町","town":"岩下"},{"zip_code":"4093244","prefecture_kana":"ヤマナシケン","city_kana":"ニシヤツシログンイチカワミサトチョウ","town_kana":"イワマ","prefecture":"山梨県","city":"西八代郡市川三郷町","town":"岩間"},{"zip_code":"4093607","prefecture_kana":"ヤマナシケン","city_kana":"ニシヤツシログンイチカワミサトチョウ","town_kana":"インザワ","prefecture":"山梨県","city":"西八代郡市川三郷町","town":"印沢"},{"zip_code":"4093612","prefecture_kana":"ヤマナシケン","city_kana":"ニシヤツシログンイチカワミサトチョウ","town_kana":"ウエノ","prefecture":"山梨県","city":"西八代郡市川三郷町","town":"上野"},{"zip_code":"4093611","prefecture_kana":"ヤマナシケン","city_kana":"ニシヤツシログンイチカワミサトチョウ","town_kana":"オオツカ","prefecture":"山梨県","city":"西八代郡市川三郷町","town":"大塚"},{"zip_code":"4093231","prefecture_kana":"ヤマナシケン","city_kana":"ニシヤツシログンイチカワミサトチョウ","town_kana":"オチイ","prefecture":"山梨県","city":"西八代郡市川三郷町","town":"落居"},{"zip_code":"4093243","prefecture_kana":"ヤマナシケン","city_kana":"ニシヤツシログンイチカワミサトチョウ","town_kana":"カモガリツムギ","prefecture":"山梨県","city":"西八代郡市川三郷町","town":"鴨狩津向"},{"zip_code":"4093245","prefecture_kana":"ヤマナシケン","city_kana":"ニシヤツシログンイチカワミサトチョウ","town_kana":"クスホ","prefecture":"山梨県","city":"西八代郡市川三郷町","town":"楠甫"},{"zip_code":"4093603","prefecture_kana":"ヤマナシケン","city_kana":"ニシヤツシログンイチカワミサトチョウ","town_kana":"クロザワ","prefecture":"山梨県","city":"西八代郡市川三郷町","town":"黒沢"},{"zip_code":"4093233","prefecture_kana":"ヤマナシケン","city_kana":"ニシヤツシログンイチカワミサトチョウ","town_kana":"ゴハチ","prefecture":"山梨県","city":"西八代郡市川三郷町","town":"五八"},{"zip_code":"4093622","prefecture_kana":"ヤマナシケン","city_kana":"ニシヤツシログンイチカワミサトチョウ","town_kana":"サンチョウ","prefecture":"山梨県","city":"西八代郡市川三郷町","town":"三帳"},{"zip_code":"4093621","prefecture_kana":"ヤマナシケン","city_kana":"ニシヤツシログンイチカワミサトチョウ","town_kana":"シモアシガワ","prefecture":"山梨県","city":"西八代郡市川三郷町","town":"下芦川"},{"zip_code":"4093605","prefecture_kana":"ヤマナシケン","city_kana":"ニシヤツシログンイチカワミサトチョウ","town_kana":"シモオオドリイ","prefecture":"山梨県","city":"西八代郡市川三郷町","town":"下大鳥居"},{"zip_code":"4093606","prefecture_kana":"ヤマナシケン","city_kana":"ニシヤツシログンイチカワミサトチョウ","town_kana":"タカタ","prefecture":"山梨県","city":"西八代郡市川三郷町","town":"高田"},{"zip_code":"4093623","prefecture_kana":"ヤマナシケン","city_kana":"ニシヤツシログンイチカワミサトチョウ","town_kana":"タカハギ","prefecture":"山梨県","city":"西八代郡市川三郷町","town":"高萩"},{"zip_code":"4093241","prefecture_kana":"ヤマナシケン","city_kana":"ニシヤツシログンイチカワミサトチョウ","town_kana":"ツヅラサワ","prefecture":"山梨県","city":"西八代郡市川三郷町","town":"葛籠沢"},{"zip_code":"4093232","prefecture_kana":"ヤマナシケン","city_kana":"ニシヤツシログンイチカワミサトチョウ","town_kana":"テラドコ","prefecture":"山梨県","city":"西八代郡市川三郷町","town":"寺所"},{"zip_code":"4093625","prefecture_kana":"ヤマナシケン","city_kana":"ニシヤツシログンイチカワミサトチョウ","town_kana":"ナカヤマ","prefecture":"山梨県","city":"西八代郡市川三郷町","town":"中山"},{"zip_code":"4093624","prefecture_kana":"ヤマナシケン","city_kana":"ニシヤツシログンイチカワミサトチョウ","town_kana":"ヌタ","prefecture":"山梨県","city":"西八代郡市川三郷町","town":"垈"},{"zip_code":"4093626","prefecture_kana":"ヤマナシケン","city_kana":"ニシヤツシログンイチカワミサトチョウ","town_kana":"ハタクマ","prefecture":"山梨県","city":"西八代郡市川三郷町","town":"畑熊"},{"zip_code":"4093604","prefecture_kana":"ヤマナシケン","city_kana":"ニシヤツシログンイチカワミサトチョウ","town_kana":"ハチノシリ","prefecture":"山梨県","city":"西八代郡市川三郷町","town":"八之尻"},{"zip_code":"4093242","prefecture_kana":"ヤマナシケン","city_kana":"ニシヤツシログンイチカワミサトチョウ","town_kana":"ミヤバラ","prefecture":"山梨県","city":"西八代郡市川三郷町","town":"宮原"},{"zip_code":"4093602","prefecture_kana":"ヤマナシケン","city_kana":"ニシヤツシログンイチカワミサトチョウ","town_kana":"ヤマホ","prefecture":"山梨県","city":"西八代郡市川三郷町","town":"山保"},{"zip_code":"4092700","prefecture_kana":"ヤマナシケン","city_kana":"ミナミコマグンハヤカワチョウ","town_kana":"イカニケイサイガナイバアイ","prefecture":"山梨県","city":"南巨摩郡早川町","town":"以下に掲載がない場合"},{"zip_code":"4092733","prefecture_kana":"ヤマナシケン","city_kana":"ミナミコマグンハヤカワチョウ","town_kana":"アカサワ","prefecture":"山梨県","city":"南巨摩郡早川町","town":"赤沢"},{"zip_code":"4092734","prefecture_kana":"ヤマナシケン","city_kana":"ミナミコマグンハヤカワチョウ","town_kana":"アメハタ","prefecture":"山梨県","city":"南巨摩郡早川町","town":"雨畑"},{"zip_code":"4092703","prefecture_kana":"ヤマナシケン","city_kana":"ミナミコマグンハヤカワチョウ","town_kana":"アラクラ","prefecture":"山梨県","city":"南巨摩郡早川町","town":"新倉"},{"zip_code":"4092731","prefecture_kana":"ヤマナシケン","city_kana":"ミナミコマグンハヤカワチョウ","town_kana":"オオシマ","prefecture":"山梨県","city":"南巨摩郡早川町","town":"大島"},{"zip_code":"4092704","prefecture_kana":"ヤマナシケン","city_kana":"ミナミコマグンハヤカワチョウ","town_kana":"オオハラノ","prefecture":"山梨県","city":"南巨摩郡早川町","town":"大原野"},{"zip_code":"4092715","prefecture_kana":"ヤマナシケン","city_kana":"ミナミコマグンハヤカワチョウ","town_kana":"キョウガシマ","prefecture":"山梨県","city":"南巨摩郡早川町","town":"京ケ島"},{"zip_code":"4092714","prefecture_kana":"ヤマナシケン","city_kana":"ミナミコマグンハヤカワチョウ","town_kana":"クサシオ","prefecture":"山梨県","city":"南巨摩郡早川町","town":"草塩"},{"zip_code":"4092723","prefecture_kana":"ヤマナシケン","city_kana":"ミナミコマグンハヤカワチョウ","town_kana":"クレツボ","prefecture":"山梨県","city":"南巨摩郡早川町","town":"榑坪"},{"zip_code":"4092732","prefecture_kana":"ヤマナシケン","city_kana":"ミナミコマグンハヤカワチョウ","town_kana":"コウジュウ","prefecture":"山梨県","city":"南巨摩郡早川町","town":"高住"},{"zip_code":"4092725","prefecture_kana":"ヤマナシケン","city_kana":"ミナミコマグンハヤカワチョウ","town_kana":"コナワ","prefecture":"山梨県","city":"南巨摩郡早川町","town":"小縄"},{"zip_code":"4092722","prefecture_kana":"ヤマナシケン","city_kana":"ミナミコマグンハヤカワチョウ","town_kana":"ササバシリ","prefecture":"山梨県","city":"南巨摩郡早川町","town":"笹走"},{"zip_code":"4092721","prefecture_kana":"ヤマナシケン","city_kana":"ミナミコマグンハヤカワチョウ","town_kana":"シオノウエ","prefecture":"山梨県","city":"南巨摩郡早川町","town":"塩之上"},{"zip_code":"4092726","prefecture_kana":"ヤマナシケン","city_kana":"ミナミコマグンハヤカワチョウ","town_kana":"センズワ","prefecture":"山梨県","city":"南巨摩郡早川町","town":"千須和"},{"zip_code":"4092711","prefecture_kana":"ヤマナシケン","city_kana":"ミナミコマグンハヤカワチョウ","town_kana":"ツヅラ","prefecture":"山梨県","city":"南巨摩郡早川町","town":"黒桂"},{"zip_code":"4092701","prefecture_kana":"ヤマナシケン","city_kana":"ミナミコマグンハヤカワチョウ","town_kana":"ナラダ","prefecture":"山梨県","city":"南巨摩郡早川町","town":"奈良田"},{"zip_code":"4092712","prefecture_kana":"ヤマナシケン","city_kana":"ミナミコマグンハヤカワチョウ","town_kana":"ニシノミヤ","prefecture":"山梨県","city":"南巨摩郡早川町","town":"西之宮"},{"zip_code":"4092724","prefecture_kana":"ヤマナシケン","city_kana":"ミナミコマグンハヤカワチョウ","town_kana":"ハジカジマ","prefecture":"山梨県","city":"南巨摩郡早川町","town":"初鹿島"},{"zip_code":"4092705","prefecture_kana":"ヤマナシケン","city_kana":"ミナミコマグンハヤカワチョウ","town_kana":"ハヤカワ","prefecture":"山梨県","city":"南巨摩郡早川町","town":"早川"},{"zip_code":"4092713","prefecture_kana":"ヤマナシケン","city_kana":"ミナミコマグンハヤカワチョウ","town_kana":"ホ","prefecture":"山梨県","city":"南巨摩郡早川町","town":"保"},{"zip_code":"4092727","prefecture_kana":"ヤマナシケン","city_kana":"ミナミコマグンハヤカワチョウ","town_kana":"ミナイ","prefecture":"山梨県","city":"南巨摩郡早川町","town":"薬袋"},{"zip_code":"4092702","prefecture_kana":"ヤマナシケン","city_kana":"ミナミコマグンハヤカワチョウ","town_kana":"ユジマ","prefecture":"山梨県","city":"南巨摩郡早川町","town":"湯島"},{"zip_code":"4092500","prefecture_kana":"ヤマナシケン","city_kana":"ミナミコマグンミノブチョウ","town_kana":"イカニケイサイガナイバアイ","prefecture":"山梨県","city":"南巨摩郡身延町","town":"以下に掲載がない場合"},{"zip_code":"4092536","prefecture_kana":"ヤマナシケン","city_kana":"ミナミコマグンミノブチョウ","town_kana":"アイマタ","prefecture":"山梨県","city":"南巨摩郡身延町","town":"相又"},{"zip_code":"4092521","prefecture_kana":"ヤマナシケン","city_kana":"ミナミコマグンミノブチョウ","town_kana":"アワグラ","prefecture":"山梨県","city":"南巨摩郡身延町","town":"粟倉"},{"zip_code":"4093423","prefecture_kana":"ヤマナシケン","city_kana":"ミナミコマグンミノブチョウ","town_kana":"イイトミ","prefecture":"山梨県","city":"南巨摩郡身延町","town":"飯富"},{"zip_code":"4092938","prefecture_kana":"ヤマナシケン","city_kana":"ミナミコマグンミノブチョウ","town_kana":"イチノセ","prefecture":"山梨県","city":"南巨摩郡身延町","town":"市之瀬"},{"zip_code":"4092937","prefecture_kana":"ヤマナシケン","city_kana":"ミナミコマグンミノブチョウ","town_kana":"イッシキ","prefecture":"山梨県","city":"南巨摩郡身延町","town":"一色"},{"zip_code":"4093424","prefecture_kana":"ヤマナシケン","city_kana":"ミナミコマグンミノブチョウ","town_kana":"イヌマ","prefecture":"山梨県","city":"南巨摩郡身延町","town":"伊沼"},{"zip_code":"4092933","prefecture_kana":"ヤマナシケン","city_kana":"ミナミコマグンミノブチョウ","town_kana":"イワカケ","prefecture":"山梨県","city":"南巨摩郡身延町","town":"岩欠"},{"zip_code":"4092947","prefecture_kana":"ヤマナシケン","city_kana":"ミナミコマグンミノブチョウ","town_kana":"ウエノタイラ","prefecture":"山梨県","city":"南巨摩郡身延町","town":"上之平"},{"zip_code":"4092531","prefecture_kana":"ヤマナシケン","city_kana":"ミナミコマグンミノブチョウ","town_kana":"ウメダイラ","prefecture":"山梨県","city":"南巨摩郡身延町","town":"梅平"},{"zip_code":"4093434","prefecture_kana":"ヤマナシケン","city_kana":"ミナミコマグンミノブチョウ","town_kana":"エジリクボ","prefecture":"山梨県","city":"南巨摩郡身延町","town":"江尻窪"},{"zip_code":"4092934","prefecture_kana":"ヤマナシケン","city_kana":"ミナミコマグンミノブチョウ","town_kana":"オイダイラ","prefecture":"山梨県","city":"南巨摩郡身延町","town":"大炊平"},{"zip_code":"4093111","prefecture_kana":"ヤマナシケン","city_kana":"ミナミコマグンミノブチョウ","town_kana":"オオイソコイソ","prefecture":"山梨県","city":"南巨摩郡身延町","town":"大磯小磯"},{"zip_code":"4092406","prefecture_kana":"ヤマナシケン","city_kana":"ミナミコマグンミノブチョウ","town_kana":"オオクズレ","prefecture":"山梨県","city":"南巨摩郡身延町","town":"大崩"},{"zip_code":"4093311","prefecture_kana":"ヤマナシケン","city_kana":"ミナミコマグンミノブチョウ","town_kana":"オオシオ","prefecture":"山梨県","city":"南巨摩郡身延町","town":"大塩"},{"zip_code":"4092415","prefecture_kana":"ヤマナシケン","city_kana":"ミナミコマグンミノブチョウ","town_kana":"オオシマ","prefecture":"山梨県","city":"南巨摩郡身延町","town":"大島"},{"zip_code":"4092537","prefecture_kana":"ヤマナシケン","city_kana":"ミナミコマグンミノブチョウ","town_kana":"オオジロ","prefecture":"山梨県","city":"南巨摩郡身延町","town":"大城"},{"zip_code":"4092404","prefecture_kana":"ヤマナシケン","city_kana":"ミナミコマグンミノブチョウ","town_kana":"オオヌタ","prefecture":"山梨県","city":"南巨摩郡身延町","town":"大垈"},{"zip_code":"4092532","prefecture_kana":"ヤマナシケン","city_kana":"ミナミコマグンミノブチョウ","town_kana":"オオノ","prefecture":"山梨県","city":"南巨摩郡身延町","town":"大野"},{"zip_code":"4093121","prefecture_kana":"ヤマナシケン","city_kana":"ミナミコマグンミノブチョウ","town_kana":"オオヤマ","prefecture":"山梨県","city":"南巨摩郡身延町","town":"大山"},{"zip_code":"4093433","prefecture_kana":"ヤマナシケン","city_kana":"ミナミコマグンミノブチョウ","town_kana":"オソザワ","prefecture":"山梨県","city":"南巨摩郡身延町","town":"遅沢"},{"zip_code":"4092539","prefecture_kana":"ヤマナシケン","city_kana":"ミナミコマグンミノブチョウ","town_kana":"オダフナハラ","prefecture":"山梨県","city":"南巨摩郡身延町","town":"小田船原"},{"zip_code":"4092403","prefecture_kana":"ヤマナシケン","city_kana":"ミナミコマグンミノブチョウ","town_kana":"オビカネ","prefecture":"山梨県","city":"南巨摩郡身延町","town":"帯金"},{"zip_code":"4093101","prefecture_kana":"ヤマナシケン","city_kana":"ミナミコマグンミノブチョウ","town_kana":"オリカド","prefecture":"山梨県","city":"南巨摩郡身延町","town":"折門"},{"zip_code":"4092538","prefecture_kana":"ヤマナシケン","city_kana":"ミナミコマグンミノブチョウ","town_kana":"カドノ","prefecture":"山梨県","city":"南巨摩郡身延町","town":"門野"},{"zip_code":"4093105","prefecture_kana":"ヤマナシケン","city_kana":"ミナミコマグンミノブチョウ","town_kana":"カマヒタイ","prefecture":"山梨県","city":"南巨摩郡身延町","town":"釜額"},{"zip_code":"4093118","prefecture_kana":"ヤマナシケン","city_kana":"ミナミコマグンミノブチョウ","town_kana":"カミタンバラ","prefecture":"山梨県","city":"南巨摩郡身延町","town":"上田原"},{"zip_code":"4092401","prefecture_kana":"ヤマナシケン","city_kana":"ミナミコマグンミノブチョウ","town_kana":"カミヤギサワ","prefecture":"山梨県","city":"南巨摩郡身延町","town":"上八木沢"},{"zip_code":"4092943","prefecture_kana":"ヤマナシケン","city_kana":"ミナミコマグンミノブチョウ","town_kana":"カワムキ","prefecture":"山梨県","city":"南巨摩郡身延町","town":"川向"},{"zip_code":"4092931","prefecture_kana":"ヤマナシケン","city_kana":"ミナミコマグンミノブチョウ","town_kana":"キタガワ","prefecture":"山梨県","city":"南巨摩郡身延町","town":"北川"},{"zip_code":"4092935","prefecture_kana":"ヤマナシケン","city_kana":"ミナミコマグンミノブチョウ","town_kana":"キヨザワ","prefecture":"山梨県","city":"南巨摩郡身延町","town":"清沢"},{"zip_code":"4093304","prefecture_kana":"ヤマナシケン","city_kana":"ミナミコマグンミノブチョウ","town_kana":"キリイシ","prefecture":"山梨県","city":"南巨摩郡身延町","town":"切石"},{"zip_code":"4093115","prefecture_kana":"ヤマナシケン","city_kana":"ミナミコマグンミノブチョウ","town_kana":"キリフサギ","prefecture":"山梨県","city":"南巨摩郡身延町","town":"切房木"},{"zip_code":"4093312","prefecture_kana":"ヤマナシケン","city_kana":"ミナミコマグンミノブチョウ","town_kana":"クナリ","prefecture":"山梨県","city":"南巨摩郡身延町","town":"久成"},{"zip_code":"4093122","prefecture_kana":"ヤマナシケン","city_kana":"ミナミコマグンミノブチョウ","town_kana":"クボ","prefecture":"山梨県","city":"南巨摩郡身延町","town":"久保"},{"zip_code":"4093123","prefecture_kana":"ヤマナシケン","city_kana":"ミナミコマグンミノブチョウ","town_kana":"クマザワ","prefecture":"山梨県","city":"南巨摩郡身延町","town":"熊沢"},{"zip_code":"4093116","prefecture_kana":"ヤマナシケン","city_kana":"ミナミコマグンミノブチョウ","town_kana":"クルマダ","prefecture":"山梨県","city":"南巨摩郡身延町","town":"車田"},{"zip_code":"4093112","prefecture_kana":"ヤマナシケン","city_kana":"ミナミコマグンミノブチョウ","town_kana":"シバクサ","prefecture":"山梨県","city":"南巨摩郡身延町","town":"芝草"},{"zip_code":"4093305","prefecture_kana":"ヤマナシケン","city_kana":"ミナミコマグンミノブチョウ","town_kana":"シモタンバラ","prefecture":"山梨県","city":"南巨摩郡身延町","town":"下田原"},{"zip_code":"4092942","prefecture_kana":"ヤマナシケン","city_kana":"ミナミコマグンミノブチョウ","town_kana":"シモベ","prefecture":"山梨県","city":"南巨摩郡身延町","town":"下部"},{"zip_code":"4092402","prefecture_kana":"ヤマナシケン","city_kana":"ミナミコマグンミノブチョウ","town_kana":"シモヤギサワ","prefecture":"山梨県","city":"南巨摩郡身延町","town":"下八木沢"},{"zip_code":"4092522","prefecture_kana":"ヤマナシケン","city_kana":"ミナミコマグンミノブチョウ","town_kana":"シモヤマ","prefecture":"山梨県","city":"南巨摩郡身延町","town":"下山"},{"zip_code":"4092932","prefecture_kana":"ヤマナシケン","city_kana":"ミナミコマグンミノブチョウ","town_kana":"スギヤマ","prefecture":"山梨県","city":"南巨摩郡身延町","town":"杉山"},{"zip_code":"4092533","prefecture_kana":"ヤマナシケン","city_kana":"ミナミコマグンミノブチョウ","town_kana":"セイゴ","prefecture":"山梨県","city":"南巨摩郡身延町","town":"清子"},{"zip_code":"4093107","prefecture_kana":"ヤマナシケン","city_kana":"ミナミコマグンミノブチョウ","town_kana":"セト","prefecture":"山梨県","city":"南巨摩郡身延町","town":"瀬戸"},{"zip_code":"4092946","prefecture_kana":"ヤマナシケン","city_kana":"ミナミコマグンミノブチョウ","town_kana":"ダイゴ","prefecture":"山梨県","city":"南巨摩郡身延町","town":"大子"},{"zip_code":"4092412","prefecture_kana":"ヤマナシケン","city_kana":"ミナミコマグンミノブチョウ","town_kana":"ツノウチ","prefecture":"山梨県","city":"南巨摩郡身延町","town":"角打"},{"zip_code":"4092405","prefecture_kana":"ヤマナシケン","city_kana":"ミナミコマグンミノブチョウ","town_kana":"ツバキゾウリ","prefecture":"山梨県","city":"南巨摩郡身延町","town":"椿草里"},{"zip_code":"4093302","prefecture_kana":"ヤマナシケン","city_kana":"ミナミコマグンミノブチョウ","town_kana":"テウチザワ","prefecture":"山梨県","city":"南巨摩郡身延町","town":"手打沢"},{"zip_code":"4093303","prefecture_kana":"ヤマナシケン","city_kana":"ミナミコマグンミノブチョウ","town_kana":"テラサワ","prefecture":"山梨県","city":"南巨摩郡身延町","town":"寺沢"},{"zip_code":"4093124","prefecture_kana":"ヤマナシケン","city_kana":"ミナミコマグンミノブチョウ","town_kana":"トイダ","prefecture":"山梨県","city":"南巨摩郡身延町","town":"樋田"},{"zip_code":"4092936","prefecture_kana":"ヤマナシケン","city_kana":"ミナミコマグンミノブチョウ","town_kana":"トキワ","prefecture":"山梨県","city":"南巨摩郡身延町","town":"常葉"},{"zip_code":"4093104","prefecture_kana":"ヤマナシケン","city_kana":"ミナミコマグンミノブチョウ","town_kana":"ナカノクラ","prefecture":"山梨県","city":"南巨摩郡身延町","town":"中之倉"},{"zip_code":"4093432","prefecture_kana":"ヤマナシケン","city_kana":"ミナミコマグンミノブチョウ","town_kana":"ナカヤマ","prefecture":"山梨県","city":"南巨摩郡身延町","town":"中山"},{"zip_code":"4093435","prefecture_kana":"ヤマナシケン","city_kana":"ミナミコマグンミノブチョウ","town_kana":"ナシゴ","prefecture":"山梨県","city":"南巨摩郡身延町","town":"梨子"},{"zip_code":"4093301","prefecture_kana":"ヤマナシケン","city_kana":"ミナミコマグンミノブチョウ","town_kana":"ニシジマ","prefecture":"山梨県","city":"南巨摩郡身延町","town":"西嶋"},{"zip_code":"4093103","prefecture_kana":"ヤマナシケン","city_kana":"ミナミコマグンミノブチョウ","town_kana":"ネッコ","prefecture":"山梨県","city":"南巨摩郡身延町","town":"根子"},{"zip_code":"4092523","prefecture_kana":"ヤマナシケン","city_kana":"ミナミコマグンミノブチョウ","town_kana":"ハキイ","prefecture":"山梨県","city":"南巨摩郡身延町","town":"波木井"},{"zip_code":"4092945","prefecture_kana":"ヤマナシケン","city_kana":"ミナミコマグンミノブチョウ","town_kana":"ハダカジマ","prefecture":"山梨県","city":"南巨摩郡身延町","town":"波高島"},{"zip_code":"4093102","prefecture_kana":"ヤマナシケン","city_kana":"ミナミコマグンミノブチョウ","town_kana":"ハッサカ","prefecture":"山梨県","city":"南巨摩郡身延町","town":"八坂"},{"zip_code":"4093307","prefecture_kana":"ヤマナシケン","city_kana":"ミナミコマグンミノブチョウ","town_kana":"ヒナタミナミザワ","prefecture":"山梨県","city":"南巨摩郡身延町","town":"日向南沢"},{"zip_code":"4092414","prefecture_kana":"ヤマナシケン","city_kana":"ミナミコマグンミノブチョウ","town_kana":"ヒノウエ","prefecture":"山梨県","city":"南巨摩郡身延町","town":"樋之上"},{"zip_code":"4093313","prefecture_kana":"ヤマナシケン","city_kana":"ミナミコマグンミノブチョウ","town_kana":"ヒラス","prefecture":"山梨県","city":"南巨摩郡身延町","town":"平須"},{"zip_code":"4093436","prefecture_kana":"ヤマナシケン","city_kana":"ミナミコマグンミノブチョウ","town_kana":"フクハラ","prefecture":"山梨県","city":"南巨摩郡身延町","town":"福原"},{"zip_code":"4093106","prefecture_kana":"ヤマナシケン","city_kana":"ミナミコマグンミノブチョウ","town_kana":"フルセキ","prefecture":"山梨県","city":"南巨摩郡身延町","town":"古関"},{"zip_code":"4093437","prefecture_kana":"ヤマナシケン","city_kana":"ミナミコマグンミノブチョウ","town_kana":"フルハセ","prefecture":"山梨県","city":"南巨摩郡身延町","town":"古長谷"},{"zip_code":"4092411","prefecture_kana":"ヤマナシケン","city_kana":"ミナミコマグンミノブチョウ","town_kana":"マルタキ","prefecture":"山梨県","city":"南巨摩郡身延町","town":"丸滝"},{"zip_code":"4093117","prefecture_kana":"ヤマナシケン","city_kana":"ミナミコマグンミノブチョウ","town_kana":"ミサワ","prefecture":"山梨県","city":"南巨摩郡身延町","town":"三沢"},{"zip_code":"4093113","prefecture_kana":"ヤマナシケン","city_kana":"ミナミコマグンミノブチョウ","town_kana":"ミズフネ","prefecture":"山梨県","city":"南巨摩郡身延町","town":"水船"},{"zip_code":"4093114","prefecture_kana":"ヤマナシケン","city_kana":"ミナミコマグンミノブチョウ","town_kana":"ミチ","prefecture":"山梨県","city":"南巨摩郡身延町","town":"道"},{"zip_code":"4092534","prefecture_kana":"ヤマナシケン","city_kana":"ミナミコマグンミノブチョウ","town_kana":"ミツゴザワ","prefecture":"山梨県","city":"南巨摩郡身延町","town":"光子沢"},{"zip_code":"4093125","prefecture_kana":"ヤマナシケン","city_kana":"ミナミコマグンミノブチョウ","town_kana":"ミネ","prefecture":"山梨県","city":"南巨摩郡身延町","town":"嶺"},{"zip_code":"4092524","prefecture_kana":"ヤマナシケン","city_kana":"ミナミコマグンミノブチョウ","town_kana":"ミノブ","prefecture":"山梨県","city":"南巨摩郡身延町","town":"身延"},{"zip_code":"4093422","prefecture_kana":"ヤマナシケン","city_kana":"ミナミコマグンミノブチョウ","town_kana":"ミヤキ","prefecture":"山梨県","city":"南巨摩郡身延町","town":"宮木"},{"zip_code":"4092944","prefecture_kana":"ヤマナシケン","city_kana":"ミナミコマグンミノブチョウ","town_kana":"モモガクボ","prefecture":"山梨県","city":"南巨摩郡身延町","town":"桃ケ窪"},{"zip_code":"4093431","prefecture_kana":"ヤマナシケン","city_kana":"ミナミコマグンミノブチョウ","town_kana":"ヤサイク","prefecture":"山梨県","city":"南巨摩郡身延町","town":"矢細工"},{"zip_code":"4093126","prefecture_kana":"ヤマナシケン","city_kana":"ミナミコマグンミノブチョウ","town_kana":"ヤマガ","prefecture":"山梨県","city":"南巨摩郡身延町","town":"山家"},{"zip_code":"4092941","prefecture_kana":"ヤマナシケン","city_kana":"ミナミコマグンミノブチョウ","town_kana":"ユノオク","prefecture":"山梨県","city":"南巨摩郡身延町","town":"湯之奥"},{"zip_code":"4093421","prefecture_kana":"ヤマナシケン","city_kana":"ミナミコマグンミノブチョウ","town_kana":"ヨウカイチバ","prefecture":"山梨県","city":"南巨摩郡身延町","town":"八日市場"},{"zip_code":"4093306","prefecture_kana":"ヤマナシケン","city_kana":"ミナミコマグンミノブチョウ","town_kana":"ヨゴサワ","prefecture":"山梨県","city":"南巨摩郡身延町","town":"夜子沢"},{"zip_code":"4092535","prefecture_kana":"ヤマナシケン","city_kana":"ミナミコマグンミノブチョウ","town_kana":"ヨコネナカ","prefecture":"山梨県","city":"南巨摩郡身延町","town":"横根中"},{"zip_code":"4092413","prefecture_kana":"ヤマナシケン","city_kana":"ミナミコマグンミノブチョウ","town_kana":"ワダ","prefecture":"山梨県","city":"南巨摩郡身延町","town":"和田"},{"zip_code":"4092100","prefecture_kana":"ヤマナシケン","city_kana":"ミナミコマグンナンブチョウ","town_kana":"イカニケイサイガナイバアイ","prefecture":"山梨県","city":"南巨摩郡南部町","town":"以下に掲載がない場合"},{"zip_code":"4092304","prefecture_kana":"ヤマナシケン","city_kana":"ミナミコマグンナンブチョウ","town_kana":"イデ","prefecture":"山梨県","city":"南巨摩郡南部町","town":"井出"},{"zip_code":"4092305","prefecture_kana":"ヤマナシケン","city_kana":"ミナミコマグンナンブチョウ","town_kana":"ウツブナ","prefecture":"山梨県","city":"南巨摩郡南部町","town":"内船"},{"zip_code":"4092213","prefecture_kana":"ヤマナシケン","city_kana":"ミナミコマグンナンブチョウ","town_kana":"オオワ","prefecture":"山梨県","city":"南巨摩郡南部町","town":"大和"},{"zip_code":"4092101","prefecture_kana":"ヤマナシケン","city_kana":"ミナミコマグンナンブチョウ","town_kana":"カゾネ","prefecture":"山梨県","city":"南巨摩郡南部町","town":"楮根"},{"zip_code":"4092301","prefecture_kana":"ヤマナシケン","city_kana":"ミナミコマグンナンブチョウ","town_kana":"カミサノ","prefecture":"山梨県","city":"南巨摩郡南部町","town":"上佐野"},{"zip_code":"4092214","prefecture_kana":"ヤマナシケン","city_kana":"ミナミコマグンナンブチョウ","town_kana":"シオザワ","prefecture":"山梨県","city":"南巨摩郡南部町","town":"塩沢"},{"zip_code":"4092302","prefecture_kana":"ヤマナシケン","city_kana":"ミナミコマグンナンブチョウ","town_kana":"シモサノ","prefecture":"山梨県","city":"南巨摩郡南部町","town":"下佐野"},{"zip_code":"4092303","prefecture_kana":"ヤマナシケン","city_kana":"ミナミコマグンナンブチョウ","town_kana":"トオシマ","prefecture":"山梨県","city":"南巨摩郡南部町","town":"十島"},{"zip_code":"4092211","prefecture_kana":"ヤマナシケン","city_kana":"ミナミコマグンナンブチョウ","town_kana":"ナカノ","prefecture":"山梨県","city":"南巨摩郡南部町","town":"中野"},{"zip_code":"4092216","prefecture_kana":"ヤマナシケン","city_kana":"ミナミコマグンナンブチョウ","town_kana":"ナルシマ","prefecture":"山梨県","city":"南巨摩郡南部町","town":"成島"},{"zip_code":"4092212","prefecture_kana":"ヤマナシケン","city_kana":"ミナミコマグンナンブチョウ","town_kana":"ナンブ","prefecture":"山梨県","city":"南巨摩郡南部町","town":"南部"},{"zip_code":"4092102","prefecture_kana":"ヤマナシケン","city_kana":"ミナミコマグンナンブチョウ","town_kana":"フクシ","prefecture":"山梨県","city":"南巨摩郡南部町","town":"福士"},{"zip_code":"4092217","prefecture_kana":"ヤマナシケン","city_kana":"ミナミコマグンナンブチョウ","town_kana":"ホンゴウ","prefecture":"山梨県","city":"南巨摩郡南部町","town":"本郷"},{"zip_code":"4092103","prefecture_kana":"ヤマナシケン","city_kana":"ミナミコマグンナンブチョウ","town_kana":"マンザワ","prefecture":"山梨県","city":"南巨摩郡南部町","town":"万沢"},{"zip_code":"4092215","prefecture_kana":"ヤマナシケン","city_kana":"ミナミコマグンナンブチョウ","town_kana":"ヤナギシマ","prefecture":"山梨県","city":"南巨摩郡南部町","town":"柳島"},{"zip_code":"4000500","prefecture_kana":"ヤマナシケン","city_kana":"ミナミコマグンフジカワチョウ","town_kana":"イカニケイサイガナイバアイ","prefecture":"山梨県","city":"南巨摩郡富士川町","town":"以下に掲載がない場合"},{"zip_code":"4000501","prefecture_kana":"ヤマナシケン","city_kana":"ミナミコマグンフジカワチョウ","town_kana":"アオヤギマチ","prefecture":"山梨県","city":"南巨摩郡富士川町","town":"青柳町"},{"zip_code":"4000602","prefecture_kana":"ヤマナシケン","city_kana":"ミナミコマグンフジカワチョウ","town_kana":"エキマエドオリ","prefecture":"山梨県","city":"南巨摩郡富士川町","town":"駅前通"},{"zip_code":"4000506","prefecture_kana":"ヤマナシケン","city_kana":"ミナミコマグンフジカワチョウ","town_kana":"オオクヌギ","prefecture":"山梨県","city":"南巨摩郡富士川町","town":"大椚"},{"zip_code":"4000511","prefecture_kana":"ヤマナシケン","city_kana":"ミナミコマグンフジカワチョウ","town_kana":"オオクボ","prefecture":"山梨県","city":"南巨摩郡富士川町","town":"大久保"},{"zip_code":"4000601","prefecture_kana":"ヤマナシケン","city_kana":"ミナミコマグンフジカワチョウ","town_kana":"カジカザワ","prefecture":"山梨県","city":"南巨摩郡富士川町","town":"鰍沢"},{"zip_code":"4000603","prefecture_kana":"ヤマナシケン","city_kana":"ミナミコマグンフジカワチョウ","town_kana":"カシマ","prefecture":"山梨県","city":"南巨摩郡富士川町","town":"鹿島"},{"zip_code":"4000504","prefecture_kana":"ヤマナシケン","city_kana":"ミナミコマグンフジカワチョウ","town_kana":"コバヤシ","prefecture":"山梨県","city":"南巨摩郡富士川町","town":"小林"},{"zip_code":"4000512","prefecture_kana":"ヤマナシケン","city_kana":"ミナミコマグンフジカワチョウ","town_kana":"コムロ","prefecture":"山梨県","city":"南巨摩郡富士川町","town":"小室"},{"zip_code":"4000502","prefecture_kana":"ヤマナシケン","city_kana":"ミナミコマグンフジカワチョウ","town_kana":"サイショウジ","prefecture":"山梨県","city":"南巨摩郡富士川町","town":"最勝寺"},{"zip_code":"4000606","prefecture_kana":"ヤマナシケン","city_kana":"ミナミコマグンフジカワチョウ","town_kana":"ジッコク","prefecture":"山梨県","city":"南巨摩郡富士川町","town":"十谷"},{"zip_code":"4000513","prefecture_kana":"ヤマナシケン","city_kana":"ミナミコマグンフジカワチョウ","town_kana":"タカオリ","prefecture":"山梨県","city":"南巨摩郡富士川町","town":"高下"},{"zip_code":"4000608","prefecture_kana":"ヤマナシケン","city_kana":"ミナミコマグンフジカワチョウ","town_kana":"チョウチザワ","prefecture":"山梨県","city":"南巨摩郡富士川町","town":"長知沢"},{"zip_code":"4000515","prefecture_kana":"ヤマナシケン","city_kana":"ミナミコマグンフジカワチョウ","town_kana":"ツキヨネ","prefecture":"山梨県","city":"南巨摩郡富士川町","town":"舂米"},{"zip_code":"4000503","prefecture_kana":"ヤマナシケン","city_kana":"ミナミコマグンフジカワチョウ","town_kana":"テンジンナカジョウ","prefecture":"山梨県","city":"南巨摩郡富士川町","town":"天神中條"},{"zip_code":"4000607","prefecture_kana":"ヤマナシケン","city_kana":"ミナミコマグンフジカワチョウ","town_kana":"トヤ","prefecture":"山梨県","city":"南巨摩郡富士川町","town":"鳥屋"},{"zip_code":"4000505","prefecture_kana":"ヤマナシケン","city_kana":"ミナミコマグンフジカワチョウ","town_kana":"ナガサワ","prefecture":"山梨県","city":"南巨摩郡富士川町","town":"長澤"},{"zip_code":"4000604","prefecture_kana":"ヤマナシケン","city_kana":"ミナミコマグンフジカワチョウ","town_kana":"ハコバラ","prefecture":"山梨県","city":"南巨摩郡富士川町","town":"箱原"},{"zip_code":"4000514","prefecture_kana":"ヤマナシケン","city_kana":"ミナミコマグンフジカワチョウ","town_kana":"ヒラバヤシ","prefecture":"山梨県","city":"南巨摩郡富士川町","town":"平林"},{"zip_code":"4000605","prefecture_kana":"ヤマナシケン","city_kana":"ミナミコマグンフジカワチョウ","town_kana":"ヤナガワ","prefecture":"山梨県","city":"南巨摩郡富士川町","town":"柳川"},{"zip_code":"4093800","prefecture_kana":"ヤマナシケン","city_kana":"ナカコマグンショウワチョウ","town_kana":"イカニケイサイガナイバアイ","prefecture":"山梨県","city":"中巨摩郡昭和町","town":"以下に掲載がない場合"},{"zip_code":"4093852","prefecture_kana":"ヤマナシケン","city_kana":"ナカコマグンショウワチョウ","town_kana":"イックイ","prefecture":"山梨県","city":"中巨摩郡昭和町","town":"飯喰"},{"zip_code":"4093864","prefecture_kana":"ヤマナシケン","city_kana":"ナカコマグンショウワチョウ","town_kana":"オシコシ","prefecture":"山梨県","city":"中巨摩郡昭和町","town":"押越"},{"zip_code":"4093851","prefecture_kana":"ヤマナシケン","city_kana":"ナカコマグンショウワチョウ","town_kana":"カサイ","prefecture":"山梨県","city":"中巨摩郡昭和町","town":"河西"},{"zip_code":"4093863","prefecture_kana":"ヤマナシケン","city_kana":"ナカコマグンショウワチョウ","town_kana":"カトウナカジマ","prefecture":"山梨県","city":"中巨摩郡昭和町","town":"河東中島"},{"zip_code":"4093862","prefecture_kana":"ヤマナシケン","city_kana":"ナカコマグンショウワチョウ","town_kana":"カミガトウ","prefecture":"山梨県","city":"中巨摩郡昭和町","town":"上河東"},{"zip_code":"4093861","prefecture_kana":"ヤマナシケン","city_kana":"ナカコマグンショウワチョウ","town_kana":"カミスキアワラ","prefecture":"山梨県","city":"中巨摩郡昭和町","town":"紙漉阿原"},{"zip_code":"4093866","prefecture_kana":"ヤマナシケン","city_kana":"ナカコマグンショウワチョウ","town_kana":"サイジョウ","prefecture":"山梨県","city":"中巨摩郡昭和町","town":"西条"},{"zip_code":"4093865","prefecture_kana":"ヤマナシケン","city_kana":"ナカコマグンショウワチョウ","town_kana":"サイジョウシンデン","prefecture":"山梨県","city":"中巨摩郡昭和町","town":"西条新田"},{"zip_code":"4093867","prefecture_kana":"ヤマナシケン","city_kana":"ナカコマグンショウワチョウ","town_kana":"シミズアライ","prefecture":"山梨県","city":"中巨摩郡昭和町","town":"清水新居"},{"zip_code":"4093853","prefecture_kana":"ヤマナシケン","city_kana":"ナカコマグンショウワチョウ","town_kana":"ツイジアライ","prefecture":"山梨県","city":"中巨摩郡昭和町","town":"築地新居"},{"zip_code":"4093854","prefecture_kana":"ヤマナシケン","city_kana":"ナカコマグンショウワチョウ","town_kana":"ツイジシンデン","prefecture":"山梨県","city":"中巨摩郡昭和町","town":"築地新田"},{"zip_code":"4020200","prefecture_kana":"ヤマナシケン","city_kana":"ミナミツルグンドウシムラ","town_kana":"イカニケイサイガナイバアイ","prefecture":"山梨県","city":"南都留郡道志村","town":"以下に掲載がない場合"},{"zip_code":"4020225","prefecture_kana":"ヤマナシケン","city_kana":"ミナミツルグンドウシムラ","town_kana":"イタバシ","prefecture":"山梨県","city":"南都留郡道志村","town":"板橋"},{"zip_code":"4020207","prefecture_kana":"ヤマナシケン","city_kana":"ミナミツルグンドウシムラ","town_kana":"オオグリ","prefecture":"山梨県","city":"南都留郡道志村","town":"大栗"},{"zip_code":"4020215","prefecture_kana":"ヤマナシケン","city_kana":"ミナミツルグンドウシムラ","town_kana":"オオザス","prefecture":"山梨県","city":"南都留郡道志村","town":"大指"},{"zip_code":"4020202","prefecture_kana":"ヤマナシケン","city_kana":"ミナミツルグンドウシムラ","town_kana":"オオノ","prefecture":"山梨県","city":"南都留郡道志村","town":"大野"},{"zip_code":"4020204","prefecture_kana":"ヤマナシケン","city_kana":"ミナミツルグンドウシムラ","town_kana":"オオムロザス","prefecture":"山梨県","city":"南都留郡道志村","town":"大室指"},{"zip_code":"4020214","prefecture_kana":"ヤマナシケン","city_kana":"ミナミツルグンドウシムラ","town_kana":"カワラハタ","prefecture":"山梨県","city":"南都留郡道志村","town":"川原畑"},{"zip_code":"4020216","prefecture_kana":"ヤマナシケン","city_kana":"ミナミツルグンドウシムラ","town_kana":"カマノマエ","prefecture":"山梨県","city":"南都留郡道志村","town":"釜之前"},{"zip_code":"4020227","prefecture_kana":"ヤマナシケン","city_kana":"ミナミツルグンドウシムラ","town_kana":"カミシロイタイラ","prefecture":"山梨県","city":"南都留郡道志村","town":"上白井平"},{"zip_code":"4020223","prefecture_kana":"ヤマナシケン","city_kana":"ミナミツルグンドウシムラ","town_kana":"カミゼンノキ","prefecture":"山梨県","city":"南都留郡道志村","town":"上善之木"},{"zip_code":"4020221","prefecture_kana":"ヤマナシケン","city_kana":"ミナミツルグンドウシムラ","town_kana":"カミナカヤマ","prefecture":"山梨県","city":"南都留郡道志村","town":"上中山"},{"zip_code":"4020224","prefecture_kana":"ヤマナシケン","city_kana":"ミナミツルグンドウシムラ","town_kana":"カワムラ","prefecture":"山梨県","city":"南都留郡道志村","town":"川村"},{"zip_code":"4020203","prefecture_kana":"ヤマナシケン","city_kana":"ミナミツルグンドウシムラ","town_kana":"クボ","prefecture":"山梨県","city":"南都留郡道志村","town":"久保"},{"zip_code":"4020206","prefecture_kana":"ヤマナシケン","city_kana":"ミナミツルグンドウシムラ","town_kana":"コゼンジ","prefecture":"山梨県","city":"南都留郡道志村","town":"小善地"},{"zip_code":"4020226","prefecture_kana":"ヤマナシケン","city_kana":"ミナミツルグンドウシムラ","town_kana":"シモシロイタイラ","prefecture":"山梨県","city":"南都留郡道志村","town":"下白井平"},{"zip_code":"4020222","prefecture_kana":"ヤマナシケン","city_kana":"ミナミツルグンドウシムラ","town_kana":"シモゼンノキ","prefecture":"山梨県","city":"南都留郡道志村","town":"下善之木"},{"zip_code":"4020219","prefecture_kana":"ヤマナシケン","city_kana":"ミナミツルグンドウシムラ","town_kana":"シモナカヤマ","prefecture":"山梨県","city":"南都留郡道志村","town":"下中山"},{"zip_code":"4020209","prefecture_kana":"ヤマナシケン","city_kana":"ミナミツルグンドウシムラ","town_kana":"タケノモト","prefecture":"山梨県","city":"南都留郡道志村","town":"竹之本"},{"zip_code":"4020201","prefecture_kana":"ヤマナシケン","city_kana":"ミナミツルグンドウシムラ","town_kana":"ツキヨノ","prefecture":"山梨県","city":"南都留郡道志村","town":"月夜野"},{"zip_code":"4020205","prefecture_kana":"ヤマナシケン","city_kana":"ミナミツルグンドウシムラ","town_kana":"ツバキ","prefecture":"山梨県","city":"南都留郡道志村","town":"椿"},{"zip_code":"4020218","prefecture_kana":"ヤマナシケン","city_kana":"ミナミツルグンドウシムラ","town_kana":"ナカカンジ","prefecture":"山梨県","city":"南都留郡道志村","town":"中神地"},{"zip_code":"4020228","prefecture_kana":"ヤマナシケン","city_kana":"ミナミツルグンドウシムラ","town_kana":"ナガマタ","prefecture":"山梨県","city":"南都留郡道志村","town":"長又"},{"zip_code":"4020212","prefecture_kana":"ヤマナシケン","city_kana":"ミナミツルグンドウシムラ","town_kana":"ニシワデムラ","prefecture":"山梨県","city":"南都留郡道志村","town":"西和出村"},{"zip_code":"4020208","prefecture_kana":"ヤマナシケン","city_kana":"ミナミツルグンドウシムラ","town_kana":"バンバ","prefecture":"山梨県","city":"南都留郡道志村","town":"馬場"},{"zip_code":"4020217","prefecture_kana":"ヤマナシケン","city_kana":"ミナミツルグンドウシムラ","town_kana":"ヒガシカンジ","prefecture":"山梨県","city":"南都留郡道志村","town":"東神地"},{"zip_code":"4020211","prefecture_kana":"ヤマナシケン","city_kana":"ミナミツルグンドウシムラ","town_kana":"ヒガシワデムラ","prefecture":"山梨県","city":"南都留郡道志村","town":"東和出村"},{"zip_code":"4020213","prefecture_kana":"ヤマナシケン","city_kana":"ミナミツルグンドウシムラ","town_kana":"ヤソウ","prefecture":"山梨県","city":"南都留郡道志村","town":"谷相"},{"zip_code":"4030000","prefecture_kana":"ヤマナシケン","city_kana":"ミナミツルグンニシカツラチョウ","town_kana":"イカニケイサイガナイバアイ","prefecture":"山梨県","city":"南都留郡西桂町","town":"以下に掲載がない場合"},{"zip_code":"4030022","prefecture_kana":"ヤマナシケン","city_kana":"ミナミツルグンニシカツラチョウ","town_kana":"オヌマ","prefecture":"山梨県","city":"南都留郡西桂町","town":"小沼"},{"zip_code":"4030023","prefecture_kana":"ヤマナシケン","city_kana":"ミナミツルグンニシカツラチョウ","town_kana":"クラミ","prefecture":"山梨県","city":"南都留郡西桂町","town":"倉見"},{"zip_code":"4030021","prefecture_kana":"ヤマナシケン","city_kana":"ミナミツルグンニシカツラチョウ","town_kana":"シモクレチ","prefecture":"山梨県","city":"南都留郡西桂町","town":"下暮地"},{"zip_code":"4010500","prefecture_kana":"ヤマナシケン","city_kana":"ミナミツルグンオシノムラ","town_kana":"イカニケイサイガナイバアイ","prefecture":"山梨県","city":"南都留郡忍野村","town":"以下に掲載がない場合"},{"zip_code":"4010512","prefecture_kana":"ヤマナシケン","city_kana":"ミナミツルグンオシノムラ","town_kana":"ウチノ","prefecture":"山梨県","city":"南都留郡忍野村","town":"内野"},{"zip_code":"4010511","prefecture_kana":"ヤマナシケン","city_kana":"ミナミツルグンオシノムラ","town_kana":"シボクサ","prefecture":"山梨県","city":"南都留郡忍野村","town":"忍草"},{"zip_code":"4010500","prefecture_kana":"ヤマナシケン","city_kana":"ミナミツルグンヤマナカコムラ","town_kana":"イカニケイサイガナイバアイ","prefecture":"山梨県","city":"南都留郡山中湖村","town":"以下に掲載がない場合"},{"zip_code":"4010502","prefecture_kana":"ヤマナシケン","city_kana":"ミナミツルグンヤマナカコムラ","town_kana":"ヒラノ","prefecture":"山梨県","city":"南都留郡山中湖村","town":"平野"},{"zip_code":"4010501","prefecture_kana":"ヤマナシケン","city_kana":"ミナミツルグンヤマナカコムラ","town_kana":"ヤマナカ","prefecture":"山梨県","city":"南都留郡山中湖村","town":"山中"},{"zip_code":"4010320","prefecture_kana":"ヤマナシケン","city_kana":"ミナミツルグンナルサワムラ","town_kana":"ナルサワムライチエン","prefecture":"山梨県","city":"南都留郡鳴沢村","town":"鳴沢村一円"},{"zip_code":"4010300","prefecture_kana":"ヤマナシケン","city_kana":"ミナミツルグンフジカワグチコマチ","town_kana":"イカニケイサイガナイバアイ","prefecture":"山梨県","city":"南都留郡富士河口湖町","town":"以下に掲載がない場合"},{"zip_code":"4010303","prefecture_kana":"ヤマナシケン","city_kana":"ミナミツルグンフジカワグチコマチ","town_kana":"アザガワ","prefecture":"山梨県","city":"南都留郡富士河口湖町","town":"浅川"},{"zip_code":"4010335","prefecture_kana":"ヤマナシケン","city_kana":"ミナミツルグンフジカワグチコマチ","town_kana":"オオアラシ","prefecture":"山梨県","city":"南都留郡富士河口湖町","town":"大嵐"},{"zip_code":"4010305","prefecture_kana":"ヤマナシケン","city_kana":"ミナミツルグンフジカワグチコマチ","town_kana":"オオイシ","prefecture":"山梨県","city":"南都留郡富士河口湖町","town":"大石"},{"zip_code":"4010310","prefecture_kana":"ヤマナシケン","city_kana":"ミナミツルグンフジカワグチコマチ","town_kana":"カツヤマ","prefecture":"山梨県","city":"南都留郡富士河口湖町","town":"勝山"},{"zip_code":"4010304","prefecture_kana":"ヤマナシケン","city_kana":"ミナミツルグンフジカワグチコマチ","town_kana":"カワグチ","prefecture":"山梨県","city":"南都留郡富士河口湖町","town":"河口"},{"zip_code":"4010302","prefecture_kana":"ヤマナシケン","city_kana":"ミナミツルグンフジカワグチコマチ","town_kana":"コダチ","prefecture":"山梨県","city":"南都留郡富士河口湖町","town":"小立"},{"zip_code":"4010332","prefecture_kana":"ヤマナシケン","city_kana":"ミナミツルグンフジカワグチコマチ","town_kana":"サイコ","prefecture":"山梨県","city":"南都留郡富士河口湖町","town":"西湖"},{"zip_code":"4010333","prefecture_kana":"ヤマナシケン","city_kana":"ミナミツルグンフジカワグチコマチ","town_kana":"サイコニシ","prefecture":"山梨県","city":"南都留郡富士河口湖町","town":"西湖西"},{"zip_code":"4010334","prefecture_kana":"ヤマナシケン","city_kana":"ミナミツルグンフジカワグチコマチ","town_kana":"サイコミナミ","prefecture":"山梨県","city":"南都留郡富士河口湖町","town":"西湖南"},{"zip_code":"4010336","prefecture_kana":"ヤマナシケン","city_kana":"ミナミツルグンフジカワグチコマチ","town_kana":"ショウジ","prefecture":"山梨県","city":"南都留郡富士河口湖町","town":"精進"},{"zip_code":"4010331","prefecture_kana":"ヤマナシケン","city_kana":"ミナミツルグンフジカワグチコマチ","town_kana":"ナガハマ","prefecture":"山梨県","city":"南都留郡富士河口湖町","town":"長浜"},{"zip_code":"4010338","prefecture_kana":"ヤマナシケン","city_kana":"ミナミツルグンフジカワグチコマチ","town_kana":"フジガネ","prefecture":"山梨県","city":"南都留郡富士河口湖町","town":"富士ケ嶺"},{"zip_code":"4010301","prefecture_kana":"ヤマナシケン","city_kana":"ミナミツルグンフジカワグチコマチ","town_kana":"フナツ","prefecture":"山梨県","city":"南都留郡富士河口湖町","town":"船津"},{"zip_code":"4010337","prefecture_kana":"ヤマナシケン","city_kana":"ミナミツルグンフジカワグチコマチ","town_kana":"モトス","prefecture":"山梨県","city":"南都留郡富士河口湖町","town":"本栖"},{"zip_code":"4090200","prefecture_kana":"ヤマナシケン","city_kana":"キタツルグンコスゲムラ","town_kana":"イカニケイサイガナイバアイ","prefecture":"山梨県","city":"北都留郡小菅村","town":"以下に掲載がない場合"},{"zip_code":"4090142","prefecture_kana":"ヤマナシケン","city_kana":"キタツルグンコスゲムラ","town_kana":"コスゲムラノツギニ１−６６３バンチガクルバアイ","prefecture":"山梨県","city":"北都留郡小菅村","town":"小菅村の次に１〜６６３番地がくる場合"},{"zip_code":"4090211","prefecture_kana":"ヤマナシケン","city_kana":"キタツルグンコスゲムラ","town_kana":"コスゲムラノツギニ６６４バンチイコウガクルバアイ","prefecture":"山梨県","city":"北都留郡小菅村","town":"小菅村の次に６６４番地以降がくる場合"},{"zip_code":"4090300","prefecture_kana":"ヤマナシケン","city_kana":"キタツルグンタバヤマムラ","town_kana":"イカニケイサイガナイバアイ","prefecture":"山梨県","city":"北都留郡丹波山村","town":"以下に掲載がない場合"},{"zip_code":"4090301","prefecture_kana":"ヤマナシケン","city_kana":"キタツルグンタバヤマムラ","town_kana":"オクアキ","prefecture":"山梨県","city":"北都留郡丹波山村","town":"奥秋"},{"zip_code":"4090306","prefecture_kana":"ヤマナシケン","city_kana":"キタツルグンタバヤマムラ","town_kana":"オシガイト","prefecture":"山梨県","city":"北都留郡丹波山村","town":"押垣外"},{"zip_code":"4090314","prefecture_kana":"ヤマナシケン","city_kana":"キタツルグンタバヤマムラ","town_kana":"オマツリ","prefecture":"山梨県","city":"北都留郡丹波山村","town":"御祭"},{"zip_code":"4090313","prefecture_kana":"ヤマナシケン","city_kana":"キタツルグンタバヤマムラ","town_kana":"オヤガワ","prefecture":"山梨県","city":"北都留郡丹波山村","town":"親川"},{"zip_code":"4090302","prefecture_kana":"ヤマナシケン","city_kana":"キタツルグンタバヤマムラ","town_kana":"カミグミ","prefecture":"山梨県","city":"北都留郡丹波山村","town":"上組"},{"zip_code":"4090318","prefecture_kana":"ヤマナシケン","city_kana":"キタツルグンタバヤマムラ","town_kana":"カモサワ","prefecture":"山梨県","city":"北都留郡丹波山村","town":"鴨沢"},{"zip_code":"4090317","prefecture_kana":"ヤマナシケン","city_kana":"キタツルグンタバヤマムラ","town_kana":"コソデ","prefecture":"山梨県","city":"北都留郡丹波山村","town":"小袖"},{"zip_code":"4090304","prefecture_kana":"ヤマナシケン","city_kana":"キタツルグンタバヤマムラ","town_kana":"シモグミ","prefecture":"山梨県","city":"北都留郡丹波山村","town":"下組"},{"zip_code":"4090315","prefecture_kana":"ヤマナシケン","city_kana":"キタツルグンタバヤマムラ","town_kana":"スギナクボ","prefecture":"山梨県","city":"北都留郡丹波山村","town":"杉奈久保"},{"zip_code":"4090305","prefecture_kana":"ヤマナシケン","city_kana":"キタツルグンタバヤマムラ","town_kana":"タカオ","prefecture":"山梨県","city":"北都留郡丹波山村","town":"高尾"},{"zip_code":"4090312","prefecture_kana":"ヤマナシケン","city_kana":"キタツルグンタバヤマムラ","town_kana":"タカハタ","prefecture":"山梨県","city":"北都留郡丹波山村","town":"高畑"},{"zip_code":"4090316","prefecture_kana":"ヤマナシケン","city_kana":"キタツルグンタバヤマムラ","town_kana":"トコロハタ","prefecture":"山梨県","city":"北都留郡丹波山村","town":"所畑"},{"zip_code":"4090303","prefecture_kana":"ヤマナシケン","city_kana":"キタツルグンタバヤマムラ","town_kana":"ナカグミ","prefecture":"山梨県","city":"北都留郡丹波山村","town":"中組"},{"zip_code":"4090311","prefecture_kana":"ヤマナシケン","city_kana":"キタツルグンタバヤマムラ","town_kana":"ホノセ","prefecture":"山梨県","city":"北都留郡丹波山村","town":"保之瀬"}]